 2017  210 1258  4.3 R  47.577 106.755 29.7  mon 27 0.2-0.4Lmon                1
 GAP= 83        0.64       1.0     1.3  1.9 -0.4054E-01  0.2652E+00  0.4836E+00E
 ACTION:REG 18-10-16 09:43 OP:ngse STATUS:               ID:20170210125804     I
 IDC: ellipse    1.0    0.9 167 MB sd+-                  Event ID    68590     3
 * 12 km  S Undur Dov UB region                      ***                       3
 STAT SP IPHASW D HRMM SECON CODA AMPLIT PERI AZIMU VELO AIN AR TRES W  DIS CAZ7
 U05M     P    a  1258 10.40                             151    0.2410 17.6 165 
 U05M     S    a  1258 14.50                             151    0.0310 17.6 165 
 U06M     P    a  1258 10.40                             150    0.2610 17.9 294 
 U06M     S    a  1258 14.80     0.90     0.2            150    0.3710 17.9 294 
 UB5M     P    a  1258 10.70                             139   -0.3010 27.0   4 
 UB5M     S    a  1258 15.80                             139   -0.1210 27.0   4 
 UB4M     P    a  1258 11.40                             137    0.2210 28.8 338 
 UB4M     S    a  1258 16.40                             137    0.1810 28.8 338 
 SB3M     P    a  1258 12.60                             129    0.2510 38.3 318 
 SB3M     S    a  1258 18.30     0.70     0.2            129    0.0410 38.3 318 
 SB2M     P    a  1258 12.60                             129    0.1410 39.1 321 
 SB2M     S    a  1258 18.60     0.60     0.4            129    0.1610 39.1 321 
 SA4M     P    a  1258 12.60                             128    0.1310 39.3 318 
 SA4M     S    a  1258 18.60     0.80     0.3            128    0.1310 39.3 318 
 SA0M     P    a  1258 12.40                             128   -0.0810 39.4 317 
 SA0M     S    a  1258 18.40                             128   -0.0710 39.4 317 
 SA3M     P    a  1258 12.50                             128   -0.0410 39.7 320 
 SA3M     S    a  1258 18.50     0.40     0.2            128   -0.0810 39.7 320 
 SA1M     P    a  1258 12.60                             128    0.0410 39.9 319 
 SA1M     S    a  1258 18.70      1.0     0.2            128    0.0910 39.9 319 
 SA2M     P    a  1258 12.60                             128   -0.0310 40.5 319 
 SA2M     S    a  1258 18.60     0.60     0.2            128   -0.1310 40.5 319 
 UB1M     P    a  1258 12.90                             127    0.2910 40.5 342 
 UB1M     S    a  1258 18.80                             127    0.1010 40.5 342 
 SB4M     P    a  1258 12.80                             127    0.1010 41.1 314 
 SB4M     S    a  1258 18.70     0.30     0.2            127   -0.1610 41.1 314 
 SB1M     P    a  1258 12.60                             127   -0.1410 41.3 321 
 SB1M     S    a  1258 18.60                             127   -0.3310 41.3 321 
 SB5M     P    a  1258 13.20                             126    0.3510 42.2 317 
 SB5M     S    a  1258 18.90                             126   -0.2110 42.2 317 
 ALFM     P    a  1258 13.80                             123    0.2310 47.4   2 
 ALFM     S    a  1258 20.10                             123   -0.2510 47.4   2 
 UGDM     P    a  1258 13.40                             123   -0.4110 49.0  82 
 UGDM     S    a  1258 19.80                             123   -0.98 8 49.0  82 
 U08M     P    a  1258 14.30                             121    0.2510 51.0 255 
 U08M     S    a  1258 21.00     0.20     0.2            121   -0.1910 51.0 255 
 U09M     P    a  1258 14.10                             121    0.0310 51.2 288 
 U09M     S    a  1258 21.10     0.80     0.2            121   -0.1210 51.2 288 
 UB2M     P    a  1258 14.60                             120    0.0810 54.4 335 
 UB2M     S    a  1258 22.30                             120    0.2910 54.4 335 
 ARTM     P    a  1258 14.80                             120    0.1710 54.9  45 
 ARTM     S    a  1258 22.30                             120    0.1110 54.9  45 
 U07M     P    a  1258 15.20                             118    0.1710 57.9 216 
 U07M     S    a  1258 22.80                             118   -0.0910 57.9 216 
 UB0M     P    a  1258 17.40                             113   -0.1010 74.6 305 
 UB0M     S    a  1258 26.90                             113   -0.2510 74.6 305 
 U11M     P    a  1258 19.50                             110    0.51 9 84.4 286 
 U11M     S    a  1258 29.50     0.30     0.2            110   -0.2410 84.4 286 
 U10M     P    a  1258 19.50                             110    0.0910 87.2 260 
 U10M     S    a  1258 30.30                             110   -0.1610 87.2 260 
 U12M     P    a  1258 21.90                             107   -0.0710  104 277 
 U12M     S    a  1258 34.60     0.10     0.1            107   -0.2910  104 277 
 U13M     P    a  1258 22.90                             105   -0.3910  112 295 
 U13M     S    a  1258 37.10                             105   -0.0810  112 295 
                                                                                
 2017  210 1304 42.2 R  47.580 106.760 29.9  mon 31 0.3-0.1Lmon                1
 GAP= 84        0.81       1.2     1.4  2.1 -0.8302E-01 -0.1600E+00  0.4027E+00E
 ACTION:REG 18-10-16 09:43 OP:ngse STATUS:               ID:20170210130442     I
 IDC: ellipse    0.7    0.6 168 MB sd+-                  Event ID    68590     3
 * 12 km  S Undur Dov UB region                      ***                       3
 STAT SP IPHASW D HRMM SECON CODA AMPLIT PERI AZIMU VELO AIN AR TRES W  DIS CAZ7
 U05M     P    a  1304 48.40                             151    0.2710 17.8 166 
 U05M     S    a  1304 52.50                             151    0.0410 17.8 166 
 U06M     P    a  1304 48.30                             150    0.1910 18.1 293 
 U06M     S    a  1304 52.70      3.1     0.2            150    0.2610 18.1 293 
 UB5M     P    a  1304 48.70                             140   -0.2010 26.6   3 
 UB5M     S    a  1304 53.60                             140   -0.2110 26.6   3 
 UB4M     P    a  1304 49.30                             137    0.2010 28.6 336 
 UB4M     S    a  1304 54.20                             137    0.0510 28.6 336 
 SB3M     P    a  1304 50.50                             129    0.2110 38.3 318 
 SB3M     S    a  1304 56.20     0.40     0.2            129   -0.0210 38.3 318 
 SB2M     P    a  1304 50.50                             129    0.1010 39.1 320 
 SB2M     S    a  1304 56.50     0.40     0.2            129    0.1010 39.1 320 
 SA4M     P    a  1304 50.60                             129    0.1910 39.3 317 
 SA4M     S    a  1304 56.50                             129    0.0810 39.3 317 
 SA0M     P    a  1304 50.50                             128    0.0810 39.4 316 
 SA0M     S    a  1304 56.40     0.40     0.2            128   -0.0310 39.4 316 
 SA3M     P    a  1304 50.60                             128    0.1210 39.8 319 
 SA3M     S    a  1304 56.40                             128   -0.1310 39.8 319 
 SA1M     P    a  1304 50.50                             128    0.0010 40.0 318 
 SA1M     S    a  1304 56.60      1.7     0.2            128    0.0310 40.0 318 
 UB1M     P    a  1304 50.80                             128    0.2810 40.3 341 
 UB1M     S    a  1304 56.60                             128   -0.0110 40.3 341 
 SA2M     P    a  1304 50.60                             128    0.0310 40.5 318 
 SA2M     S    a  1304 56.50      1.9     0.2            128   -0.1910 40.5 318 
 SB4M     P    a  1304 50.70                             127    0.0510 41.2 313 
 SB4M     S    a  1304 56.70      1.1     0.3            127   -0.1310 41.2 313 
 SB1M     P    a  1304 50.80                             127    0.1210 41.3 320 
 SB1M     S    a  1304 56.90     0.70     0.2            127    0.0210 41.3 320 
 SB5M     P    a  1304 50.90                             127    0.1110 42.3 316 
 SB5M     S    a  1304 56.90     0.90     0.3            127   -0.1710 42.3 316 
 ALFM     P    a  1304 52.20                             124    0.75 9 47.1   1 
 ALFM     S    a  1304 58.40                             124    0.1910 47.1   1 
 UGDM     P    a  1304 51.90                             123    0.2210 48.6  82 
 UGDM     S    a  1304 58.00     0.30     0.2            123   -0.61 9 48.6  82 
 U09M     P    a  1304 53.10                             121    1.06 8 51.5 287 
 U09M     S    a  1304 59.00      2.6     0.3            121   -0.2410 51.5 287 
 U08M     P    a  1304 52.10                             121    0.0510 51.6 255 
 U08M     S    a  1304 59.20     0.60     0.2            121   -0.0610 51.6 255 
 UB2M     P    a  1304 52.60                             120    0.1610 54.3 334 
 UB2M     S    a  1305 00.10                             120    0.1810 54.3 334 
 ARTM     P    a  1304 52.70                             120    0.2210 54.3  45 
 ARTM     S    a  1304 59.90     0.90     0.2            120   -0.1010 54.3  45 
 U07M     P    a  1304 53.00                             118   -0.0410 58.5 216 
 U07M     S    a  1305 00.80      1.1     0.2            118   -0.1710 58.5 216 
 UB0M     P    a  1304 55.70                             113    0.2510 74.8 305 
 UB0M     S    a  1305 04.80                             113   -0.3310 74.8 305 
 U16M     P    a  1304 56.10                             112    0.2010 77.8   3 
 U16M     S    a  1305 05.90      3.3     0.2            112   -0.0210 77.8   3 
 U11M     P    a  1304 57.70                             110    0.73 9 84.8 285 
 U11M     S    a  1305 07.30                             110   -0.4610 84.8 285 
 U10M     P    a  1304 57.40                             110   -0.0110 87.7 260 
 U10M     S    a  1305 08.00                             110   -0.53 9 87.7 260 
 U12M     P    a  1304 59.90                             107   -0.0610  104 276 
 U12M     S    a  1305 12.50     0.70     0.2            107   -0.4310  104 276 
 U13M     P    a  1305 01.60                             106    0.3510  112 294 
 U13M     S    a  1305 15.20                             106    0.0210  112 294 
 U15M     P    a  1305 02.10                             105   -0.0010  118 346 
 U15M     S    a  1305 16.00                             105   -0.65 9  118 346 
 U14M     S    a  1305 21.90                             103   -0.75 9  139 297 
 U04M     P    a  1305 06.30                             102   -0.61 9  148  77 
 U04M     S    a  1305 24.30                             102   -0.67 9  148  77 
                                                                                
 2017  210 1307 13.5 R  47.578 106.762 30.8  mon 32 0.3 0.4Lmon                1
 GAP= 85        0.79       1.1     1.4  1.7 -0.5975E-01 -0.1784E+00  0.6166E+00E
 ACTION:REG 18-10-16 09:43 OP:ngse STATUS:               ID:20170210130713     I
 IDC: ellipse    0.7    0.7 147 MB sd+-                  Event ID    68590     3
 * 12 km  S Undur Dov UB region                      ***                       3
 STAT SP IPHASW D HRMM SECON CODA AMPLIT PERI AZIMU VELO AIN AR TRES W  DIS CAZ7
 U05M     P    a  1307 19.80                             152    0.2510 17.6 167 
 U05M     S    a  1307 24.00                             152    0.0210 17.6 167 
 U06M     P    a  1307 19.80                             150    0.2310 18.3 293 
 U06M     S    a  1307 24.20                             150    0.1910 18.3 293 
 UB5M     P    a  1307 20.90                             140    0.55 9 26.8   3 
 UB5M     S    a  1307 25.10                             140   -0.2610 26.8   3 
 UB4M     P    a  1307 20.90                             138    0.3510 28.9 336 
 UB4M     S    a  1307 25.50                             138   -0.2010 28.9 336 
 SB3M     P    a  1307 21.90                             130    0.1710 38.6 318 
 SB3M     S    a  1307 27.90      4.2     0.2            130    0.1510 38.6 318 
 SB2M     P    a  1307 22.00                             129    0.1610 39.4 320 
 SB2M     S    a  1307 28.00                             129    0.0710 39.4 320 
 SA4M     P    a  1307 22.10                             129    0.2510 39.6 317 
 SA4M     S    a  1307 28.00      4.7     0.2            129    0.0510 39.6 317 
 SA0M     P    a  1307 22.00                             129    0.1510 39.6 316 
 SA0M     S    a  1307 27.70                             129   -0.2610 39.6 316 
 SA3M     P    a  1307 22.10                             129    0.1910 40.0 319 
 SA3M     S    a  1307 28.00      3.6     0.3            129   -0.0610 40.0 319 
 SA1M     P    a  1307 22.10                             129    0.1710 40.2 318 
 SA1M     S    a  1307 27.90      4.7     0.2            129   -0.2010 40.2 318 
 UB1M     P    a  1307 22.40                             129    0.4410 40.5 341 
 UB1M     S    a  1307 27.80                             129   -0.3410 40.5 341 
 SA2M     P    a  1307 22.20                             128    0.2010 40.7 318 
 SA2M     S    a  1307 27.90      1.6     0.2            128   -0.3210 40.7 318 
 SB4M     P    a  1307 22.30                             128    0.2210 41.4 313 
 SB4M     S    a  1307 28.20      2.8     0.3            128   -0.1510 41.4 313 
 SB1M     P    a  1307 22.40                             128    0.2910 41.5 320 
 SB1M     S    a  1307 28.20      2.0     0.2            128   -0.2110 41.5 320 
 SB5M     P    a  1307 22.40                             127    0.1810 42.5 316 
 SB5M     S    a  1307 28.30      2.2     0.3            127   -0.3010 42.5 316 
 ALFM     P    a  1307 22.90                             124    0.0310 47.3   1 
 ALFM     S    a  1307 29.70      1.1     0.2            124   -0.0210 47.3   1 
 UGDM     P    a  1307 23.00                             124   -0.0610 48.5  82 
 UGDM     S    a  1307 29.60     0.90     0.2            124   -0.4510 48.5  82 
 U08M     P    a  1307 23.60                             122    0.1510 51.6 255 
 U08M     S    a  1307 30.60      1.9     0.2            122   -0.1310 51.6 255 
 U09M     P    a  1307 23.60                             122    0.1410 51.7 287 
 U09M     S    a  1307 30.50      5.4     0.2            122   -0.2410 51.7 287 
 ARTM     P    a  1307 24.00                             121    0.1210 54.4  44 
 ARTM     S    a  1307 31.50      3.7     0.2            121    0.0410 54.4  44 
 UB2M     P    a  1307 24.20                             121    0.3410 54.5 334 
 UB2M     S    a  1307 31.40                             121   -0.0210 54.5 334 
 U07M     P    a  1307 24.60                             119    0.1910 58.4 216 
 U07M     S    a  1307 32.30      3.1     0.2            119   -0.0910 58.4 216 
 UB0M     P    a  1307 27.10                             113    0.2510 75.0 305 
 UB0M     S    a  1307 36.60                             113   -0.0010 75.0 305 
 U16M     P    a  1307 27.60                             112    0.3010 78.0   3 
 U16M     S    a  1307 37.40                             112    0.0210 78.0   3 
 U11M     P    a  1307 28.60                             111    0.2410 84.9 285 
 U11M     S    a  1307 39.00                             111   -0.2110 84.9 285 
 U10M     P    a  1307 28.80                             110    0.0110 87.7 260 
 U10M     S    a  1307 39.50      1.6     0.2            110   -0.4510 87.7 260 
 U12M     P    a  1307 31.50                             107    0.1710  104 276 
 U12M     S    a  1307 43.90      2.1     0.2            107   -0.4610  104 276 
 U13M     P    a  1307 32.60                             106   -0.0410  112 294 
 U13M     S    a  1307 46.50      1.2     0.2            106   -0.1110  112 294 
 U15M     P    a  1307 33.50                             105    0.0110  118 346 
 U15M     S    a  1307 47.70                             105   -0.3910  118 346 
 U14M     P    a  1307 37.80                             103    0.85 9  140 297 
 U14M     S    a  1307 53.50                             103   -0.57 9  140 297 
 U04M     P    a  1307 37.90                             102   -0.3410  148  77 
 U04M     S    a  1307 55.50                             102   -0.81 9  148  77 
 MDGM     P    a  1307 47.90                              49   -0.0310  209 189 
 MDGM     S    a  1308 11.60     0.50     0.3             49   -1.48 6  209 189 
                                                                                
