 2017  124 1251  0.3 R  47.802 106.769  4.1  mon 21 0.3-0.6Lmon                1
 GAP= 64        0.80       1.1     1.1  3.0 -0.1471E+00 -0.5067E+00  0.6340E+00E
 ACTION:REG 18-10-16 09:43 OP:ngse STATUS:               ID:20170124125100     I
 IDC: ellipse    1.0    0.7 169 MB sd+-                  Event ID     6833     3
 * 5 km  S n                                         ***                       3
 STAT SP IPHASW D HRMM SECON CODA AMPLIT PERI AZIMU VELO AIN AR TRES W  DIS CAZ7
 UB5M     P    a  1251 01.20                             159   -0.0410 2.10  27 
 UB5M     S    a  1251 02.00                             159    0.0610 2.10  27 
 UB4M     P    a  1251 01.80                             114   -0.65 9 12.2 277 
 UB4M     S    a  1251 04.10                             114    0.0610 12.2 277 
 UB1M     P    a  1251 03.60                             106    0.0710 19.1 315 
 UB1M     S    a  1251 06.20                             106    0.3010 19.1 315 
 ALFM     P    a  1251 04.00                             104   -0.0510 22.3   1 
 ALFM     S    a  1251 06.70      1.3     0.2            104   -0.1110 22.3   1 
 U06M     P    a  1251 04.60                             103    0.1710 24.8 225 
 U06M     S    a  1251 07.80                             103    0.3310 24.8 225 
 SB3M     P    a  1251 04.80                             102    0.0510 26.8 278 
 SB3M     S    a  1251 07.80                             102   -0.2210 26.8 278 
 SA3M     P    a  1251 04.60                             102   -0.2510 27.4 281 
 SA3M     S    a  1251 08.20     0.90     0.2            102    0.0110 27.4 281 
 SA4M     P    a  1251 04.90                             101    0.0110 27.6 279 
 SA4M     S    a  1251 08.40      1.1     0.2            101    0.1410 27.6 279 
 SA1M     P    a  1251 04.60                             101   -0.3210 27.8 280 
 SA1M     S    a  1251 08.50     0.70     0.2            101    0.1910 27.8 280 
 SA2M     P    a  1251 04.60                             101   -0.3910 28.2 281 
 SA2M     S    a  1251 08.40      1.1     0.2            101   -0.0310 28.2 281 
 SA0M     P    a  1251 05.00                             101    0.0110 28.2 277 
 SA0M     S    a  1251 08.50     0.50     0.2            101    0.0810 28.2 277 
 SB5M     P    a  1251 05.30                             100   -0.0410 30.5 281 
 SB5M     S    a  1251 09.10     0.50     0.2            100    0.0510 30.5 281 
 SB4M     P    a  1251 05.40                             100    0.0010 30.8 277 
 SB4M     S    a  1251 09.10     0.40     0.2            100   -0.0410 30.8 277 
 UB2M     P    a  1251 06.00                              99    0.0410 34.2 315 
 UB2M     S    a  1251 10.10                              99   -0.0010 34.2 315 
 ARTM     P    a  1251 07.10                              99    0.2110 40.0  70 
 ARTM     S    a  1251 11.50     0.30     0.3             99   -0.2210 40.0  70 
 U05M     P    a  1251 07.50                              98    0.2510 42.2 175 
 U05M     S    a  1251 12.80                              98    0.4510 42.2 175 
 U01M     P    a  1251 08.40                              97    0.2710 47.6  46 
 U01M     S    a  1251 13.70                              97   -0.1710 47.6  46 
 UGDM     P    a  1251 08.00                              97   -0.65 9 50.8 111 
 UGDM     S    a  1251 13.80     0.40     0.2             97   -0.95 8 50.8 111 
 U07M     P    a  1251 13.90                              94    0.4810 80.1 206 
 U07M     S    a  1251 22.50                              94   -0.52 9 80.1 206 
 U02M     P    a  1251 14.80                              94    0.3610 86.3  69 
 U02M     S    a  1251 25.00                              94    0.2210 86.3  69 
 U03M     P    a  1251 22.80                              92   -0.2110  139  68 
 U03M     S    a  1251 40.30                              92    0.70 9  139  68 
                                                                                
 2017  124 1647 59.3 R  47.689 105.995  0.8  mon 18 0.2-0.5Lmon                1
 GAP= 66        0.55       1.0     1.0 13.3 -0.3855E+00  0.2382E+01  0.2240E+00E
 ACTION:REG 18-10-16 09:43 OP:ngse STATUS:               ID:20170124164759     I
 IDC: ellipse    0.9    0.5 143 MB sd+-                  Event ID    68342     3
 * 4 km  E Khustai Park UB region                    ***                       3
 STAT SP IPHASW D HRMM SECON CODA AMPLIT PERI AZIMU VELO AIN AR TRES W  DIS CAZ7
 U09M     P    a  1648 00.80                             104   -0.0210 8.73  71 
 U09M     S    a  1648 02.00                             104    0.1010 8.73  71 
 U11M     P    a  1648 03.30                              95   -0.3610 26.3 292 
 U11M     S    a  1648 06.50                              95   -0.3110 26.3 292 
 U08M     P    a  1648 03.50                              95   -0.3110 27.2 163 
 U08M     S    a  1648 06.90                              95   -0.1710 27.2 163 
 UB0M     S    a  1648 08.10                              94    0.1210 30.4 352 
 SB4M     P    a  1648 04.60                              94    0.0410 31.8  59 
 SB4M     S    a  1648 08.30     0.70     0.2             94   -0.0710 31.8  59 
 SB5M     P    a  1648 04.90                              94    0.0510 33.5  57 
 SB5M     S    a  1648 08.90     0.80     0.2             94    0.0410 33.5  57 
 SA0M     P    a  1648 05.00                              94    0.0610 34.1  61 
 SA0M     S    a  1648 09.00                              94   -0.0210 34.1  61 
 SA4M     P    a  1648 05.20                              94    0.1110 35.0  61 
 SA4M     S    a  1648 09.40     0.50     0.2             94    0.1210 35.0  61 
 SA2M     P    a  1648 05.30                              94    0.1810 35.2  59 
 SA2M     S    a  1648 09.30     0.40     0.1             94   -0.0410 35.2  59 
 SA1M     P    a  1648 05.30                              94    0.1610 35.3  60 
 SA1M     S    a  1648 09.20                              94   -0.1610 35.3  60 
 SB3M     P    a  1648 05.20                              94    0.0510 35.4  63 
 SB3M     S    a  1648 09.20     0.70     0.2             94   -0.1810 35.4  63 
 SA3M     P    a  1648 05.20                              94   -0.0210 35.8  60 
 SA3M     S    a  1648 09.30                              94   -0.2110 35.8  60 
 SB1M     P    a  1648 05.30                              94    0.0110 36.2  58 
 SB1M     S    a  1648 09.60                              94   -0.0310 36.2  58 
 SB2M     P    a  1648 05.30                              94   -0.0610 36.7  61 
 SB2M     S    a  1648 09.60      1.2     0.2             94   -0.1610 36.7  61 
 U10M     P    a  1648 06.00                              93    0.0810 40.1 225 
 U10M     S    a  1648 11.00                              93    0.2810 40.1 225 
 U06M     P    a  1648 06.10                              93    0.0210 41.1  97 
 U06M     S    a  1648 11.10                              93    0.1010 41.1  97 
 U12M     P    a  1648 08.50                              93    1.63 5 45.9 268 
 U12M     S    a  1648 12.40                              93    0.0410 45.9 268 
 UB1M     S    a  1648 14.10                              92    0.1810 51.4  59 
                                                                                
 2017  124 2317  3.7 R  47.976 106.391  6.4  mon 34 0.2 0.1Lmon                1
 GAP= 78        0.58       0.6     0.7  1.7 -0.1034E+00  0.1515E+00 -0.3894E+00E
 ACTION:REG 18-10-16 09:43 OP:ngse STATUS:               ID:20170124231703     I
 IDC: ellipse    0.5    0.4 152 MB sd+-                  Event ID    68341     3
 * 17 km  N Tavan tolgoi UB region                   ***                       3
 STAT SP IPHASW D HRMM SECON CODA AMPLIT PERI AZIMU VELO AIN AR TRES W  DIS CAZ7
 UB2M     P    a  2317 05.50                             142    0.1610 6.14  39 
 UB2M     S    a  2317 06.60                             142    0.0710 6.14  39 
 SB1M     P    a  2317 06.30                             122    0.1610 12.5 176 
 SB1M     S    a  2317 08.00      2.5     0.2            122    0.0810 12.5 176 
 SB5M     P    a  2317 06.30                             120    0.0210 13.6 187 
 SB5M     S    a  2317 08.20      5.6     0.2            120    0.0410 13.6 187 
 SA2M     P    a  2317 06.40                             120    0.0810 13.9 178 
 SA2M     S    a  2317 08.30                             120    0.0610 13.9 178 
 SA3M     P    a  2317 06.40                             119    0.0310 14.2 174 
 SA3M     S    a  2317 08.40      2.7     0.2            119    0.0810 14.2 174 
 SA1M     P    a  2317 06.50                             119    0.1110 14.3 176 
 SA1M     S    a  2317 08.30                             119   -0.0510 14.3 176 
 SB2M     P    a  2317 06.50                             119    0.1110 14.3 170 
 SB2M     S    a  2317 08.40      5.7     0.2            119    0.0510 14.3 170 
 SA4M     P    a  2317 06.50                             117    0.0110 15.1 176 
 SA4M     S    a  2317 08.60      1.8     0.2            117    0.0710 15.1 176 
 SA0M     P    a  2317 06.50                             116   -0.0710 15.7 179 
 SA0M     S    a  2317 08.40                             116   -0.2710 15.7 179 
 SB3M     P    a  2317 06.60                             117   -0.0010 15.8 174 
 SB3M     S    a  2317 08.70                             117   -0.0210 15.8 174 
 UB1M     P    a  2317 06.50                             116   -0.0910 15.8 112 
 UB1M     S    a  2317 08.50                             116   -0.1910 15.8 112 
 SB4M     P    a  2317 06.50                             116   -0.1110 15.9 188 
 SB4M     S    a  2317 08.70                             116   -0.0310 15.9 188 
 UB4M     P    a  2317 07.70                             108   -0.1310 24.0 138 
 UB4M     S    a  2317 10.80                             108   -0.0410 24.0 138 
 ALFM     P    a  2317 08.30                             106   -0.2710 28.6  84 
 ALFM     S    a  2317 11.80      5.1     0.3            106   -0.3210 28.6  84 
 UB0M     P    a  2317 09.30                             103   -0.1110 34.0 267 
 UB0M     S    a  2317 13.80                             103    0.2210 34.0 267 
 UB5M     P    a  2317 09.70                             103    0.2910 34.0 121 
 UB5M     S    a  2317 14.10                             103    0.52 9 34.0 121 
 U09M     P    a  2317 09.70                             102   -0.0510 36.0 217 
 U09M     S    a  2317 14.00                             102   -0.1610 36.0 217 
 U06M     P    a  2317 10.30                             102    0.1510 38.5 163 
 U06M     S    a  2317 14.70      4.6     0.2            102   -0.1510 38.5 163 
 U16M     P    a  2317 11.40                              99    0.0610 46.0  43 
 U16M     S    a  2317 16.80      2.9     0.2             99   -0.1010 46.0  43 
 U11M     P    a  2317 13.60                              98    0.2610 58.4 248 
 U11M     S    a  2317 20.40     0.80     0.2             98    0.0210 58.4 248 
 U08M     P    a  2317 13.70                              97   -0.2010 61.8 201 
 U08M     S    a  2317 21.20      1.8     0.2             97   -0.1510 61.8 201 
 U01M     P    a  2317 14.50                              97    0.2210 64.1  77 
 U01M     S    a  2317 21.90                              97   -0.1010 64.1  77 
 ARTM     P    a  2317 14.00                              97   -0.58 9 65.9  94 
 ARTM     S    a  2317 22.20      1.3     0.3             97   -0.3210 65.9  94 
 U05M     P    a  2317 15.00                              97   -0.1010 69.1 152 
 U05M     S    a  2317 23.00                              97   -0.4110 69.1 152 
 U15M     P    a  2317 15.10                              96   -0.1710 70.2 359 
 U15M     S    a  2317 23.70                              96   -0.0110 70.2 359 
 U13M     P    a  2317 16.10                              96    0.1010 74.7 271 
 U13M     S    a  2317 24.80      1.6     0.3             96   -0.1810 74.7 271 
 U12M     P    a  2317 17.50                              95    0.2410 82.5 247 
 U12M     S    a  2317 27.30      2.0     0.2             95    0.1410 82.5 247 
 U10M     P    a  2317 17.50                              95    0.0510 83.6 224 
 U10M     S    a  2317 27.80                              95    0.3110 83.6 224 
 UGDM     P    a  2317 17.60                              96    0.0110 84.4 116 
 UGDM     S    a  2317 27.70     0.70     0.3             96   -0.0310 84.4 116 
 U07M     P    a  2317 18.90                              95    0.1210 91.8 184 
 U07M     S    a  2317 29.70                              95   -0.0910 91.8 184 
 U14M     P    a  2317 19.80                              95   -0.0510 98.3 281 
 U14M     S    a  2317 31.00      1.0     0.2             95   -0.64 9 98.3 281 
 U02M     P    a  2317 22.30                              94    0.64 9  109  83 
 U02M     S    a  2317 34.60                              94   -0.1610  109  83 
 U03M     P    a  2317 30.40                              93    0.4010  160  78 
 U03M     S    a  2317 49.30                              93    0.1110  160  78 
 U04M     P    a  2317 31.80                              93   -0.0510  172  93 
 U04M     S    a  2317 52.80                              93    0.4010  172  93 
                                                                                
 2017  126 0233 17.7 R  47.968 106.510  9.6  mon 24 0.2-0.2Lmon                1
 GAP= 75        0.45       0.7     1.0  1.3 -0.1578E+00 -0.7149E-01  0.2036E-02E
 ACTION:REG 18-10-16 09:43 OP:ngse STATUS:               ID:20170126023317     I
 IDC: ellipse    1.1    0.8 131 MB sd+-                  Event ID    68354     3
 * 11 km NW Emeelt Urtuu UB region                   ***                       3
 STAT SP IPHASW D HRMM SECON CODA AMPLIT PERI AZIMU VELO AIN AR TRES W  DIS CAZ7
 UB2M     P    a  0233 19.90                             146    0.0510 7.55 318 
 UB2M     S    a  0233 21.50                             146    0.0610 7.55 318 
 UB1M     P    a  0233 19.70                             145   -0.1410 7.64 131 
 UB1M     S    a  0233 21.50      5.7     0.2            145    0.0610 7.64 131 
 SB1M     P    a  0233 20.60                             128   -0.0110 14.1 214 
 SB1M     S    a  0233 22.80      2.0     0.1            128    0.0410 14.1 214 
 SB2M     P    a  0233 20.70                             127    0.0110 14.8 206 
 SB2M     S    a  0233 22.90      3.9     0.2            127   -0.0110 14.8 206 
 SA3M     P    a  0233 20.80                             126    0.0410 15.3 209 
 SA3M     S    a  0233 23.20      3.8     0.3            126    0.1810 15.3 209 
 SA2M     P    a  0233 20.80                             126    0.0210 15.5 213 
 SA2M     S    a  0233 23.20      4.2     0.3            126    0.1510 15.5 213 
 SA1M     P    a  0233 20.80                             125   -0.0010 15.7 211 
 SA1M     S    a  0233 23.10      2.4     0.2            125    0.0010 15.7 211 
 SA4M     P    a  0233 20.80                             124   -0.0810 16.3 209 
 SA4M     S    a  0233 23.10      3.3     0.4            124   -0.1310 16.3 209 
 SB5M     P    a  0233 20.90                             124   -0.0110 16.5 220 
 SB5M     S    a  0233 23.10      4.1     0.3            124   -0.1810 16.5 220 
 SB3M     P    a  0233 20.90                             124   -0.0210 16.5 206 
 SB3M     S    a  0233 23.30      2.8     0.2            124    0.0010 16.5 206 
 SA0M     P    a  0233 20.90                             123   -0.1010 17.2 210 
 SA0M     S    a  0233 23.40                             123   -0.0310 17.2 210 
 UB4M     P    a  0233 21.00                             120   -0.1510 18.4 157 
 UB4M     S    a  0233 23.50     0.80     0.2            120   -0.2010 18.4 157 
 SB4M     P    a  0233 21.20                             120   -0.0010 18.7 217 
 SB4M     S    a  0233 23.60      2.7     0.2            120   -0.1910 18.7 217 
 ALFM     P    a  0233 21.10                             119   -0.3010 19.9  79 
 UB5M     P    a  0233 22.50                             113    0.2010 26.2 129 
 UB5M     S    a  0233 26.10     0.80     0.2            113    0.4110 26.2 129 
 U06M     P    a  0233 23.90                             107    0.0510 36.2 177 
 U06M     S    a  0233 28.60     0.40     0.2            107    0.2310 36.2 177 
 U16M     P    a  0233 24.60                             105   -0.0310 41.2  33 
 U16M     S    a  0233 29.60      3.6     0.2            105   -0.1210 41.2  33 
 U09M     S    a  0233 29.90      2.2     0.2            105    0.1110 41.4 227 
 UB0M     S    a  0233 30.60                             104    0.4210 42.9 269 
 U05M     S    a  0233 36.20     0.70     0.2            100   -0.0610 64.7 159 
 U08M     P    a  0233 28.50                             100    0.0910 64.8 208 
 U08M     S    a  0233 36.10     0.80     0.2            100   -0.1610 64.8 208 
 U11M     S    a  0233 36.60                              99   -0.1310 66.4 252 
 U10M     S    a  0233 43.00     0.20     0.3             97   -0.2010 89.5 229 
 U07M     P    a  0233 33.20                              97    0.3810 92.0 189 
 U07M     S    a  0233 43.70     0.20     0.2             97   -0.1910 92.0 189 
                                                                                
