 2012  820 1816 28.4 R  46.210  99.963  8.6  mon 61 0.4 0.6Lmon                1
 GAP= 71        1.06       0.9     1.0  2.3  0.2001E+00  0.4208E+00  0.1359E+00E
 ACTION:REG 18-10-16 09:44 OP:ngse STATUS:               ID:20120820181628     I
 IDC: ellipse    0.7    0.5  17 MB sd+-                  Event ID   448739     3
 * 28 km E Bumbugur Baynhongor                       ***                       3
 STAT SP IPHASW D HRMM SECON CODA AMPLIT PERI AZIMU VELO AIN AR TRES W  DIS CAZ7
 HD47     P    a  1816 32.00                             124    0.4910 15.7 117 
 HD47     S    a  1816 34.00      13.     0.2            124    0.2310 15.7 117 
 HD06     P    a  1816 39.00                             100    0.53 9 60.5  87 
 HD06     S    a  1816 46.00      4.8     0.2            100    0.1910 60.5  87 
 HD46     P    a  1816 40.00                              99    0.1410 69.1   6 
 HD46     S    a  1816 48.00      3.9     0.3             99   -0.2210 69.1   6 
 HD10     P    a  1816 40.00                              99   -0.0510 70.3  71 
 HD10     S    a  1816 48.00      2.0     0.2             99   -0.55 9 70.3  71 
 HD67     P    a  1816 40.00                              98   -0.3310 72.0 283 
 HD67     S    a  1816 49.00      4.5     0.2             98   -0.0210 72.0 283 
 HD07     P    a  1816 41.00                              98   -0.1710 77.3 112 
 HD07     S    a  1816 50.00      2.1     0.2             98   -0.4910 77.3 112 
 HD08     P    a  1816 42.00                              97    0.2510 80.9 132 
 HD08     S    a  1816 51.00      4.5     0.2             97   -0.4910 80.9 132 
 HD11     P    a  1816 42.00                              97   -0.3110 84.2  59 
 HD11     S    a  1816 52.00     0.60     0.3             97   -0.4510 84.2  59 
 HD12     P    a  1816 44.00                              97    0.3710 92.3  54 
 HD12     S    a  1816 55.00     0.70     0.2             97    0.2710 92.3  54 
 HD13     P    a  1816 45.00                              96    0.52 9 97.5  47 
 HD13     S    a  1816 56.00      1.9     0.2             96   -0.2010 97.5  47 
 HD25     P    a  1816 44.00                              96   -0.54 9 98.0 334 
 HD25     S    a  1816 56.00     0.70     0.2             96   -0.3210 98.0 334 
 HD14     P    a  1816 45.00                              96    0.3910 98.3  41 
 HD14     S    a  1816 56.00     0.50     0.2             96   -0.4310 98.3  41 
 HD24     P    a  1816 48.00                              95   -0.4610  122   4 
 HD24     S    a  1817 03.00     0.70     0.2             95   -0.0910  122   4 
 HD15     P    a  1816 49.00                              95    0.54 9  122  38 
 HD15     S    a  1817 03.00      1.2     0.2             95   -0.1010  122  38 
 HD05     P    a  1816 49.00                              95   -0.1510  126  94 
 HD05     S    a  1817 04.00      1.1     0.2             95   -0.2910  126  94 
 HD16     P    a  1816 51.00                              94    0.3910  135  36 
 HD16     S    a  1817 07.00     0.90     0.2             94    0.1810  135  36 
 HD26     P    a  1816 52.00                              94    0.1310  143 319 
 HD26     S    a  1817 09.00     0.70     0.4             94    0.0010  143 319 
 HD17     P    a  1816 53.00                              94   -0.0810  150  37 
 HD17     S    a  1817 11.00      1.1     0.2             94   -0.0910  150  37 
 HD23     P    a  1816 53.00                              94   -0.1710  151  17 
 HD23     S    a  1817 11.00      1.4     0.2             94   -0.2310  151  17 
 HD66     P    a  1816 54.00                              94   -0.4710  159 296 
 HD66     S    a  1817 14.00      5.5     0.6             94    0.51 9  159 296 
 HD18     P    a  1816 56.00                              94    0.51 9  165  37 
 HD18     S    a  1817 15.00      2.4     0.2             94   -0.2510  165  37 
 HD04     P    a  1816 56.00                              94    0.54 9  165  84 
 HD04     S    a  1817 15.00      2.3     0.2             94   -0.2110  165  84 
 HD69     P    a  1816 56.00                              94    0.3610  166 168 
 HD69     S    a  1817 15.00      2.6     0.3             94   -0.52 9  166 168 
 HD56     P    a  1816 56.00                              94    0.3310  166 323 
 HD56     S    a  1817 15.00     0.40     0.2             94   -0.57 9  166 323 
 HD27     P    a  1816 57.00                              94    0.4410  172 316 
 HD27     S    a  1817 17.00     0.60     0.2             94   -0.1010  172 316 
 HD65     P    a  1816 57.00                              94    0.2110  173   7 
 HD65     S    a  1817 18.00      1.4     0.2             94    0.50 9  173   7 
 HD70     P    a  1816 58.00                              94    0.75 9  176 239 
 HD70     S    a  1817 18.00     0.10     0.2             94   -0.3010  176 239 
 HD19     P    a  1816 58.00                              93    0.3610  178  35 
 HD19     S    a  1817 19.00     0.70     0.2             93    0.0310  178  35 
 HD48     P    a  1816 58.00                              93   -0.2110  182 271 
 HD48     S    a  1817 20.00     0.60     0.3             93    0.0510  182 271 
 HD44     P    a  1816 59.00                              93   -0.0210  187 348 
 HD44     S    a  1817 22.00     0.60     0.3             93    0.63 9  187 348 
 HD63     P    a  1817 00.00                              93   -0.3910  195 355 
 HD63     S    a  1817 24.00     0.30     0.2             93    0.2710  195 355 
 HD28     P    a  1817 01.00                              93    0.59 9  195 310 
 HD28     S    a  1817 24.00     0.60     0.2             93    0.2310  195 310 
 HD49     P    a  1817 02.00                              93    0.77 9  200 276 
 HD49     S    a  1817 24.00      3.3     0.3             93   -1.19 7  200 276 
 HD02     P    a  1817 02.00                              93    0.5010  202  67 
 HD02     S    a  1817 26.00      3.1     0.3             93    0.3410  202  67 
 HD03     P    a  1817 01.00                              93   -0.4710  202  79 
 HD03     S    a  1817 26.00     0.70     0.3             93    0.3910  202  79 
 HD64     P    a  1817 02.00                              93    0.1010  204   7 
 HD64     S    a  1817 26.00     0.80     0.4             93   -0.3510  204   7 
 HD34     P    a  1817 03.00                              93    0.2810  209 324 
 HD34     S    a  1817 28.00     0.70     0.3             93    0.2410  209 324 
 HD30     P    a  1817 03.00                              93    0.0310  211 306 
 HD30     S    a  1817 28.00     0.90     0.2             93   -0.1910  211 306 
 HD29     P    a  1817 03.00                              93   -0.1110  212 302 
 HD29     S    a  1817 28.00      1.1     0.3             93   -0.4310  212 302 
 HD33     P    a  1817 03.00                              93   -0.3910  213 317 
 HD33     S    a  1817 29.00     0.70     0.3             93    0.0810  213 317 
 HD39     P    a  1817 04.00                              93    0.2010  216 342 
 HD39     S    a  1817 30.00     0.30     0.2             93    0.3710  216 342 
 HD32     P    a  1817 04.00                              93    0.1410  216 314 
 HD32     S    a  1817 30.00     0.40     0.2             93    0.2710  216 314 
 HD36     P    a  1817 04.00                              93   -0.3810  219 329 
 HD36     S    a  1817 31.00     0.40     0.3             93    0.3710  219 329 
 HD31     P    a  1817 05.00                              93    0.69 9  219 310 
 HD31     S    a  1817 30.00     0.40     0.2             93   -0.52 9  219 310 
 HD35     P    a  1817 04.00                              93   -0.4110  220 326 
 HD35     S    a  1817 31.00     0.60     0.3             93    0.3210  220 326 
 HD62     P    a  1817 05.00                              93    0.58 9  220 357 
 HD62     S    a  1817 30.00     0.40     0.2             93   -0.70 9  220 357 
 HD51     P    a  1817 06.00                              93    1.08 8  223 288 
 HD51     S    a  1817 31.00     0.70     0.2             93   -0.56 9  223 288 
 HD52     P    a  1817 06.00                              93    0.91 8  224 295 
 HD52     S    a  1817 31.00     0.50     0.2             93   -0.87 8  224 295 
 HD21     P    a  1817 05.00                              93   -0.2810  225  29 
 HD21     S    a  1817 32.00      1.0     0.2             93   -0.1910  225  29 
 HD37     P    a  1817 05.00                              93   -0.2710  225 334 
 HD37     S    a  1817 32.00     0.20     0.2             93   -0.1710  225 334 
 HD38     P    a  1817 05.00                              93   -0.2710  225 339 
 HD38     S    a  1817 32.00     0.50     0.2             93   -0.1810  225 339 
 HD40     P    a  1817 06.00                              93   -0.1810  230 345 
 HD40     S    a  1817 34.00     0.70     0.2             93    0.2610  230 345 
 HD41     P    a  1817 06.00                              93   -0.0910  230 350 
 HD41     S    a  1817 33.00     0.40     0.2             93   -0.59 9  230 350 
 HD01     P    a  1817 07.00                              93    0.2210  234  71 
 HD01     S    a  1817 34.00     0.90     0.3             93   -0.78 9  234  71 
 HD42     P    a  1817 08.00                              92   -0.4010  244 351 
 HD42     S    a  1817 38.00     0.80     0.2             92    0.4110  244 351 
 HD43     P    a  1817 11.00                              92   -0.0910  261 351 
 HD43     S    a  1817 42.00     0.20     0.2             92   -0.2510  261 351 
 HD54     P    a  1817 14.00                              49   -0.1310  280 302 
 HD54     S    a  1817 47.00     0.70     0.3             49   -0.50 9  280 302 
 HD68     P    a  1817 14.00                              49   -0.0210  280 135 
 HD68     S    a  1817 47.00     0.20     0.2             49   -0.3110  280 135 
 HD61     P    a  1817 14.00                              49   -0.1910  281 334 
 HD61     S    a  1817 48.00     0.50     0.3             49    0.3910  281 334 
 HD60     P    a  1817 18.00                              49    1.48 6  300 326 
 HD60     S    a  1817 52.00     0.40     0.5             49    0.3610  300 326 
 HD59     P    a  1817 22.00                              49    2.80 0  321 316 
 HD59     S    a  1817 59.00     0.10     0.2             49    2.73 0  321 316 
                                                                                
