 2017  211 1455  4.9 R  47.969 106.526  9.1  mon 12 0.1                        1
 GAP=131        0.28       1.0     1.4  1.7 -0.8981E+00 -0.8489E+00  0.3388E+00E
 ACTION:REG 18-10-16 09:43 OP:ngse STATUS:               ID:20170211145505     I
 IDC: ellipse    2.0    0.8 140 MB sd+-                  Event ID    68608     3
 * 10 km NW Emeelt Urtuu UB region                   ***                       3
 STAT SP IPHASW D HRMM SECON CODA AMPLIT PERI AZIMU VELO AIN AR TRES W  DIS CAZ7
 UB2M     S    a  1455 08.70                             142    0.0210 8.27 311 
 SB1M     P    a  1455 07.90                             126    0.0110 14.9 218 
 SB1M     S    a  1455 10.20                             126    0.1110 14.9 218 
 SB2M     P    a  1455 08.00                             125    0.0410 15.5 210 
 SB2M     S    a  1455 10.30                             125    0.0910 15.5 210 
 SA3M     P    a  1455 08.10                             124    0.0710 16.0 213 
 SA3M     S    a  1455 10.40                             124    0.0710 16.0 213 
 SA2M     P    a  1455 08.00                             123   -0.0610 16.3 216 
 SA2M     S    a  1455 10.40                             123    0.0210 16.3 216 
 SA1M     P    a  1455 08.10                             123    0.0210 16.4 214 
 SA1M     S    a  1455 10.40                             123   -0.0210 16.4 214 
 SA4M     P    a  1455 08.00                             122   -0.1610 17.0 212 
 SA4M     S    a  1455 10.50                             122   -0.0510 17.0 212 
 SB3M     P    a  1455 08.20                             122    0.0110 17.2 209 
 SB3M     S    a  1455 10.70                             122    0.0910 17.2 209 
 SB5M     P    a  1455 08.10                             121   -0.1110 17.4 222 
 SB5M     S    a  1455 10.50                             121   -0.1410 17.4 222 
 SA0M     P    a  1455 08.40                             120    0.1210 17.9 213 
 SA0M     S    a  1455 10.70                             120   -0.0610 17.9 213 
 ALFM     P    a  1455 08.50                             120    0.0810 18.8  78 
 ALFM     S    a  1455 10.90                             120   -0.1010 18.8  78 
 SB4M     P    a  1455 08.60                             118    0.0910 19.5 219 
 SB4M     S    a  1455 11.00                             118   -0.1610 19.5 219 
                                                                                
 2017  211 1506 28.6 R  47.976 106.488 11.2  mon 14 0.1-0.8Lmon                1
 GAP=117        0.38       1.1     1.6  1.9 -0.3705E+00 -0.1092E+01 -0.1434E+00E
 ACTION:REG 18-10-16 09:43 OP:ngse STATUS:               ID:20170211150628     I
 IDC: ellipse    2.3    1.3 141 MB sd+-                  Event ID     6860     3
 * 13 km NW Emeelt Urtuu UB region                   ***                       3
 STAT SP IPHASW D HRMM SECON CODA AMPLIT PERI AZIMU VELO AIN AR TRES W  DIS CAZ7
 UB2M     S    a  1506 32.60                             155    0.0510 5.80 324 
 SB1M     P    a  1506 31.60                             132   -0.1110 14.1 207 
 SB1M     S    a  1506 34.00     0.50     0.2            132    0.0110 14.1 207 
 SB2M     P    a  1506 31.80                             131   -0.0210 15.0 199 
 SB2M     S    a  1506 34.20      1.0     0.2            131    0.0210 15.0 199 
 SA3M     P    a  1506 31.90                             130    0.0310 15.4 202 
 SA3M     S    a  1506 34.20     0.70     0.3            130   -0.0610 15.4 202 
 SA2M     P    a  1506 31.90                             129    0.0210 15.5 206 
 SA2M     S    a  1506 34.30     0.40     0.2            129    0.0310 15.5 206 
 SA1M     P    a  1506 31.90                             129   -0.0110 15.7 204 
 SA1M     S    a  1506 34.40     0.60     0.2            129    0.0710 15.7 204 
 SB5M     P    a  1506 32.00                             128    0.0310 16.2 213 
 SB5M     S    a  1506 34.40      1.0     0.3            128   -0.0310 16.2 213 
 SA4M     P    a  1506 31.90                             128   -0.0910 16.4 202 
 SA4M     S    a  1506 34.40     0.50     0.2            128   -0.0710 16.4 202 
 SB3M     P    a  1506 32.00                             127   -0.0410 16.7 199 
 SB3M     S    a  1506 34.60     0.70     0.2            127    0.0510 16.7 199 
 SA0M     P    a  1506 32.20                             126    0.1110 17.2 204 
 SA0M     S    a  1506 34.60                             126   -0.0410 17.2 204 
 SB4M     P    a  1506 32.40                             124    0.1410 18.5 211 
 SB4M     S    a  1506 35.00                             124    0.0610 18.5 211 
 UB4M     S    a  1506 34.90                             122   -0.3510 19.9 153 
 ALFM     P    a  1506 32.50                             121   -0.1810 21.4  82 
 UB5M     S    a  1506 37.70                             114    0.3910 28.0 128 
                                                                                
 2017  211 1601  2.6 R  47.972 106.511  9.8  mon 31 0.2 0.4Lmon                1
 GAP= 47        0.54       0.6     0.8  1.3 -0.5102E-01  0.8291E-01 -0.1767E+00E
 ACTION:REG 18-10-16 09:43 OP:ngse STATUS:               ID:20170211160102     I
 IDC: ellipse    0.8    0.7 137 MB sd+-                  Event ID    68605     3
 * 12 km NW Emeelt Urtuu UB region                   ***                       3
 STAT SP IPHASW D HRMM SECON CODA AMPLIT PERI AZIMU VELO AIN AR TRES W  DIS CAZ7
 UB2M     P    a  1601 04.80                             147   -0.0110 7.30 316 
 UB2M     S    a  1601 06.50                             147    0.0910 7.30 316 
 UB1M     P    a  1601 04.60                             145   -0.2510 7.86 134 
 UB1M     S    a  1601 06.30                             145   -0.1810 7.86 134 
 SB1M     P    a  1601 05.70                             128    0.0710 14.5 214 
 SB1M     S    a  1601 07.90      9.8     0.1            128    0.0710 14.5 214 
 SB2M     P    a  1601 05.80                             127    0.0910 15.2 206 
 SB2M     S    a  1601 08.00      13.     0.2            127    0.0210 15.2 206 
 SA3M     P    a  1601 05.80                             126    0.0210 15.7 209 
 SA3M     S    a  1601 08.10      12.     0.2            126    0.0110 15.7 209 
 SA2M     P    a  1601 05.90                             126    0.1010 15.9 212 
 SA2M     S    a  1601 08.10      14.     0.2            126   -0.0310 15.9 212 
 SA1M     P    a  1601 05.90                             125    0.0810 16.0 210 
 SA1M     S    a  1601 08.20      11.     0.2            125    0.0310 16.0 210 
 SA4M     P    a  1601 06.00                             124    0.1010 16.7 209 
 SA4M     S    a  1601 08.30      8.3     0.2            124   -0.0110 16.7 209 
 SB5M     P    a  1601 06.00                             124    0.0810 16.8 219 
 SB5M     S    a  1601 08.40      8.3     0.2            124    0.0610 16.8 219 
 SB3M     P    a  1601 06.10                             124    0.1610 16.9 205 
 SB3M     S    a  1601 08.50      8.9     0.2            124    0.1310 16.9 205 
 SA0M     P    a  1601 06.10                             123    0.0910 17.5 210 
 SA0M     S    a  1601 08.40                             123   -0.1010 17.5 210 
 UB4M     P    a  1601 06.00                             120   -0.1710 18.7 157 
 UB4M     S    a  1601 08.70                             120   -0.0710 18.7 157 
 SB4M     P    a  1601 06.20                             121   -0.0210 19.0 216 
 SB4M     S    a  1601 08.70      7.1     0.2            121   -0.1610 19.0 216 
 ALFM     P    a  1601 06.20                             120   -0.1510 19.8  80 
 ALFM     S    a  1601 08.80      19.     0.3            120   -0.2810 19.8  80 
 UB5M     P    a  1601 07.40                             113    0.1010 26.4 130 
 UB5M     S    a  1601 11.30                             113    0.58 9 26.4 130 
 U06M     P    a  1601 08.80                             107   -0.0710 36.6 177 
 U06M     S    a  1601 13.50                             107    0.0610 36.6 177 
 U16M     P    a  1601 09.50                             105   -0.0310 40.8  33 
 U16M     S    a  1601 14.60                             105    0.0210 40.8  33 
 U09M     P    a  1601 09.70                             105    0.0210 41.7 227 
 U09M     S    a  1601 14.80                             105   -0.0410 41.7 227 
 UB0M     P    a  1601 09.70                             105   -0.1710 42.9 268 
 UB0M     S    a  1601 15.20                             105    0.0310 42.9 268 
 U05M     P    a  1601 13.40                             100   -0.0210 65.0 159 
 U05M     S    a  1601 21.20                             100   -0.1110 65.0 159 
 U08M     P    a  1601 13.60                             100    0.1710 65.1 208 
 U08M     S    a  1601 21.50                             100    0.1810 65.1 208 
 U11M     P    a  1601 13.90                             100    0.2410 66.6 251 
 U11M     S    a  1601 21.40                             100   -0.3310 66.6 251 
 U15M     P    a  1601 14.80                              99    0.3810 71.4 352 
 U15M     S    a  1601 23.00                              99   -0.0510 71.4 352 
 U13M     P    a  1601 16.70                              98    0.2710 83.7 272 
 U13M     S    a  1601 26.20                              98   -0.3210 83.7 272 
 U10M     P    a  1601 17.70                              97    0.2810 89.8 229 
 U10M     S    a  1601 28.20                              97   -0.0410 89.8 229 
 U12M     P    a  1601 17.80                              97    0.2510 90.6 249 
 U07M     P    a  1601 18.00                              97    0.1610 92.4 189 
 U07M     S    a  1601 28.90                              97   -0.0610 92.4 189 
 U14M     S    a  1601 32.90                              96   -0.2310  107 281 
 U04M     P    a  1601 29.40                              94    0.0810  163  93 
 U04M     S    a  1601 48.60                              94   -0.2210  163  93 
 BULM     S    a  1602 07.40                              93   -0.2410  229 293 
 MDGM     S    a  1602 12.70                              93   -0.87 8  250 183 
                                                                                
 2017  211 1602  4.1 R  47.968 106.524  8.8  mon 14 0.1-1.0Lmon                1
 GAP=131        0.26       0.7     1.2  1.4 -0.6266E+00 -0.4437E+00  0.7966E-01E
 ACTION:REG 18-10-16 09:43 OP:ngse STATUS:               ID:20170211160204     I
 IDC: ellipse    1.6    0.6 136 MB sd+-                  Event ID     6860     3
 * 10 km NW Emeelt Urtuu UB region                   ***                       3
 STAT SP IPHASW D HRMM SECON CODA AMPLIT PERI AZIMU VELO AIN AR TRES W  DIS CAZ7
 UB2M     S    a  1602 07.80                             141   -0.0210 8.24 313 
 SB1M     P    a  1602 07.10                             125    0.0610 14.7 217 
 SB1M     S    a  1602 09.20      1.6     0.3            125   -0.0010 14.7 217 
 SB2M     P    a  1602 07.20                             124    0.0910 15.3 209 
 SB2M     S    a  1602 09.40     0.40     0.2            124    0.0810 15.3 209 
 SA3M     P    a  1602 07.20                             123    0.0110 15.8 213 
 SA3M     S    a  1602 09.50     0.50     0.3            123    0.0510 15.8 213 
 SA2M     P    a  1602 07.30                             123    0.0810 16.1 216 
 SA2M     S    a  1602 09.50     0.30     0.2            123    0.0010 16.1 216 
 SA1M     P    a  1602 07.20                             123   -0.0410 16.2 214 
 SA1M     S    a  1602 09.50     0.30     0.2            123   -0.0410 16.2 214 
 SA4M     P    a  1602 07.30                             121   -0.0210 16.8 212 
 SA4M     S    a  1602 09.70     0.50     0.3            121    0.0310 16.8 212 
 SB3M     P    a  1602 07.50                             121    0.1510 17.0 209 
 SB3M     S    a  1602 09.80     0.50     0.3            121    0.0810 17.0 209 
 SB5M     P    a  1602 07.40                             121    0.0410 17.2 222 
 SB5M     S    a  1602 09.80                             121    0.0510 17.2 222 
 SA0M     P    a  1602 07.40                             120   -0.0310 17.7 213 
 SA0M     S    a  1602 09.80                             120   -0.0810 17.7 213 
 ALFM     P    a  1602 07.60                             119   -0.0310 18.9  78 
 ALFM     S    a  1602 10.10                             119   -0.1110 18.9  78 
 SB4M     P    a  1602 07.60                             118   -0.0610 19.3 219 
 SB4M     S    a  1602 10.10                             118   -0.1710 19.3 219 
 U16M     S    a  1602 16.00                             104    0.0510 40.6  32 
 U09M     S    a  1602 16.20                             104   -0.1710 42.1 228 
                                                                                
 2017  211 1811 33.1 R  47.974 106.507  9.4  mon 31 0.2 0.4Lmon                1
 GAP= 47        0.51       0.6     0.8  1.2 -0.4055E-01  0.1344E+00 -0.1496E+00E
 ACTION:REG 18-10-16 09:43 OP:ngse STATUS:               ID:20170211181133     I
 IDC: ellipse    0.7    0.6 134 MB sd+-                  Event ID    68606     3
 * 12 km NW Emeelt Urtuu UB region                   ***                       3
 STAT SP IPHASW D HRMM SECON CODA AMPLIT PERI AZIMU VELO AIN AR TRES W  DIS CAZ7
 UB2M     P    a  1811 35.30                             148    0.0810 6.93 316 
 UB2M     S    a  1811 36.90                             148    0.1410 6.93 316 
 UB1M     P    a  1811 35.10                             143   -0.2310 8.24 133 
 UB1M     S    a  1811 36.90                             143   -0.0610 8.24 133 
 SB1M     P    a  1811 36.20                             127    0.1110 14.5 212 
 SB1M     S    a  1811 38.40      12.     0.2            127    0.1310 14.5 212 
 SB2M     P    a  1811 36.30                             126    0.1210 15.2 204 
 SB2M     S    a  1811 38.50                             126    0.0710 15.2 204 
 SA3M     P    a  1811 36.30                             125    0.0610 15.7 208 
 SA3M     S    a  1811 38.60      14.     0.2            125    0.0710 15.7 208 
 SA2M     P    a  1811 36.30                             125    0.0410 15.9 211 
 SA2M     S    a  1811 38.60      16.     0.2            125    0.0310 15.9 211 
 SA1M     P    a  1811 36.30                             124    0.0110 16.1 209 
 SA1M     S    a  1811 38.60      12.     0.2            124   -0.0110 16.1 209 
 SA4M     P    a  1811 36.50                             123    0.1310 16.7 207 
 SA4M     S    a  1811 38.80      9.6     0.2            123    0.0410 16.7 207 
 SB5M     P    a  1811 36.40                             123    0.0210 16.8 218 
 SB5M     S    a  1811 38.60      8.6     0.2            123   -0.1710 16.8 218 
 SB3M     P    a  1811 36.50                             123    0.0910 16.9 204 
 SB3M     S    a  1811 38.90      9.5     0.2            123    0.0710 16.9 204 
 SA0M     P    a  1811 36.50                             122    0.0110 17.5 208 
 SA0M     S    a  1811 38.90                             122   -0.0510 17.5 208 
 SB4M     P    a  1811 36.80                             120    0.1110 19.0 215 
 SB4M     S    a  1811 39.20      9.1     0.2            120   -0.1010 19.0 215 
 UB4M     P    a  1811 36.60                             119   -0.0810 19.1 157 
 UB4M     S    a  1811 39.10                             119   -0.1910 19.1 157 
 ALFM     P    a  1811 36.60                             119   -0.2610 20.1  80 
 ALFM     S    a  1811 39.20      10.     0.2            119   -0.3910 20.1  80 
 UB5M     P    a  1811 37.90                             112    0.0710 26.8 130 
 UB5M     S    a  1811 41.70                             112    0.4210 26.8 130 
 U06M     P    a  1811 39.40                             107    0.0110 36.8 176 
 U06M     S    a  1811 43.90                             107   -0.0710 36.8 176 
 U16M     P    a  1811 40.20                             105    0.1910 40.8  33 
 U16M     S    a  1811 45.00                             105   -0.0610 40.8  33 
 U09M     P    a  1811 40.20                             105    0.0510 41.6 226 
 U09M     S    a  1811 45.30                             105    0.0110 41.6 226 
 UB0M     P    a  1811 40.40                             104    0.1010 42.6 268 
 UB0M     S    a  1811 45.50                             104   -0.0510 42.6 268 
 U08M     P    a  1811 44.00                              99    0.0810 65.2 208 
 U08M     S    a  1811 51.80                              99   -0.0110 65.2 208 
 U05M     P    a  1811 43.90                             100   -0.0610 65.3 159 
 U05M     S    a  1811 51.60                             100   -0.2810 65.3 159 
 U11M     P    a  1811 44.40                              99    0.2910 66.4 251 
 U11M     S    a  1811 52.10                              99   -0.0510 66.4 251 
 U15M     P    a  1811 45.10                              98    0.2210 71.1 352 
 U15M     S    a  1811 53.50                              98    0.0310 71.1 352 
 U13M     P    a  1811 46.30                              97   -0.57 9 83.4 272 
 U13M     S    a  1811 56.30                              97   -0.61 9 83.4 272 
 U10M     P    a  1811 48.20                              97    0.3010 89.7 228 
 U10M     S    a  1811 58.70                              97    0.0010 89.7 228 
 U12M     P    a  1811 48.40                              97    0.4010 90.4 249 
 U12M     S    a  1811 58.70                              97   -0.1810 90.4 249 
 U07M     P    a  1811 48.60                              97    0.2410 92.5 189 
 U07M     S    a  1811 59.50                              97    0.0110 92.5 189 
 U14M     S    a  1812 03.40                              96   -0.1210  107 281 
 U04M     S    a  1812 19.40                              94   -0.0010  163  93 
 BULM     S    a  1812 38.00                              93   -0.0310  229 293 
 MDGM     S    a  1812 43.90                              92   -0.2210  251 183 
                                                                                
