 2017  1 9 0216 24.9 R  47.910 106.615  3.3  mon 28 0.3-0.2Lmon                1
 GAP= 66        0.78       1.0     1.1  3.7 -0.1449E+00 -0.5624E+00  0.1049E+00E
 ACTION:REG 18-10-16 09:43 OP:ngse STATUS:               ID:20170109021624     I
 IDC: ellipse    0.7    0.5 166 MB sd+-                  Event ID    68046     3
 * 3 km NE Emeelt Urtuu UB region                    ***                       3
 STAT SP IPHASW D HRMM SECON CODA AMPLIT PERI AZIMU VELO AIN AR TRES W  DIS CAZ7
 UB1M     P    a  0216 25.70                             151   -0.0610 2.55 305 
 UB4M     P    a  0216 26.40                             113   -0.3510 10.4 183 
 UB4M     S    a  0216 28.00                             113   -0.1110 10.4 183 
 ALFM     P    a  0216 27.20                             107   -0.3810 15.7  48 
 ALFM     S    a  0216 29.30      6.6     0.2            107   -0.2410 15.7  48 
 SB2M     P    a  0216 27.40                             107   -0.2110 15.9 245 
 SB2M     S    a  0216 29.80      2.0     0.1            107    0.2010 15.9 245 
 UB5M     P    a  0216 27.70                             106    0.0810 16.0 129 
 UB5M     S    a  0216 30.10                             106    0.4910 16.0 129 
 SB1M     P    a  0216 27.50                             106   -0.2310 16.6 252 
 SB1M     S    a  0216 29.90                             106    0.1010 16.6 252 
 SA3M     P    a  0216 27.70                             106   -0.0510 16.8 246 
 SA3M     S    a  0216 30.00      2.1     0.2            106    0.1610 16.8 246 
 SB3M     P    a  0216 27.70                             106   -0.1110 17.2 241 
 SB3M     S    a  0216 30.20      1.3     0.2            106    0.2510 17.2 241 
 SA1M     P    a  0216 27.70                             106   -0.1310 17.3 246 
 SA1M     S    a  0216 30.10      2.6     0.2            106    0.1210 17.3 246 
 SA2M     P    a  0216 27.70                             105   -0.1610 17.5 248 
 SA2M     S    a  0216 30.10      2.1     0.2            105    0.0810 17.5 248 
 SA4M     P    a  0216 27.70                             105   -0.1710 17.6 244 
 SA4M     S    a  0216 30.10      3.1     0.3            105    0.0510 17.6 244 
 UB2M     P    a  0216 27.80                             105   -0.0910 17.7 313 
 UB2M     S    a  0216 30.20                             105    0.1310 17.7 313 
 SA0M     P    a  0216 27.70                             104   -0.3110 18.5 243 
 SA0M     S    a  0216 30.40      2.9     0.3            104    0.1110 18.5 243 
 SB5M     P    a  0216 27.90                             104   -0.2610 19.4 251 
 SB5M     S    a  0216 30.70      1.4     0.3            104    0.1510 19.4 251 
 SB4M     P    a  0216 28.10                             103   -0.2910 20.8 246 
 SB4M     S    a  0216 31.10      1.9     0.2            103    0.1610 20.8 246 
 U06M     P    a  0216 29.70                              99   -0.1910 30.2 191 
 U06M     S    a  0216 33.60      2.5     0.2             99    0.0610 30.2 191 
 U16M     P    a  0216 32.00                              96   -0.0610 43.6  19 
 U16M     S    a  0216 37.30                              96   -0.0010 43.6  19 
 U09M     P    a  0216 32.10                              96   -0.0210 43.9 241 
 U09M     S    a  0216 37.30      2.9     0.2             96   -0.1110 43.9 241 
 U05M     P    a  0216 34.00                              95   -0.1010 56.1 164 
 U05M     S    a  0216 40.50                              95   -0.3310 56.1 164 
 U08M     P    a  0216 35.80                              94    0.4810 63.6 218 
 U08M     S    a  0216 43.20                              94    0.2610 63.6 218 
 UGDM     P    a  0216 35.70                              94   -0.0510 66.2 117 
 UGDM     S    a  0216 44.00                              94    0.3210 66.2 117 
 U11M     P    a  0216 36.60                              94   -0.1510 72.3 259 
 U11M     S    a  0216 45.20                              94   -0.2110 72.3 259 
 U07M     P    a  0216 39.30                              93    0.1010 87.3 195 
 U07M     S    a  0216 49.40                              93   -0.2510 87.3 195 
 U10M     P    a  0216 40.70                              93    0.78 9 91.7 235 
 U10M     S    a  0216 50.30     0.20     0.1             93   -0.59 9 91.7 235 
 U13M     P    a  0216 39.90                              93   -0.0510 91.9 276 
 U13M     S    a  0216 51.30                              93    0.3510 91.9 276 
 U12M     P    a  0216 40.60                              93    0.0010 95.9 255 
 U12M     S    a  0216 52.00     0.40     0.2             93   -0.0610 95.9 255 
 U14M     S    a  0216 59.20                              92    1.36 6  116 284 
 U04M     P    a  0216 50.10                              92   -0.1310  155  91 
 U04M     S    a  0217 09.80                              92    1.07 8  155  91 
                                                                                
 2017  1 9 2025 26.4 R  47.917 106.626  5.7  mon 14 0.2                        1
 GAP= 99        0.54       1.1     1.4  2.6 -0.3449E+00  0.3122E+00  0.1828E+00E
 ACTION:REG 18-10-16 09:43 OP:ngse STATUS:               ID:20170109202526     I
 IDC: ellipse    1.7    1.1 141 MB sd+-                  Event ID    68072     3
 * 5 km NE Emeelt Urtuu UB region                    ***                       3
 STAT SP IPHASW D HRMM SECON CODA AMPLIT PERI AZIMU VELO AIN AR TRES W  DIS CAZ7
 UB1M     S    a  2025 28.50                             157   -0.0410 2.93 282 
 UB4M     S    a  2025 29.80                             121   -0.3310 11.3 187 
 ALFM     P    a  2025 28.40                             117   -0.64 9 14.5  49 
 ALFM     S    a  2025 31.10                             117    0.1210 14.5  49 
 UB5M     S    a  2025 31.80                             114    0.4810 16.0 133 
 SB2M     S    a  2025 31.60                             113    0.0010 16.9 243 
 SB1M     P    a  2025 29.40                             112   -0.1010 17.6 250 
 SB1M     S    a  2025 31.80                             112    0.0210 17.6 250 
 UB2M     P    a  2025 29.60                             112    0.1010 17.7 310 
 UB2M     S    a  2025 32.00                             112    0.2210 17.7 310 
 SB3M     P    a  2025 29.60                             112    0.0110 18.3 240 
 SB3M     S    a  2025 31.80                             112   -0.1410 18.3 240 
 SA1M     P    a  2025 29.70                             111    0.1010 18.4 245 
 SA1M     S    a  2025 32.10                             111    0.1410 18.4 245 
 SA2M     P    a  2025 29.60                             111   -0.0310 18.5 246 
 SA2M     S    a  2025 32.10                             111    0.1010 18.5 246 
 SA4M     P    a  2025 29.60                             111   -0.0410 18.6 243 
 SA4M     S    a  2025 31.90                             111   -0.1310 18.6 243 
 SA0M     P    a  2025 29.80                             110    0.0210 19.5 242 
 SA0M     S    a  2025 32.20                             110   -0.0610 19.5 242 
 SB4M     P    a  2025 30.10                             108   -0.0410 21.9 245 
 SB4M     S    a  2025 33.00                             108    0.1110 21.9 245 
 U06M     S    a  2025 35.50                             103    0.0710 31.2 192 
                                                                                
 2017  119 1843 50.0 R  47.859 106.513 15.1  mon 16 0.4                        1
 GAP=119        0.85       2.6     9.4  4.9  0.5206E+01 -0.3298E+02 -0.2841E+01E
 ACTION:REG 18-10-16 09:43 OP:ngse STATUS:               ID:20170119184349     I
 IDC: ellipse    1.6    1.1 162 MB sd+-                  Event ID    68255     3
 * 4 km  E Emeelt Urtuu UB region                    ***                       3
 STAT SP IPHASW D HRMM SECON CODA AMPLIT PERI AZIMU VELO AIN AR TRES W  DIS CAZ7
 SB2M     P    a  1843 52.80                             158   -0.1510 6.84 260 
 SB2M     S    a  1843 55.40                             158    0.2910 6.84 260 
 SA3M     P    a  1843 53.00                             155   -0.0210 7.83 261 
 SA3M     S    a  1843 55.60                             155    0.3910 7.83 261 
 SB3M     P    a  1843 52.90                             155   -0.1210 7.88 249 
 SB3M     S    a  1843 55.40                             155    0.1910 7.88 249 
 SB1M     P    a  1843 53.00                             154   -0.0510 8.19 273 
 SB1M     S    a  1843 55.60                             154    0.3310 8.19 273 
 SA1M     P    a  1843 52.90                             153   -0.1410 8.33 261 
 SA1M     S    a  1843 55.70                             153    0.44 9 8.33 261 
 SA4M     P    a  1843 52.90                             153   -0.1410 8.42 255 
 SA4M     S    a  1843 55.60                             153    0.3410 8.42 255 
 UB4M     S    a  1843 52.70                             152   -2.51 0 8.53 124 
 SA2M     P    a  1843 52.90                             153   -0.1710 8.62 264 
 SA2M     S    a  1843 55.80                             153    0.50 9 8.62 264 
 SA0M     S    a  1843 55.70                             151    0.3410 9.25 253 
 SB5M     P    a  1843 52.90                             147   -0.3310 10.8 267 
 SB5M     S    a  1843 55.70                             147    0.1110 10.8 267 
 SB4M     P    a  1843 53.10                             144   -0.2210 11.8 256 
 SB4M     S    a  1843 55.60                             144   -0.1410 11.8 256 
 UB2M     P    a  1843 53.40                             132   -0.67 9 18.5 343 
 UB2M     S    a  1843 56.60                             132   -0.4310 18.5 343 
 UB5M     P    a  1843 52.00                             129   -2.32 0 20.6 102 
 UB5M     S    a  1843 54.00                             129   -3.47 0 20.6 102 
 U06M     S    a  1843 57.90                             125   -0.3810 24.1 176 
 ALFM     P    a  1843 52.40                             124   -2.54 0 25.1  50 
 ALFM     S    a  1843 54.80                             124   -3.75 0 25.1  50 
 U09M     S    a  1844 02.60                             116    1.75 3 34.5 242 
                                                                                
 2017  120 0037 29.6 R  47.964 106.465  9.4  mon 13 0.1-0.7Lmon                1
 GAP=134        0.40       1.1     2.0  2.0 -0.4332E+00  0.2154E+00  0.1249E+00E
 ACTION:REG 18-10-16 09:43 OP:ngse STATUS:               ID:20170120003730     I
 IDC: ellipse    2.3    1.6 113 MB sd+-                  Event ID     6826     3
 * 14 km NW Emeelt Urtuu UB region                   ***                       3
 STAT SP IPHASW D HRMM SECON CODA AMPLIT PERI AZIMU VELO AIN AR TRES W  DIS CAZ7
 UB2M     S    a  0037 33.30                             150    0.1110 6.25 344 
 UB1M     S    a  0037 33.60                             137   -0.2510 10.2 117 
 SB1M     P    a  0037 32.30                             132   -0.0310 12.2 202 
 SB1M     S    a  0037 34.30                             132    0.0110 12.2 202 
 SB2M     S    a  0037 34.70                             130    0.1810 13.2 194 
 SA3M     P    a  0037 32.60                             129    0.1010 13.6 198 
 SA3M     S    a  0037 34.60     0.90     0.3            129    0.0210 13.6 198 
 SA2M     P    a  0037 32.50                             129    0.0010 13.6 201 
 SA2M     S    a  0037 34.50     0.60     0.2            129   -0.0810 13.6 201 
 SA1M     P    a  0037 32.60                             128    0.0710 13.9 199 
 SA1M     S    a  0037 34.60      1.4     0.2            128   -0.0410 13.9 199 
 SB5M     P    a  0037 32.50                             127   -0.0710 14.2 210 
 SB5M     S    a  0037 34.50                             127   -0.2110 14.2 210 
 SA4M     P    a  0037 32.70                             127    0.0810 14.6 198 
 SA4M     S    a  0037 34.90                             127    0.1110 14.6 198 
 SB3M     P    a  0037 32.60                             126   -0.0810 15.0 195 
 SB3M     S    a  0037 35.20     0.90     0.2            126    0.3110 15.0 195 
 SA0M     P    a  0037 32.80                             125    0.0810 15.3 200 
 SA0M     S    a  0037 34.80                             125   -0.1610 15.3 200 
 SB4M     P    a  0037 32.70                             123   -0.1710 16.5 208 
 SB4M     S    a  0037 35.10                             123   -0.1310 16.5 208 
 UB4M     S    a  0037 36.10                             118    0.1310 19.6 147 
                                                                                
 2017  120 0046 25.8 R  47.963 106.469  8.9  mon 23 0.2-0.1Lmon                1
 GAP= 91        0.60       0.8     1.3  1.8 -0.3843E+00  0.3580E+00 -0.2575E+00E
 ACTION:REG 18-10-16 09:43 OP:ngse STATUS:               ID:20170120004626     I
 IDC: ellipse    1.2    0.8 129 MB sd+-                  Event ID    68263     3
 * 13 km NW Emeelt Urtuu UB region                   ***                       3
 STAT SP IPHASW D HRMM SECON CODA AMPLIT PERI AZIMU VELO AIN AR TRES W  DIS CAZ7
 UB2M     P    a  0046 27.90                             148    0.0610 6.52 342 
 UB2M     S    a  0046 29.20      25.     0.2            148   -0.1010 6.52 342 
 UB1M     P    a  0046 27.70                             136   -0.4710 9.86 117 
 UB1M     S    a  0046 29.60      6.1     0.2            136   -0.2710 9.86 117 
 SB1M     P    a  0046 28.40                             131   -0.0710 12.1 204 
 SB1M     S    a  0046 30.50      7.4     0.2            131    0.1210 12.1 204 
 SB2M     P    a  0046 28.60                             129    0.0110 13.2 195 
 SB2M     S    a  0046 30.70      8.8     0.2            129    0.1010 13.2 195 
 SA3M     P    a  0046 28.70                             128    0.0710 13.5 199 
 SA3M     S    a  0046 30.90      5.4     0.3            128    0.2310 13.5 199 
 SA2M     P    a  0046 28.60                             128   -0.0410 13.5 203 
 SA2M     S    a  0046 30.70      6.5     0.2            128    0.0210 13.5 203 
 SA1M     P    a  0046 28.60                             127   -0.0710 13.8 201 
 SA1M     S    a  0046 30.90      7.6     0.2            127    0.1610 13.8 201 
 SB5M     P    a  0046 28.60                             126   -0.1210 14.2 212 
 SB5M     S    a  0046 31.00      7.3     0.3            126    0.1810 14.2 212 
 SA4M     P    a  0046 28.80                             126    0.0410 14.5 200 
 SA4M     S    a  0046 30.90      8.6     0.3            126    0.0110 14.5 200 
 SB3M     P    a  0046 29.00                             125    0.1910 14.9 196 
 SB3M     S    a  0046 31.20      10.     0.2            125    0.2110 14.9 196 
 SA0M     P    a  0046 28.80                             124   -0.0610 15.3 201 
 SA0M     S    a  0046 30.90                             124   -0.1610 15.3 201 
 SB4M     P    a  0046 29.00                             122   -0.0210 16.5 210 
 SB4M     S    a  0046 31.30      5.5     0.3            122   -0.0510 16.5 210 
 UB4M     P    a  0046 29.30                             118   -0.1110 19.3 148 
 UB4M     S    a  0046 31.70      2.8     0.2            118   -0.3110 19.3 148 
 ALFM     P    a  0046 30.00                             114    0.0210 23.0  79 
 ALFM     S    a  0046 32.90     0.60     0.2            114   -0.1110 23.0  79 
 UB5M     S    a  0046 34.90     0.60     0.2            110    0.54 9 28.3 124 
 U06M     P    a  0046 32.20                             106    0.2510 35.9 172 
 U06M     S    a  0046 36.40     0.40     0.2            106   -0.0210 35.9 172 
 U09M     P    a  0046 32.50                             105    0.0910 38.8 225 
 U09M     S    a  0046 37.00     0.40     0.2            105   -0.2110 38.8 225 
 U16M     S    a  0046 38.80      2.9     0.2            103    0.3510 43.4  36 
 U11M     S    a  0046 43.60     0.30     0.2             99   -0.4110 63.3 251 
 U15M     S    a  0046 46.30     0.50     0.3             98   -0.1210 72.0 355 
 U10M     S    a  0046 50.90     0.20     0.3             97    0.3010 86.9 228 
 U12M     S    a  0046 50.90                              97    0.1610 87.3 249 
 U07M     P    a  0046 41.00                              97    0.1810 90.9 188 
 U07M     S    a  0046 51.10     0.10     0.2             97   -0.66 9 90.9 188 
                                                                                
