 2012  8 4 0030 39.3 R  46.311  99.681  1.0  mon 69 0.4 1.4Lmon                1
 GAP= 70        1.10       0.9     0.9  3.8  0.2012E+00  0.2040E+00  0.5202E+00E
 ACTION:REG 18-10-16 09:44 OP:ngse STATUS:               ID:20120804003039     I
 IDC: ellipse    0.6    0.4  19 MB sd+-                  Event ID   448425     3
 * 12 km NE Bumbugur Baynhongor                      ***                       3
 STAT SP IPHASW D HRMM SECON CODA AMPLIT PERI AZIMU VELO AIN AR TRES W  DIS CAZ7
 HD47     P    a  0030 46.00                              94    0.1010 40.2 117 
 HD47     S    a  0030 51.00      17.     0.2             94    0.2910 40.2 117 
 HD67     P    a  0030 48.00                              94    0.72 9 48.7 275 
 HD67     S    a  0030 54.00      34.     0.2             94    0.89 8 48.7 275 
 HD46     P    a  0030 50.00                              93    0.1510 64.4  27 
 HD46     S    a  0030 58.00      37.     0.3             93    0.4410 64.4  27 
 HD25     P    a  0030 53.00                              92    0.64 9 79.8 345 
 HD25     S    a  0031 02.00      6.8     0.2             92    0.1010 79.8 345 
 HD06     P    a  0030 53.00                              92    0.1610 82.7  96 
 HD06     S    a  0031 02.00      14.     0.3             92   -0.72 9 82.7  96 
 HD10     P    a  0030 54.00                              92    0.1410 88.9  82 
 HD10     S    a  0031 04.00      47.     0.4             92   -0.49 9 88.9  82 
 HD11     P    a  0030 56.00                              92    0.4310 99.3  71 
 HD11     S    a  0031 07.00      17.     0.2             92   -0.4410 99.3  71 
 HD07     P    a  0030 56.00                              92    0.0510  102 113 
 HD07     S    a  0031 08.00      3.4     0.2             92   -0.1110  102 113 
 HD08     P    a  0030 56.00                              91   -0.4510  105 129 
 HD08     S    a  0031 08.00      5.7     0.2             91   -0.96 8  105 129 
 HD12     P    a  0030 57.00                              92    0.4010  106  66 
 HD12     S    a  0031 09.00      6.0     0.2             92   -0.2310  106  66 
 HD14     P    a  0030 57.00                              92    0.2210  107  54 
 HD14     S    a  0031 09.00      5.4     0.2             92   -0.54 9  107  54 
 HD13     P    a  0030 57.00                              92   -0.0510  108  59 
 HD13     S    a  0031 10.00      20.     0.2             92   -0.0110  108  59 
 HD24     P    a  0030 58.00                              92   -0.0310  114  15 
 HD24     S    a  0031 12.00      4.5     0.2             92    0.2910  114  15 
 HD09     P    a  0030 59.00                              91   -0.1710  121 145 
 HD09     S    a  0031 13.00      5.7     0.2             91   -0.68 9  121 145 
 HD26     P    a  0030 59.00                              92   -0.0310  121 324 
 HD26     S    a  0031 14.00      1.4     0.2             92    0.56 9  121 324 
 HD15     P    a  0031 01.00                              91    0.62 9  129  48 
 HD15     S    a  0031 16.00      3.5     0.2             91    0.2310  129  48 
 HD66     P    a  0031 02.00                              91    0.71 9  134 295 
 HD66     S    a  0031 18.00      3.0     0.2             91    0.65 9  134 295 
 HD16     P    a  0031 03.00                              91    0.62 9  141  46 
 HD16     S    a  0031 19.00      5.1     0.2             91   -0.2310  141  46 
 HD56     P    a  0031 03.00                              91    0.0410  145 327 
 HD56     S    a  0031 20.00      2.1     0.2             91   -0.2310  145 327 
 HD23     P    a  0031 04.00                              91    0.4410  148  26 
 HD23     S    a  0031 21.00      4.7     0.2             91   -0.2710  148  26 
 HD05     P    a  0031 04.00                              91    0.3010  149  97 
 HD05     S    a  0031 22.00      12.     0.3             91    0.4910  149  97 
 HD27     P    a  0031 03.00                              91   -0.64 9  149 319 
 HD27     S    a  0031 21.00     0.90     0.2             91   -0.4010  149 319 
 HD17     P    a  0031 05.00                              91    0.1110  156  46 
 HD17     S    a  0031 23.00      10.     0.2             91   -0.56 9  156  46 
 HD45     P    a  0031 05.00                              91   -0.0210  157 345 
 HD45     S    a  0031 24.00      32.     0.4             91    0.2110  157 345 
 HD48     P    a  0031 05.00                              91   -0.52 9  160 267 
 HD48     S    a  0031 24.00      1.9     0.2             91   -0.66 9  160 267 
 HD70     P    a  0031 06.00                              91   -0.1710  164 232 
 HD70     S    a  0031 26.00      2.5     0.3             91    0.2210  164 232 
 HD65     P    a  0031 07.00                              91    0.52 9  166  15 
 HD65     S    a  0031 26.00      10.     0.2             91   -0.3310  166  15 
 HD28     P    a  0031 07.00                              91   -0.3410  171 311 
 HD28     S    a  0031 28.00      2.2     0.2             91    0.1910  171 311 
 HD18     P    a  0031 07.00                              91   -0.3010  171  45 
 HD18     S    a  0031 28.00      38.     0.2             91    0.2610  171  45 
 HD44     P    a  0031 08.00                              91    0.54 9  172 354 
 HD44     S    a  0031 28.00      6.9     0.3             91   -0.0210  172 354 
 HD49     P    a  0031 08.00                              91   -0.3910  178 272 
 HD49     S    a  0031 29.00      16.     0.3             91   -0.63 9  178 272 
 HD63     P    a  0031 10.00                              91    0.72 9  183   1 
 HD63     S    a  0031 31.00      3.4     0.2             91   -0.1710  183   1 
 HD22     P    a  0031 10.00                              91    0.76 9  183  59 
 HD22     S    a  0031 31.00      2.5     0.2             91   -0.0910  183  59 
 HD19     P    a  0031 09.00                              91   -0.2810  183  42 
 HD19     S    a  0031 31.00      5.6     0.3             91   -0.1610  183  42 
 HD69     P    a  0031 09.00                              91   -0.1910  183 162 
 HD69     S    a  0031 31.00      11.     0.2             91   -0.0110  183 162 
 HD04     P    a  0031 10.00                              91    0.2810  186  88 
 HD04     S    a  0031 32.00      11.     0.2             91    0.0710  186  88 
 HD50     P    a  0031 10.00                              91    0.3210  186 280 
 HD50     S    a  0031 32.00      6.8     0.3             91    0.1510  186 280 
 HD29     P    a  0031 10.00                              91    0.0410  187 303 
 HD29     S    a  0031 32.00      10.     0.4             91   -0.3410  187 303 
 HD30     P    a  0031 10.00                              91    0.1510  187 307 
 HD30     S    a  0031 32.00      9.4     0.3             91   -0.1510  187 307 
 HD34     P    a  0031 11.00                              91    0.96 8  188 327 
 HD34     S    a  0031 33.00      3.4     0.2             91    0.52 9  188 327 
 HD33     P    a  0031 11.00                              91    0.52 9  190 319 
 HD33     S    a  0031 33.00      4.7     0.3             91   -0.2310  190 319 
 HD32     P    a  0031 11.00                              91    0.1210  193 316 
 HD32     S    a  0031 34.00      2.6     0.2             91    0.0610  193 316 
 HD31     P    a  0031 11.00                              91   -0.2510  195 311 
 HD31     S    a  0031 34.00      2.9     0.2             91   -0.58 9  195 311 
 HD64     P    a  0031 12.00                              91    0.4210  197  14 
 HD64     S    a  0031 35.00      3.2     0.3             91   -0.1410  197  14 
 HD39     P    a  0031 12.00                              91    0.1110  199 346 
 HD39     S    a  0031 35.00      1.0     0.2             91   -0.68 9  199 346 
 HD36     P    a  0031 12.00                              91    0.1310  199 332 
 HD36     S    a  0031 36.00      1.6     0.2             91    0.3510  199 332 
 HD52     P    a  0031 12.00                              91    0.0710  199 294 
 HD52     S    a  0031 35.00      3.8     0.2             91   -0.75 9  199 294 
 HD35     P    a  0031 12.00                              91    0.2010  199 330 
 HD35     S    a  0031 35.00      2.5     0.2             91   -0.53 9  199 330 
 HD51     P    a  0031 12.00                              91    0.1910  199 287 
 HD51     S    a  0031 35.00      3.1     0.2             91   -0.55 9  199 287 
 HD37     P    a  0031 13.00                              91    0.0310  206 338 
 HD37     S    a  0031 37.00      2.7     0.3             91   -0.54 9  206 338 
 HD38     P    a  0031 13.00                              91   -0.2110  207 343 
 HD38     S    a  0031 38.00      1.6     0.2             91    0.0310  207 343 
 HD62     P    a  0031 14.00                              91    0.57 9  209   3 
 HD62     S    a  0031 39.00      4.4     0.2             91    0.65 9  209   3 
 HD40     P    a  0031 15.00                              91    0.54 9  215 350 
 HD40     S    a  0031 40.00      2.3     0.2             91   -0.1310  215 350 
 HD41     P    a  0031 15.00                              91    0.3910  216 354 
 HD41     S    a  0031 40.00      2.4     0.2             91   -0.3910  216 354 
 HD02     P    a  0031 15.00                              91   -0.0510  218  72 
 HD02     S    a  0031 41.00      14.     0.2             91   -0.1510  218  72 
 HD03     P    a  0031 15.00                              91   -0.56 9  222  83 
 HD03     S    a  0031 42.00      4.2     0.3             91   -0.0310  222  83 
 HD21     P    a  0031 17.00                              91    0.53 9  227  35 
 HD21     S    a  0031 43.00      7.0     0.3             91   -0.61 9  227  35 
 HD42     P    a  0031 17.00                              91   -0.0210  230 356 
 HD42     S    a  0031 44.00      7.0     0.2             91   -0.56 9  230 356 
 HD43     P    a  0031 20.00                              91    0.3310  247 355 
 HD43     S    a  0031 49.00      2.4     0.3             91   -0.1410  247 355 
 HD01     P    a  0031 20.00                              91   -0.4810  252  75 
 HD01     S    a  0031 50.00      2.9     0.2             91   -0.54 9  252  75 
 HD54     P    a  0031 21.00                              91   -0.1910  256 302 
 HD54     S    a  0031 51.00     0.90     0.2             91   -0.78 9  256 302 
 HD61     P    a  0031 23.00                              91    0.88 8  262 337 
 HD61     S    a  0031 52.00      1.8     0.4             91   -1.38 6  262 337 
 HD57     P    a  0031 23.00                              91    0.2510  265 356 
 HD57     S    a  0031 53.00      9.6     0.2             91   -1.47 6  265 356 
 HD60     P    a  0031 25.00                              91    0.1510  278 328 
 HD60     S    a  0031 58.00      1.1     0.3             91   -0.1110  278 328 
 HD59     P    a  0031 28.00                              49   -0.0310  298 317 
 HD59     S    a  0032 03.00     0.50     0.3             49   -0.61 9  298 317 
 HD68     P    a  0031 29.00                              49    0.4010  303 133 
 HD68     S    a  0032 05.00      2.6     0.3             49    0.4010  303 133 
 HD71     P    a  0031 37.00                              49    2.71 0  349 257 
 HD71     S    a  0032 17.00     0.80     0.3             49    2.56 0  349 257 
 HD72     P    a  0031 45.00                              49    4.29 0  402  46 
 HD75     P    a  0031 48.00                              49    5.43 0  416 324 
                                                                                
