 2017  210 1323 47.5 R  47.574 106.756 29.0  mon 18 0.3-0.8Lmon                1
 GAP=121        0.69       1.2     2.0  2.6 -0.3040E-01 -0.4969E+00  0.3677E+00E
 ACTION:REG 18-10-16 09:43 OP:ngse STATUS:               ID:20170210132347     I
 IDC: ellipse    1.3    1.1  87 MB sd+-                  Event ID    68596     3
 * 12 km  S Undur Dov UB region                      ***                       3
 STAT SP IPHASW D HRMM SECON CODA AMPLIT PERI AZIMU VELO AIN AR TRES W  DIS CAZ7
 U05M     P    a  1323 53.30                             151    0.0410 17.3 165 
 U05M     S    a  1323 57.50                             151    0.0210 17.3 165 
 U06M     P    a  1323 53.40                             149    0.1110 18.1 295 
 U06M     S    a  1323 57.80                             149    0.2710 18.1 295 
 SB3M     P    a  1323 55.80                             128    0.2610 38.6 319 
 SB3M     S    a  1324 01.70     0.20     0.2            128    0.2710 38.6 319 
 SB2M     P    a  1323 56.20                             128    0.55 9 39.4 321 
 SB2M     S    a  1324 02.00                             128    0.3810 39.4 321 
 SA4M     P    a  1323 55.60                             128   -0.0610 39.6 318 
 SA4M     S    a  1324 01.60                             128   -0.0410 39.6 318 
 SA0M     P    a  1323 55.30                             128   -0.3610 39.7 317 
 SA0M     S    a  1324 01.50                             128   -0.1410 39.7 317 
 SA3M     P    a  1323 55.70                             127   -0.0310 40.1 320 
 SA3M     S    a  1324 01.70                             127   -0.0510 40.1 320 
 SA1M     P    a  1323 55.80                             127    0.0510 40.3 319 
 SA1M     S    a  1324 01.90     0.10     0.1            127    0.1110 40.3 319 
 SA2M     P    a  1323 55.70                             127   -0.1210 40.8 319 
 SA2M     S    a  1324 01.90                             127   -0.0110 40.8 319 
 SB4M     P    a  1323 55.80                             126   -0.0910 41.4 314 
 SB4M     S    a  1324 01.80     0.10     0.2            126   -0.2310 41.4 314 
 SB1M     P    a  1323 55.90                             126   -0.0310 41.6 321 
 SB1M     S    a  1324 02.10                             126   -0.0110 41.6 321 
 SB5M     P    a  1323 56.00                             126   -0.0410 42.5 317 
 SB5M     S    a  1324 02.20     0.20     0.3            126   -0.0910 42.5 317 
 ALFM     P    a  1323 56.70                             123   -0.0610 47.7   1 
 ALFM     S    a  1324 03.30                             123   -0.2410 47.7   1 
 U08M     P    a  1323 57.20                             121   -0.0110 51.1 255 
 U08M     S    a  1324 04.20     0.30     0.2            121   -0.1310 51.1 255 
 U09M     P    a  1323 58.00                             121    0.74 9 51.4 288 
 U09M     S    a  1324 04.00     0.40     0.2            121   -0.4010 51.4 288 
 ARTM     P    a  1323 57.50                             119   -0.3010 55.0  44 
 ARTM     S    a  1324 05.30                             119   -0.0410 55.0  44 
 U07M     P    a  1323 58.10                             118   -0.0710 57.8 216 
 U07M     S    a  1324 05.80     0.30     0.2            118   -0.1810 57.8 216 
 U11M     P    a  1324 02.80                             110    0.60 9 84.7 286 
 U11M     S    a  1324 12.50                             110   -0.4510 84.7 286 
                                                                                
 2017  210 1339 14.9 R  47.582 106.755 29.8  mon 33 0.3 0.9Lmon                1
 GAP= 83        0.89       1.3     1.5  2.2 -0.7708E-01 -0.1434E+00  0.5483E+00E
 ACTION:REG 18-10-16 09:43 OP:ngse STATUS:               ID:20170210133914     I
 IDC: ellipse    1.3    0.7  11 MB sd+-                  Event ID    68590     3
 * 12 km  S Undur Dov UB region                      ***                       3
 STAT SP IPHASW D HRMM SECON CODA AMPLIT PERI AZIMU VELO AIN AR TRES W  DIS CAZ7
 DOM3     P    a  1340 31.90                                                    
 U06M     P    a  1339 21.00                             151    0.2610 17.7 293 
 U06M     S    a  1339 25.30                             151    0.2710 17.7 293 
 U05M     P    a  1339 21.10                             150    0.2710 18.2 165 
 U05M     S    a  1339 25.30      11.     0.2            150    0.1210 18.2 165 
 UB5M     P    a  1339 22.00                             140    0.4410 26.4   4 
 UB5M     S    a  1339 26.20      5.4     0.2            140   -0.2310 26.4   4 
 UB4M     P    a  1339 22.20                             138    0.4710 28.2 337 
 UB4M     S    a  1339 26.90      13.     0.2            138    0.1610 28.2 337 
 SB3M     P    a  1339 23.20                             130    0.2910 37.9 318 
 SB3M     S    a  1339 28.80                             130    0.0210 37.9 318 
 SB2M     P    a  1339 23.40                             129    0.3810 38.7 320 
 SB2M     S    a  1339 28.80                             129   -0.1710 38.7 320 
 SA4M     P    a  1339 23.40                             129    0.3710 38.9 318 
 SA4M     S    a  1339 29.00                             129    0.0110 38.9 318 
 SA0M     P    a  1339 23.30                             129    0.2710 38.9 316 
 SA0M     S    a  1339 29.00                             129    0.0110 38.9 316 
 SA3M     P    a  1339 23.40                             129    0.3010 39.3 319 
 SA3M     S    a  1339 29.00                             129   -0.1010 39.3 319 
 SA1M     P    a  1339 23.40                             128    0.2810 39.5 318 
 SA1M     S    a  1339 29.00                             128   -0.1410 39.5 318 
 UB1M     P    a  1339 23.70                             128    0.55 9 39.9 342 
 UB1M     S    a  1339 29.40      19.     0.2            128    0.2010 39.9 342 
 SA2M     P    a  1339 23.50                             128    0.3110 40.0 318 
 SA2M     S    a  1339 29.10                             128   -0.1610 40.0 318 
 SB4M     P    a  1339 23.50                             127    0.2410 40.7 314 
 SB4M     S    a  1339 29.00                             127   -0.3910 40.7 314 
 SB1M     P    a  1339 23.40                             128    0.1010 40.8 320 
 SB1M     S    a  1339 29.00                             128   -0.4510 40.8 320 
 SB5M     P    a  1339 23.50                             127    0.0910 41.8 316 
 SB5M     S    a  1339 29.00                             127   -0.64 9 41.8 316 
 ALFM     P    a  1339 24.40                             124    0.3010 46.8   2 
 ALFM     S    a  1339 31.00                             124    0.1710 46.8   2 
 UGDM     P    a  1339 24.40                             123   -0.0110 48.9  83 
 UGDM     S    a  1339 30.80                             123   -0.57 9 48.9  83 
 U09M     P    a  1339 24.90                             121    0.2410 51.0 287 
 U09M     S    a  1339 31.60                             121   -0.2010 51.0 287 
 U08M     P    a  1339 24.80                             121    0.1110 51.2 254 
 U08M     S    a  1339 32.00                             121    0.1410 51.2 254 
 UB2M     P    a  1339 25.30                             120    0.2410 53.8 334 
 UB2M     S    a  1339 32.40      16.     0.2            120   -0.0910 53.8 334 
 ARTM     P    a  1339 25.40                             120    0.2210 54.4  45 
 ARTM     S    a  1339 32.00                             120   -0.70 9 54.4  45 
 U07M     P    a  1339 25.90                             118    0.1810 58.4 215 
 U07M     S    a  1339 33.20                             118   -0.4410 58.4 215 
 UB0M     P    a  1339 28.40                             113    0.3410 74.3 305 
 UB0M     S    a  1339 37.50      2.6     0.2            113   -0.1810 74.3 305 
 U16M     P    a  1339 28.90                             112    0.3510 77.6   3 
 U16M     S    a  1339 38.80      14.     0.2            112    0.2610 77.6   3 
 U11M     P    a  1339 29.80                             110    0.2210 84.3 285 
 U11M     S    a  1339 40.30                             110   -0.0210 84.3 285 
 U10M     P    a  1339 30.00                             110   -0.0410 87.3 260 
 U10M     S    a  1339 40.60                             110   -0.51 9 87.3 260 
 U12M     P    a  1339 32.70                             107    0.1310  104 276 
 U12M     S    a  1339 45.10                             107   -0.3910  104 276 
 U13M     P    a  1339 33.80                             106   -0.0610  112 294 
 U13M     S    a  1339 47.30      2.8     0.2            106   -0.4310  112 294 
 U15M     P    a  1339 34.50                             105   -0.2410  117 346 
 U15M     S    a  1339 48.60      2.7     0.2            105   -0.64 9  117 346 
 U14M     P    a  1339 38.10                             103   -0.0810  139 297 
 U14M     S    a  1339 54.80                             103   -0.3910  139 297 
 U04M     P    a  1339 39.10                             102   -0.56 9  148  77 
 U04M     S    a  1339 57.10      1.7     0.2            102   -0.65 9  148  77 
 MDGM     P    a  1339 47.80                              49   -1.68 4  209 189 
 MDGM     S    a  1340 12.50                              49   -2.24 0  209 189 
                                                                                
 2017  210 1415  5.9 R  47.576 106.735 30.1  mon 24 0.3-0.7Lmon                1
 GAP=115        0.74       1.2     1.7  2.4 -0.4147E+00  0.3100E-01  0.6680E+00E
 ACTION:REG 18-10-16 09:43 OP:ngse STATUS:               ID:20170210141505     I
 IDC: ellipse    1.3    1.1 123 MB sd+-                  Event ID      685     3
 * 13 km  S Undur Dov UB region                      ***                       3
 STAT SP IPHASW D HRMM SECON CODA AMPLIT PERI AZIMU VELO AIN AR TRES W  DIS CAZ7
 U06M     P    a  1415 12.00                             152    0.2710 16.6 297 
 U06M     S    a  1415 16.20                             152    0.2110 16.6 297 
 U05M     P    a  1415 12.00                             151    0.1310 18.0 160 
 U05M     S    a  1415 16.10                             151   -0.1410 18.0 160 
 UB5M     P    a  1415 12.90                             139    0.2010 27.2   7 
 UB5M     S    a  1415 17.20                             139   -0.4710 27.2   7 
 UB4M     P    a  1415 13.10                             138    0.3010 28.3 340 
 UB4M     S    a  1415 17.90     0.30     0.2            138    0.0610 28.3 340 
 SB3M     S    a  1415 19.80                             130    0.0310 37.4 320 
 SB2M     P    a  1415 14.00                             130   -0.0210 38.3 322 
 SB2M     S    a  1415 20.00                             130    0.0410 38.3 322 
 SA4M     P    a  1415 13.90                             129   -0.1310 38.4 320 
 SA4M     S    a  1415 20.10                             129    0.1310 38.4 320 
 SA0M     P    a  1415 13.80                             129   -0.2310 38.4 318 
 SA0M     S    a  1415 19.90                             129   -0.0610 38.4 318 
 SA3M     P    a  1415 13.90                             129   -0.2010 38.9 321 
 SA3M     S    a  1415 20.20                             129    0.1110 38.9 321 
 SA1M     P    a  1415 14.10                             129   -0.0110 39.1 320 
 SA1M     S    a  1415 20.30                             129    0.1810 39.1 320 
 SA2M     P    a  1415 14.10                             129   -0.0810 39.6 320 
 SA2M     S    a  1415 20.30                             129    0.0610 39.6 320 
 UB1M     P    a  1415 14.30                             128    0.0710 40.1 344 
 UB1M     S    a  1415 20.50     0.40     0.2            128    0.1810 40.1 344 
 SB1M     P    a  1415 13.90                             128   -0.4010 40.4 322 
 SB1M     S    a  1415 20.30                             128   -0.1410 40.4 322 
 SB5M     P    a  1415 14.00                             127   -0.3910 41.3 318 
 SB5M     S    a  1415 20.70                             127    0.1010 41.3 318 
 ALFM     P    a  1415 16.30                             124    1.05 8 47.6   3 
 ALFM     S    a  1415 22.00                             124   -0.0810 47.6   3 
 U08M     P    a  1415 15.60                             122    0.0910 49.6 255 
 U08M     S    a  1415 22.70                             122    0.1610 49.6 255 
 U09M     P    a  1415 15.60                             122    0.0610 49.8 288 
 U09M     S    a  1415 22.90                             122    0.3110 49.8 288 
 ARTM     P    a  1415 16.20                             120   -0.2410 55.9  46 
 ARTM     S    a  1415 23.80                             120   -0.3410 55.9  46 
 U07M     P    a  1415 16.40                             119   -0.1610 57.0 214 
 U07M     S    a  1415 24.30                             119   -0.0510 57.0 214 
 U01M     P    a  1415 19.10                             115    0.79 9 68.8  32 
 U01M     S    a  1415 27.10                             115   -0.2810 68.8  32 
 UB0M     P    a  1415 19.30                             113    0.3210 73.5 306 
 UB0M     S    a  1415 28.10     0.10     0.2            113   -0.4310 73.5 306 
 U11M     S    a  1415 30.80                             111   -0.2510 83.1 286 
 U10M     P    a  1415 20.70                             110   -0.1410 85.7 260 
 U10M     S    a  1415 31.60                             110   -0.1510 85.7 260 
 U12M     P    a  1415 23.80                             107    0.4110  102 277 
 U12M     S    a  1415 35.80                             107   -0.3710  102 277 
                                                                                
 2017  211 1240  1.1 R  47.971 106.521  9.6  mon 15 0.1-0.6Lmon                1
 GAP=127        0.26       0.6     0.8  1.1 -0.1801E+00 -0.1082E+00  0.4766E-01E
 ACTION:REG 18-10-16 09:43 OP:ngse STATUS:               ID:20170211124001     I
 IDC: ellipse    1.4    0.9 135 MB sd+-                  Event ID     6860     3
 * 11 km NW Emeelt Urtuu UB region                   ***                       3
 STAT SP IPHASW D HRMM SECON CODA AMPLIT PERI AZIMU VELO AIN AR TRES W  DIS CAZ7
 UB1M     P    a  1240 03.20                             146   -0.0310 7.27 138 
 UB1M     S    a  1240 04.90                             146    0.1010 7.27 138 
 UB2M     P    a  1240 03.30                             144   -0.0010 7.91 312 
 UB2M     S    a  1240 05.00                             144    0.0710 7.91 312 
 SB1M     P    a  1240 04.20                             127    0.0710 14.9 216 
 SB1M     S    a  1240 06.40      1.1     0.2            127    0.0510 14.9 216 
 SB2M     P    a  1240 04.30                             126    0.1010 15.5 208 
 SB2M     S    a  1240 06.50      1.2     0.2            126    0.0210 15.5 208 
 SA3M     P    a  1240 04.30                             125    0.0310 16.0 211 
 SA3M     S    a  1240 06.60      1.2     0.2            125   -0.0010 16.0 211 
 SA2M     P    a  1240 04.30                             124    0.0010 16.2 214 
 SA2M     S    a  1240 06.60      1.3     0.2            124   -0.0510 16.2 214 
 SA1M     P    a  1240 04.40                             124    0.0810 16.4 213 
 SA1M     S    a  1240 06.70      1.1     0.2            124    0.0110 16.4 213 
 SA4M     P    a  1240 04.40                             123   -0.0010 17.0 211 
 SA4M     S    a  1240 06.70     0.90     0.2            123   -0.1210 17.0 211 
 SB3M     P    a  1240 04.50                             123    0.0710 17.2 208 
 SB3M     S    a  1240 06.80      1.1     0.2            123   -0.0810 17.2 208 
 SB5M     P    a  1240 04.40                             122   -0.0410 17.3 221 
 SB5M     S    a  1240 06.90      1.0     0.2            122    0.0110 17.3 221 
 SA0M     P    a  1240 04.60                             122    0.0810 17.9 212 
 SA0M     S    a  1240 07.00                             122   -0.0210 17.9 212 
 UB4M     P    a  1240 04.60                             120    0.0310 18.4 160 
 UB4M     S    a  1240 07.10                             120   -0.0210 18.4 160 
 ALFM     P    a  1240 04.70                             120    0.0010 19.0  79 
 ALFM     S    a  1240 07.20      1.3     0.2            120   -0.1310 19.0  79 
 SB4M     P    a  1240 04.50                             119   -0.2410 19.4 218 
 SB4M     S    a  1240 07.30     0.90     0.3            119   -0.1010 19.4 218 
 U06M     S    a  1240 12.00                             107    0.1310 36.5 178 
                                                                                
