 2012  813 0729 43.1 R  46.459  99.694  1.3  mon 60 0.4 1.2Lmon                1
 GAP= 64        1.09       0.8     1.0 32.2  0.1700E+00  0.4648E+01 -0.9627E+00E
 ACTION:REG 18-10-16 09:44 OP:ngse STATUS:               ID:20120813072943     I
 IDC: ellipse    0.6    0.4  20 MB sd+-                  Event ID   448580     3
 * 28 km N Bumbugur Baynhongor                       ***                       3
 STAT SP IPHASW D HRMM SECON CODA AMPLIT PERI AZIMU VELO AIN AR TRES W  DIS CAZ7
 HD47     P    a  0729 51.00                              94   -0.1710 49.1 135 
 HD47     S    a  0729 57.00      8.5     0.2             94   -0.0510 49.1 135 
 HD46     P    a  0729 51.00                              94   -0.2710 49.7  34 
 HD46     S    a  0729 57.00      24.     0.2             94   -0.2210 49.7  34 
 HD67     P    a  0729 52.00                              94    0.54 9 50.9 256 
 HD67     S    a  0729 58.00      18.     0.3             94    0.4410 50.9 256 
 HD25     P    a  0729 54.00                              93    0.3310 64.4 340 
 HD25     S    a  0730 01.00      3.4     0.2             93   -0.3810 64.4 340 
 HD06     P    a  0729 57.00                              92   -0.0110 84.9 107 
 HD06     S    a  0730 07.00      20.     0.3             92   -0.1610 84.9 107 
 HD11     P    a  0729 59.00                              92    0.4410 94.3  80 
 HD11     S    a  0730 09.00      3.4     0.2             92   -0.83 9 94.3  80 
 HD14     P    a  0729 59.00                              92   -0.0010 97.0  61 
 HD14     S    a  0730 11.00      2.4     0.2             92    0.4010 97.0  61 
 HD24     P    a  0729 59.00                              92   -0.2210 98.3  17 
 HD24     S    a  0730 11.00      8.3     0.2             92    0.0210 98.3  17 
 HD12     P    a  0729 59.00                              92   -0.3410 99.1  74 
 HD12     S    a  0730 11.00      6.3     0.2             92   -0.1810 99.1  74 
 HD13     P    a  0730 00.00                              92    0.4910  100  67 
 HD13     S    a  0730 12.00      6.5     0.2             92    0.52 9  100  67 
 HD26     P    a  0730 01.00                              92    0.1210  108 318 
 HD26     S    a  0730 14.00      1.2     0.2             92    0.1610  108 318 
 HD07     P    a  0730 01.00                              92    0.1510  108 121 
 HD07     S    a  0730 13.00      2.2     0.2             92   -0.80 9  108 121 
 HD08     P    a  0730 02.00                              91    0.0610  115 135 
 HD08     S    a  0730 15.00      5.5     0.2             91   -0.68 9  115 135 
 HD15     P    a  0730 02.00                              92   -0.3810  118  54 
 HD15     S    a  0730 17.00      2.3     0.2             92    0.55 9  118  54 
 HD66     P    a  0730 05.00                              92    0.73 9  129 288 
 HD66     S    a  0730 20.00      4.2     0.3             92    0.2910  129 288 
 HD16     P    a  0730 04.00                              91   -0.2810  129  51 
 HD16     S    a  0730 19.00      3.4     0.2             91   -0.73 9  129  51 
 HD23     P    a  0730 05.00                              91    0.0910  133  28 
 HD23     S    a  0730 21.00      8.3     0.2             91    0.1810  133  28 
 HD09     P    a  0730 05.00                              91   -0.1510  135 149 
 HD09     S    a  0730 21.00      11.     0.4             91   -0.2310  135 149 
 HD27     P    a  0730 06.00                              92    0.4010  137 315 
 HD27     S    a  0730 22.00      1.0     0.2             92   -0.0210  137 315 
 HD45     P    a  0730 06.00                              91   -0.3010  142 343 
 HD45     S    a  0730 23.00      5.5     0.2             91   -0.2310  142 343 
 HD17     P    a  0730 07.00                              91    0.2310  145  50 
 HD17     S    a  0730 25.00      2.2     0.2             91    0.96 8  145  50 
 HD65     P    a  0730 08.00                              91    0.3310  150  16 
 HD65     S    a  0730 26.00      18.     0.2             91    0.4110  150  16 
 HD05     P    a  0730 08.00                              91    0.1610  151 104 
 HD05     S    a  0730 26.00      3.6     0.2             91    0.1210  151 104 
 HD44     P    a  0730 09.00                              91    0.3710  156 353 
 HD44     S    a  0730 27.00      9.4     0.3             91   -0.2710  156 353 
 HD18     P    a  0730 09.00                              91   -0.1710  159  49 
 HD18     S    a  0730 29.00      6.9     0.2             91    0.81 9  159  49 
 HD28     P    a  0730 10.00                              91    0.4010  162 307 
 HD28     S    a  0730 29.00      1.4     0.2             91    0.0610  162 307 
 HD48     P    a  0730 10.00                              91    0.2110  163 261 
 HD48     S    a  0730 28.00      2.2     0.2             91   -1.26 7  163 261 
 HD63     P    a  0730 11.00                              91    0.59 9  167   1 
 HD63     S    a  0730 30.00      4.1     0.2             91   -0.3410  167   1 
 HD19     P    a  0730 11.00                              91   -0.0510  171  46 
 HD19     S    a  0730 32.00      1.8     0.2             91    0.55 9  171  46 
 HD70     P    a  0730 12.00                              91    0.1610  175 228 
 HD70     S    a  0730 33.00      1.8     0.3             91    0.1910  175 228 
 HD34     P    a  0730 12.00                              91    0.2710  175 324 
 HD34     S    a  0730 33.00      1.4     0.2             91    0.3910  175 324 
 HD30     P    a  0730 12.00                              91   -0.2710  178 303 
 HD30     S    a  0730 34.00      1.3     0.2             91    0.4510  178 303 
 HD33     P    a  0730 13.00                              91    0.57 9  179 315 
 HD33     S    a  0730 34.00      1.0     0.2             91    0.1610  179 315 
 HD49     P    a  0730 13.00                              91    0.62 9  179 267 
 HD49     S    a  0730 33.00      20.     0.2             91   -0.75 9  179 267 
 HD29     P    a  0730 13.00                              91    0.4510  180 298 
 HD29     S    a  0730 33.00      2.5     0.2             91   -1.04 8  180 298 
 HD64     P    a  0730 13.00                              91    0.2510  181  15 
 HD64     S    a  0730 34.00      4.6     0.3             91   -0.3810  181  15 
 HD32     P    a  0730 13.00                              91    0.0510  182 312 
 HD32     S    a  0730 35.00      1.4     0.2             91    0.2710  182 312 
 HD39     P    a  0730 13.00                              91   -0.1510  183 345 
 HD39     S    a  0730 35.00     0.70     0.3             91   -0.0710  183 345 
 HD35     P    a  0730 13.00                              91   -0.4210  185 327 
 HD36     P    a  0730 13.00                              91   -0.4210  185 330 
 HD36     S    a  0730 36.00     0.60     0.2             91    0.4610  185 330 
 HD50     P    a  0730 14.00                              91    0.68 9  185 275 
 HD50     S    a  0730 35.00      14.     0.3             91   -0.3710  185 275 
 HD04     P    a  0730 14.00                              91    0.62 9  185  93 
 HD04     S    a  0730 36.00      10.     0.2             91    0.52 9  185  93 
 HD35     S    a  0730 36.00      1.2     0.2             91    0.4510  185 327 
 HD31     P    a  0730 13.00                              91   -0.50 9  186 307 
 HD31     S    a  0730 36.00      1.8     0.2             91    0.3210  186 307 
 HD37     P    a  0730 14.00                              91   -0.3910  191 335 
 HD37     S    a  0730 37.00     0.80     0.2             91   -0.2210  191 335 
 HD38     P    a  0730 15.00                              91    0.4810  192 341 
 HD38     S    a  0730 37.00     0.80     0.2             91   -0.4610  192 341 
 HD62     P    a  0730 15.00                              91    0.4410  192   3 
 HD62     S    a  0730 37.00      1.9     0.2             91   -0.51 9  192   3 
 HD52     P    a  0730 15.00                              91    0.1210  194 290 
 HD52     S    a  0730 38.00      2.4     0.2             91   -0.0810  194 290 
 HD51     P    a  0730 15.00                              91   -0.1210  196 282 
 HD51     S    a  0730 38.00      9.1     0.2             91   -0.4910  196 282 
 HD69     P    a  0730 15.00                              91   -0.51 9  198 164 
 HD69     S    a  0730 39.00      7.5     0.2             91   -0.1710  198 164 
 HD40     P    a  0730 16.00                              91    0.3310  199 349 
 HD40     S    a  0730 39.00      2.2     0.2             91   -0.4310  199 349 
 HD41     P    a  0730 16.00                              91    0.2210  200 354 
 HD41     S    a  0730 39.00      3.2     0.3             91   -0.62 9  200 354 
 HD21     P    a  0730 18.00                              91   -0.0310  213  38 
 HD21     S    a  0730 43.00      2.3     0.2             91   -0.52 9  213  38 
 HD42     P    a  0730 19.00                              91    0.83 9  214 355 
 HD42     S    a  0730 43.00      3.3     0.2             91   -0.77 9  214 355 
 HD03     P    a  0730 19.00                              91    0.0210  219  87 
 HD03     S    a  0730 45.00      5.4     0.4             91   -0.1710  219  87 
 HD43     P    a  0730 21.00                              91    0.1710  230 354 
 HD43     S    a  0730 48.00      1.6     0.2             91   -0.3610  230 354 
 HD01     P    a  0730 23.00                              91   -0.5010  247  78 
 HD01     S    a  0730 53.00      2.3     0.2             91    0.0210  247  78 
 HD61     P    a  0730 24.00                              91    0.4510  247 335 
 HD61     S    a  0730 53.00      2.4     0.3             91   -0.0610  247 335 
 HD54     P    a  0730 23.00                              91   -0.79 9  249 299 
 HD54     S    a  0730 53.00      1.7     0.2             91   -0.4910  249 299 
 HD57     P    a  0730 24.00                              91    0.1010  249 355 
 HD57     S    a  0730 53.00      9.5     0.2             91   -0.68 9  249 355 
 HD60     P    a  0730 26.00                              91   -0.52 9  265 326 
 HD60     S    a  0730 58.00      1.1     0.2             91   -0.2010  265 326 
                                                                                
