 2012  713 0209 55.7 R  46.103 100.059 10.1  mon 71 0.5 1.5Lmon                1
 GAP= 74        1.20       1.0     1.1  3.0  0.1831E+00  0.6402E+00 -0.1395E+00E
 ACTION:REG 18-10-16 09:44 OP:ngse STATUS:               ID:20120713020955     I
 IDC: ellipse    0.6    0.5  13 MB sd+-                  Event ID   448040     3
 * 36 km SW Bayan-Ovoo Baynhongor                    ***                       3
 STAT SP IPHASW D HRMM SECON CODA AMPLIT PERI AZIMU VELO AIN AR TRES W  DIS CAZ7
 HD47     P    a  0209 59.00                             146    0.93 8 8.11  54 
 HD47     S    a  0210 01.00      0.8E+03 0.3            146    1.19 7 8.11  54 
 HD06     P    aD 0210 05.00                             102    0.0910 55.1  75 
 HD06     S    a  0210 12.00      0.3E+03 0.2            102    0.3510 55.1  75 
 HD07     P    aD 0210 07.00                             100    0.2710 66.5 105 
 HD07     S    a  0210 14.00      0.2E+03 0.2            100   -0.80 9 66.5 105 
 HD08     P    aC 0210 07.00                             100    0.1110 67.5 129 
 HD08     S    a  0210 15.00      0.6E+03 0.2            100   -0.0810 67.5 129 
 HD10     P    aD 0210 07.00                             100   -0.0910 68.6  59 
 HD10     S    a  0210 15.00      0.3E+03 0.2            100   -0.4210 68.6  59 
 HD46     P    a  0210 09.00                              99   -0.0210 80.6   0 
 HD46     S    a  0210 19.00      90.     0.2             99    0.2310 80.6   0 
 HD67     P    a  0210 10.00                              99    0.68 9 82.4 290 
 HD67     S    a  0210 19.00      0.2E+03 0.2             99   -0.2810 82.4 290 
 HD11     P    aD 0210 10.00                              98    0.2510 85.1  50 
 HD11     S    a  0210 20.00      0.1E+03 0.2             98   -0.0210 85.1  50 
 HD09     P    aC 0210 10.00                              98    0.0610 86.4 152 
 HD09     S    a  0210 20.00      0.1E+03 0.3             98   -0.3610 86.4 152 
 HD12     P    aD 0210 12.00                              98    0.75 9 94.3  46 
 HD12     S    a  0210 22.00      0.1E+03 0.2             98   -0.62 9 94.3  46 
 HD13     P    aD 0210 13.00                              97    0.65 9  101  40 
 HD13     S    a  0210 24.00      0.3E+03 0.2             97   -0.5210  101  40 
 HD14     P    aC 0210 13.00                              97    0.2810  103  34 
 HD14     S    a  0210 25.00      0.3E+03 0.4             97   -0.1610  103  34 
 HD25     P    a  0210 14.00                              96   -0.1010  112 334 
 HD25     S    a  0210 27.00      58.     0.2             96   -0.55 9  112 334 
 HD05     P    aD 0210 15.00                              96   -0.2010  119  88 
 HD05     S    a  0210 29.00      82.     0.2             96   -0.4610  119  88 
 HD15     P    aD 0210 17.00                              96    0.3510  128  32 
 HD15     S    a  0210 32.00      0.1E+03 0.2             96    0.0410  128  32 
 HD24     P    a  0210 18.00                              95    0.3610  134   0 
 HD24     S    a  0210 33.00      48.     0.2             95   -0.67 9  134   0 
 HD16     P    aC 0210 19.00                              95    0.1510  141  31 
 HD16     S    a  0210 36.00      0.1E+03 0.2             95    0.2310  141  31 
 HD69     P    a  0210 21.00                              94    0.2110  153 170 
 HD69     S    a  0210 39.00      0.2E+03 0.2             94   -0.1210  153 170 
 HD17     P    a  0210 22.00                              94    0.72 9  156  32 
 HD17     S    a  0210 39.00      0.2E+03 0.2             94   -0.96 8  156  32 
 HD26     P    a  0210 21.00                              95   -0.4210  157 320 
 HD26     S    a  0210 40.00      26.     0.2             95   -0.2110  157 320 
 HD04     P    aD 0210 22.00                              94    0.1610  159  79 
 HD04     S    a  0210 41.00      0.1E+03 0.2             94    0.0710  159  79 
 HD23     P    a  0210 22.00                              94   -0.0210  160  13 
 HD23     S    a  0210 41.00      68.     0.2             94   -0.2510  160  13 
 HD66     P    a  0210 24.00                              94    0.2910  171 298 
 HD66     S    a  0210 45.00      0.1E+03 0.4             94    0.83 9  171 298 
 HD18     P    a  0210 24.00                              94    0.3410  171  33 
 HD18     S    a  0210 44.00      0.3E+03 0.3             94   -0.0810  171  33 
 HD22     P    a  0210 24.00                              94   -0.0710  173  48 
 HD22     S    a  0210 45.00      55.     0.3             94    0.2010  173  48 
 HD70     P    a  0210 25.00                              94    0.3310  177 244 
 HD70     S    a  0210 46.00      42.     0.5             94    0.1610  177 244 
 HD56     P    a  0210 26.00                              94    0.77 9  180 324 
 HD56     S    a  0210 47.00      62.     0.4             94    0.2010  180 324 
 HD19     P    a  0210 26.00                              94    0.1110  184  31 
 HD19     S    a  0210 48.00      90.     0.3             94    0.0610  184  31 
 HD65     P    a  0210 26.00                              94    0.1210  184   4 
 HD65     S    a  0210 48.00      64.     0.2             94    0.0710  184   4 
 HD27     P    a  0210 26.00                              94   -0.0810  185 317 
 HD27     S    a  0210 49.00      53.     0.3             94    0.72 9  185 317 
 HD45     P    a  0210 27.00                              94    0.4410  188 338 
 HD45     S    a  0210 50.00      89.     0.3             94    0.90 8  188 338 
 HD48     P    a  0210 26.00                              94   -0.78 9  190 274 
 HD48     S    a  0210 49.00      0.1E+03 0.2             94   -0.4910  190 274 
 HD03     P    aD 0210 28.00                              93    0.0110  197  76 
 HD03     S    a  0210 52.00      0.1E+03 0.6             93    0.4210  197  76 
 HD02     P    aD 0210 29.00                              93    0.51 9  200  63 
 HD02     S    a  0210 51.00      0.1E+03 0.2             93   -1.45 6  200  63 
 HD44     P    a  0210 29.00                              94    0.53 9  200 346 
 HD44     S    a  0210 53.00      25.     0.2             94    0.60 9  200 346 
 HD63     P    a  0210 30.00                              93    0.2810  208 353 
 HD63     S    a  0210 54.00      25.     0.2             93   -0.57 9  208 353 
 HD28     P    a  0210 30.00                              93    0.1310  209 311 
 HD28     S    a  0210 55.00      54.     0.3             93    0.1810  209 311 
 HD49     P    a  0210 30.00                              93    0.0510  209 279 
 HD49     S    a  0210 55.00      0.1E+03 0.2             93    0.0410  209 279 
 HD64     P    a  0210 31.00                              93    0.0110  215   5 
 HD64     S    a  0210 56.00      91.     0.6             93   -0.76 9  215   5 
 HD50     P    a  0210 32.00                              93    0.4110  219 285 
 HD50     S    a  0210 57.00      95.     0.3             93   -0.80 9  219 285 
 HD34     P    a  0210 32.00                              93   -0.2810  223 325 
 HD34     S    a  0210 59.00      98.     0.3             93   -0.0010  223 325 
 HD29     P    a  0210 32.00                              93   -0.4610  224 304 
 HD29     S    a  0211 00.00      99.     0.2             93    0.69 9  224 304 
 HD30     P    a  0210 32.00                              93   -0.3810  224 308 
 HD30     S    a  0210 59.00      69.     0.3             93   -0.1610  224 308 
 HD33     P    a  0210 33.00                              93    0.0910  227 318 
 HD33     S    a  0211 00.00      41.     0.2             93   -0.0910  227 318 
 HD39     P    a  0210 33.00                              93   -0.3010  230 341 
 HD39     S    a  0211 01.00      17.     0.2             93    0.2310  230 341 
 HD32     P    a  0210 32.00                              93   -1.36 6  230 315 
 HD32     S    a  0211 01.00      0.1E+03 0.3             93    0.1310  230 315 
 HD31     P    a  0210 33.00                              93   -0.77 9  232 311 
 HD31     S    a  0211 02.00      63.     0.4             93    0.4310  232 311 
 HD62     P    a  0210 34.00                              93    0.2910  232 356 
 HD62     S    a  0211 01.00      17.     0.3             93   -0.4710  232 356 
 HD21     P    a  0210 34.00                              93    0.2810  232  26 
 HD21     S    a  0211 01.00      0.2E+03 0.3             93   -0.4810  232  26 
 HD01     P    aD 0210 34.00                              93    0.3810  232  67 
 HD01     S    a  0211 01.00      81.     0.3             93   -0.3210  232  67 
 HD36     P    a  0210 32.00                              93   -1.94 3  233 329 
 HD36     S    a  0211 02.00      30.     0.3             93    0.1210  233 329 
 HD35     P    a  0210 33.00                              93   -0.97 8  234 327 
 HD35     S    a  0211 02.00      53.     0.3             93    0.0810  234 327 
 HD51     P    a  0210 33.00                              93   -0.97 8  234 290 
 HD51     S    a  0211 02.00      78.     0.2             93    0.0710  234 290 
 HD52     P    aD 0210 33.00                              93   -1.30 7  236 297 
 HD52     S    a  0211 02.00      55.     0.2             93   -0.5010  236 297 
 HD38     P    a  0210 33.00                              93   -1.80 4  239 338 
 HD38     S    a  0211 03.00      42.     0.3             93   -0.3610  239 338 
 HD37     P    a  0210 33.00                              93   -1.82 3  239 333 
 HD37     S    a  0211 03.00      42.     0.3             93   -0.4010  239 333 
 HD41     P    a  0210 33.00                              93   -2.50 0  243 348 
 HD41     S    a  0211 05.00      46.     0.3             93    0.4310  243 348 
 HD40     P    a  0210 34.00                              93   -1.64 5  244 344 
 HD40     S    a  0211 05.00      31.     0.2             93    0.1810  244 344 
 HD42     P    a  0210 37.00                              93   -0.79 9  257 350 
 HD42     S    a  0211 09.00      64.     0.2             93    0.47 9  257 350 
 HD68     P    a  0210 36.00                              93   -3.26 0  266 134 
 HD68     S    a  0211 11.00      34.     0.2             93   -0.0710  266 134 
 HD43     P    a  0210 40.00                              49   -0.3610  274 349 
 HD43     S    a  0211 13.00      9.5     0.2             49    0.0210  274 349 
 HD57     P    a  0210 43.00                              49    0.3810  292 351 
 HD57     S    a  0211 19.00      0.2E+03 0.4             49    2.11 0  292 351 
 HD54     P    a  0210 40.00                              49   -2.78 0  293 303 
 HD54     S    a  0211 18.00      22.     0.2             49    0.84 8  293 303 
 HD61     P    a  0210 43.00                              49   -0.0010  295 334 
 HD61     S    a  0211 19.00      95.     0.5             49    1.45 6  295 334 
 HD60     P    a  0210 43.00                              49   -2.34 0  314 326 
 HD60     S    a  0211 24.00      21.     0.3             49    2.40 0  314 326 
 HD59     P    a  0210 45.00                              49   -2.98 0  335 317 
 HD59     S    a  0211 30.00      19.     0.3             49    3.84 0  335 317 
 HD71     P    a  0210 50.00                              49   -2.74 0  374 262 
 HD74     P    a  0210 51.00                              49   -2.96 0  384 350 
 HD73     P    a  0210 51.00                              49   -3.62 0  390  14 
 HD72     P    a  0210 53.00                              49   -2.67 0  398  41 
 HD75     P    a  0211 00.00                              49   -2.41 0  452 323 
                                                                                
