 2017  2 2 2148 42.2 R  47.636 106.045  4.7  mon 20 0.3-0.2Lmon                1
 GAP= 71        0.77       1.0     1.3  5.3 -0.3462E+00  0.9558E+00  0.4188E+00E
 ACTION:REG 18-10-16 09:43 OP:ngse STATUS:               ID:20170202214842     I
 IDC: ellipse    1.0    0.8 148 MB sd+-                  Event ID    68467     3
 * 9 km SE Khustai Park UB region                    ***                       3
 STAT SP IPHASW D HRMM SECON CODA AMPLIT PERI AZIMU VELO AIN AR TRES W  DIS CAZ7
 U09M     P    a  2148 44.10                             122   -0.0110 9.80  27 
 U09M     S    a  2148 45.40      9.7     0.2            122   -0.0910 9.80  27 
 U08M     P    a  2148 45.80                             107    0.0710 20.5 168 
 U08M     S    a  2148 48.40      1.3     0.2            107    0.1110 20.5 168 
 U11M     P    a  2148 47.70                             101    0.1210 32.2 299 
 U11M     S    a  2148 51.40      1.1     0.2            101   -0.1010 32.2 299 
 SB4M     P    a  2148 47.50                             101   -0.0910 32.3  47 
 SB4M     S    a  2148 51.90                             101    0.3910 32.3  47 
 SA0M     P    a  2148 47.10                             100   -0.82 9 34.3  50 
 SA0M     S    a  2148 52.10                             100    0.0210 34.3  50 
 SB5M     P    a  2148 47.50                             100   -0.4210 34.3  45 
 SB5M     S    a  2148 52.00                             100   -0.0810 34.3  45 
 SA4M     P    a  2148 47.90                             100   -0.1710 35.2  50 
 SA4M     S    a  2148 52.60                             100    0.2710 35.2  50 
 SB3M     P    a  2148 48.00                             100   -0.1010 35.4  51 
 SB3M     S    a  2148 52.60                             100    0.2110 35.4  51 
 SA2M     P    a  2148 47.80                             100   -0.3410 35.6  48 
 SA2M     S    a  2148 52.70                             100    0.2410 35.6  48 
 SA1M     P    a  2148 47.70                             100   -0.4410 35.6  49 
 SA1M     S    a  2148 52.60                             100    0.1410 35.6  49 
 SA3M     P    a  2148 47.90                             100   -0.3210 36.1  49 
 SA3M     S    a  2148 52.60                             100    0.0110 36.1  49 
 SB1M     P    a  2148 47.70                             100   -0.64 9 36.8  47 
 SB1M     S    a  2148 52.80                             100   -0.0010 36.8  47 
 SB2M     P    a  2148 47.80                             100   -0.54 9 36.9  50 
 SB2M     S    a  2148 52.70                             100   -0.1110 36.9  50 
 UB0M     P    a  2148 48.50                              99    0.1710 36.9 347 
 UB0M     S    a  2148 53.00                              99    0.2010 36.9 347 
 U06M     P    a  2148 48.40                              99    0.0410 37.0  89 
 U06M     S    a  2148 53.00                              99    0.1610 37.0  89 
 U10M     P    a  2148 48.70                              99   -0.0310 39.3 235 
 U10M     S    a  2148 53.30                              99   -0.1810 39.3 235 
 U12M     P    a  2148 50.60                              97    0.1510 49.9 275 
 U12M     S    a  2148 56.40      1.2     0.3             97   -0.0510 49.9 275 
 U07M     P    a  2148 51.80                              96    0.1210 57.4 159 
 U07M     S    a  2148 58.90                              96    0.3210 57.4 159 
 U13M     P    a  2148 52.80                              95    0.2610 62.8 309 
 U13M     S    a  2149 00.20                              95    0.1210 62.8 309 
 U16M     P    a  2148 57.80                              94    0.57 9 91.5  38 
 U16M     S    a  2149 08.80     0.40     0.2             94    0.61 9 91.5  38 
                                                                                
 2017  2 3 0019 19.8 R  47.634 105.655  2.8  mon 30 0.2 0.6Lmon                1
 GAP= 95        0.58       0.8     1.0  7.4  0.3419E-01 -0.2828E+01 -0.1181E+00E
 ACTION:REG 18-10-16 09:43 OP:ngse STATUS:               ID:20170203001919     I
 IDC: ellipse    0.7    0.6   5 MB sd+-                  Event ID    68469     3
 * 23 km  W Khustai Park UB region                   ***                       3
 STAT SP IPHASW D HRMM SECON CODA AMPLIT PERI AZIMU VELO AIN AR TRES W  DIS CAZ7
 U11M     P    a  0019 22.50                             105   -0.0110 15.8   4 
 U11M     S    a  0019 24.70                             105    0.2310 15.8   4 
 U12M     P    a  0019 23.30                             101   -0.0210 20.9 283 
 U12M     S    a  0019 26.00                             101    0.1310 20.9 283 
 U10M     P    a  0019 23.50                             100   -0.0510 22.3 187 
 U10M     S    a  0019 26.30                             100    0.0410 22.3 187 
 U09M     P    a  0019 25.60                              97    0.0110 34.9  75 
 U09M     S    a  0019 29.80                              97    0.0110 34.9  75 
 U08M     P    a  0019 26.20                              96   -0.0510 39.0 120 
 U08M     S    a  0019 30.90                              96   -0.0410 39.0 120 
 UB0M     P    a  0019 26.60                              96   -0.1210 41.9  30 
 UB0M     S    a  0019 31.90                              96    0.1510 41.9  30 
 U13M     P    a  0019 27.00                              95   -0.0910 44.2 333 
 U13M     S    a  0019 32.20                              95   -0.1910 44.2 333 
 SB4M     P    a  0019 29.20                              94   -0.0510 57.4  67 
 SB4M     S    a  0019 36.00      4.3     0.2             94   -0.1210 57.4  67 
 SB5M     P    a  0019 29.50                              94    0.0110 58.9  65 
 SB5M     S    a  0019 36.50      2.3     0.2             94   -0.0410 58.9  65 
 SA0M     P    a  0019 29.70                              94    0.0610 59.8  68 
 SA0M     S    a  0019 36.60                              94   -0.2110 59.8  68 
 SA2M     P    a  0019 29.90                              94    0.1010 60.7  66 
 SA2M     S    a  0019 36.90      2.6     0.2             94   -0.1710 60.7  66 
 SA4M     P    a  0019 29.80                              94    0.0110 60.7  68 
 SA4M     S    a  0019 36.90      7.8     0.2             94   -0.1510 60.7  68 
 SA1M     P    a  0019 29.90                              94    0.0810 60.9  67 
 SA1M     S    a  0019 37.00      3.9     0.2             94   -0.1210 60.9  67 
 SB3M     P    a  0019 29.90                              94    0.0310 61.2  68 
 SB3M     S    a  0019 37.00      11.     0.2             94   -0.1910 61.2  68 
 SA3M     P    a  0019 30.00                              94    0.0910 61.4  67 
 SA3M     S    a  0019 37.00      2.4     0.3             94   -0.2610 61.4  67 
 SB1M     P    a  0019 30.10                              94    0.1510 61.6  65 
 SB1M     S    a  0019 37.20      2.5     0.2             94   -0.1310 61.6  65 
 SB2M     P    a  0019 30.10                              94    0.0410 62.3  67 
 SB2M     S    a  0019 37.40      6.9     0.2             94   -0.1310 62.3  67 
 U06M     P    a  0019 30.70                              94   -0.0110 66.3  89 
 U06M     S    a  0019 38.40                              94   -0.2510 66.3  89 
 UB2M     P    a  0019 31.90                              93    0.1310 72.8  54 
 UB2M     S    a  0019 40.40                              93   -0.0910 72.8  54 
 U07M     P    a  0019 31.80                              93    0.0110 72.9 137 
 U07M     S    a  0019 40.60                              93    0.0810 72.9 137 
 UB4M     S    a  0019 40.40                              93   -0.4910 74.2  74 
 UB1M     P    a  0019 32.70                              93    0.2710 76.9  65 
 UB1M     S    a  0019 41.60                              93   -0.0310 76.9  65 
 U05M     P    a  0019 34.60                              93   -0.0610 90.5 105 
 U05M     S    a  0019 45.60                              93    0.1210 90.5 105 
 ALFM     P    a  0019 35.00                              93   -0.1010 93.2  63 
 ALFM     S    a  0019 46.20     0.90     0.2             93   -0.0410 93.2  63 
 U16M     P    a  0019 38.40                              92    0.1910  112  50 
 U16M     S    a  0019 52.30                              92    0.68 9  112  50 
 U15M     P    a  0019 39.80                              92    0.1810  121  26 
 U15M     S    a  0019 55.70                              92    1.64 5  121  26 
 ARTM     S    a  0019 55.30                              92   -0.0510  125  74 
 UGDM     S    a  0019 57.30                              92    0.3110  131  89 
 BULM     S    a  0020 14.20                              91   -0.51 9  194 310 
 U04M     S    a  0020 24.90                              91    0.3410  229  82 
                                                                                
 2017  2 9 1238 58.4 R  47.874 105.574 23.5  mon 20 0.3 0.2Lmon                1
 GAP= 97        0.67       1.2     1.4  2.4  0.1402E+00 -0.1053E+01  0.8298E-02E
 ACTION:REG 18-10-16 09:43 OP:ngse STATUS:               ID:20170209123857     I
 IDC: ellipse    1.4    1.0   8 MB sd+-                  Event ID    68578     3
 * 9 km  S Bayanhkangai Tov                          ***                       3
 STAT SP IPHASW D HRMM SECON CODA AMPLIT PERI AZIMU VELO AIN AR TRES W  DIS CAZ7
 U11M     P    a  1239 03.20                             152    0.1810 13.0 147 
 U11M     S    a  1239 06.50                             152    0.1310 13.0 147 
 U13M     P    a  1239 03.60                             143    0.0910 18.7 313 
 U13M     S    a  1239 07.00                             143   -0.2210 18.7 313 
 U12M     P    a  1239 04.50                             133    0.1710 26.2 213 
 U12M     S    a  1239 08.50                             133   -0.1510 26.2 213 
 UB0M     P    a  1239 04.90                             131    0.2610 28.7  71 
 UB0M     S    a  1239 09.20                             131    0.0210 28.7  71 
 U09M     P    a  1239 06.90                             120    0.2610 43.5 114 
 U09M     S    a  1239 12.50                             120   -0.1310 43.5 114 
 U14M     P    a  1239 07.20                             118    0.1310 46.6 310 
 U14M     S    a  1239 13.30                             118   -0.0910 46.6 310 
 U10M     P    a  1239 07.60                             117    0.1910 48.9 176 
 U10M     S    a  1239 13.90                             117   -0.0710 48.9 176 
 SB4M     P    a  1239 09.00                             113    0.0910 59.0  94 
 SB4M     S    a  1239 16.80                             113    0.2310 59.0  94 
 SB5M     P    a  1239 08.70                             113   -0.2910 59.6  92 
 SB5M     S    a  1239 16.60                             113   -0.1110 59.6  92 
 U08M     P    a  1239 09.80                             112    0.57 9 61.1 139 
 U08M     S    a  1239 16.80                             112   -0.3110 61.1 139 
 SA0M     P    a  1239 09.40                             112    0.1010 61.6  94 
 SA0M     S    a  1239 17.40      1.2     0.5            112    0.1610 61.6  94 
 SA2M     P    a  1239 09.40                             112    0.0710 61.8  92 
 SA2M     S    a  1239 17.50                             112    0.2010 61.8  92 
 SB1M     P    a  1239 09.50                             112    0.1110 62.1  91 
 SB1M     S    a  1239 17.60      1.5     0.3            112    0.2010 62.1  91 
 SA1M     P    a  1239 09.40                             112    0.0110 62.2  92 
 SA1M     S    a  1239 17.40                             112    0.0110 62.2  92 
 SA4M     P    a  1239 09.50                             112    0.1010 62.3  93 
 SA4M     S    a  1239 17.40      1.1     0.3            112   -0.0210 62.3  93 
 SB3M     P    a  1239 09.40                             112   -0.1310 63.1  94 
 SB3M     S    a  1239 17.60                             112   -0.0410 63.1  94 
 SB2M     P    a  1239 09.50                             112   -0.1210 63.6  92 
 SB2M     S    a  1239 17.50      2.5     0.4            112   -0.2910 63.6  92 
 U06M     P    a  1239 11.70                             108    0.0710 76.7 109 
 U06M     S    a  1239 21.30                             108    0.0410 76.7 109 
 U07M     P    a  1239 14.40                             104   -0.52 9 97.6 145 
 U07M     S    a  1239 26.60                             104   -0.3610 97.6 145 
 U15M     S    a  1239 26.50                             104   -1.37 6  101  36 
                                                                                
 2017  2 9 1955 45.4 R  47.945 106.629  9.0  mon 17 0.2-0.8Lmon                1
 GAP=118        0.46       1.1     1.2  2.0 -0.3161E+00  0.1864E+00  0.3045E+00E
 ACTION:REG 18-10-16 09:43 OP:ngse STATUS:               ID:20170209195545     I
 IDC: ellipse    1.4    0.9 154 MB sd+-                  Event ID     6857     3
 * 7 km  N Emeelt Urtuu UB region                    ***                       3
 STAT SP IPHASW D HRMM SECON CODA AMPLIT PERI AZIMU VELO AIN AR TRES W  DIS CAZ7
 UB1M     S    a  1955 48.50                             159   -0.0310 3.99 232 
 ALFM     P    a  1955 48.00                             130   -0.0610 12.5  59 
 ALFM     S    a  1955 49.80                             130   -0.2210 12.5  59 
 UB4M     P    a  1955 48.20                             125   -0.0710 14.4 186 
 UB4M     S    a  1955 50.20                             125   -0.1810 14.4 186 
 UB2M     S    a  1955 51.00                             123    0.1710 16.1 301 
 UB5M     S    a  1955 51.70                             120    0.4310 18.0 141 
 SB2M     P    a  1955 49.10                             119    0.2010 18.7 235 
 SB2M     S    a  1955 51.60     0.50     0.1            119    0.1210 18.7 235 
 SB1M     P    a  1955 49.10                             119    0.1410 19.1 242 
 SB1M     S    a  1955 51.60                             119    0.0210 19.1 242 
 SA3M     S    a  1955 51.80     0.60     0.2            118    0.1210 19.6 237 
 SA1M     P    a  1955 49.20                             118    0.1110 20.1 237 
 SA1M     S    a  1955 51.80     0.60     0.2            118   -0.0010 20.1 237 
 SA2M     P    a  1955 49.00                             118   -0.1010 20.2 239 
 SA2M     S    a  1955 51.90                             118    0.0810 20.2 239 
 SB3M     P    a  1955 49.30                             118    0.1910 20.2 233 
 SB3M     S    a  1955 51.70     0.60     0.2            118   -0.1310 20.2 233 
 SA4M     P    a  1955 49.30                             117    0.1610 20.5 235 
 SA4M     S    a  1955 51.90                             117    0.0110 20.5 235 
 SA0M     P    a  1955 48.80                             116   -0.4710 21.4 235 
 SA0M     S    a  1955 52.00                             116   -0.1110 21.4 235 
 SB5M     P    a  1955 49.40                             115    0.0510 21.9 243 
 SB5M     S    a  1955 52.20                             115   -0.0510 21.9 243 
 SB4M     P    a  1955 49.60                             114    0.0010 23.6 239 
 SB4M     S    a  1955 52.50                             114   -0.1810 23.6 239 
 U06M     P    a  1955 51.10                             107   -0.1410 34.2 192 
 U06M     S    a  1955 55.50                             107   -0.0110 34.2 192 
 U09M     S    a  1955 58.90                             103   -0.0710 46.9 237 
                                                                                
