 2017  211 1818 52.5 R  47.914 106.530  7.5  mon 29 0.2-0.0Lmon                1
 GAP= 47        0.54       0.6     0.8  1.2 -0.8251E-01 -0.3116E-02 -0.1240E+00E
 ACTION:REG 18-10-16 09:43 OP:ngse STATUS:               ID:20170211181852     I
 IDC: ellipse    0.7    0.5 149 MB sd+-                  Event ID    68606     3
 * 6 km NW Emeelt Urtuu UB region                    ***                       3
 STAT SP IPHASW D HRMM SECON CODA AMPLIT PERI AZIMU VELO AIN AR TRES W  DIS CAZ7
 UB1M     P    a  1818 53.90                             154   -0.2010 4.42  77 
 UB1M     S    a  1818 55.20                             154   -0.0910 4.42  77 
 SB2M     P    a  1818 54.80                             130    0.0210 10.7 228 
 SB2M     S    a  1818 56.70      8.9     0.2            130    0.2410 10.7 228 
 SB1M     P    a  1818 54.70                             130   -0.1110 11.0 239 
 SB1M     S    a  1818 56.50      6.2     0.2            130   -0.0110 11.0 239 
 SA3M     P    a  1818 54.90                             128    0.0210 11.5 231 
 SA3M     S    a  1818 56.70      6.1     0.2            128    0.0710 11.5 231 
 SA2M     P    a  1818 55.00                             127    0.0610 12.0 234 
 SA2M     S    a  1818 56.80      8.4     0.2            127    0.0710 12.0 234 
 SA1M     P    a  1818 54.90                             127   -0.0310 12.0 232 
 SA1M     S    a  1818 56.70      4.9     0.2            127   -0.0310 12.0 232 
 UB4M     P    a  1818 54.80                             125   -0.1410 12.3 152 
 UB4M     S    a  1818 56.50                             125   -0.2510 12.3 152 
 SB3M     P    a  1818 55.00                             126    0.0210 12.3 224 
 SB3M     S    a  1818 56.80      7.2     0.2            126   -0.0110 12.3 224 
 SA4M     P    a  1818 55.00                             126    0.0210 12.4 229 
 SA4M     S    a  1818 56.90      3.4     0.2            126    0.0810 12.4 229 
 UB2M     P    a  1818 55.00                             124   -0.1110 13.3 331 
 UB2M     S    a  1818 57.10                             124    0.0710 13.3 331 
 SA0M     P    a  1818 55.10                             124   -0.0010 13.4 229 
 SA0M     S    a  1818 57.10                             124    0.0710 13.4 229 
 SB5M     P    a  1818 55.20                             123    0.0510 13.7 241 
 SB5M     S    a  1818 57.20      4.5     0.3            123    0.0910 13.7 241 
 SB4M     P    a  1818 55.40                             120    0.0110 15.5 235 
 SB4M     S    a  1818 57.60      4.5     0.3            120    0.0710 15.5 235 
 ALFM     P    a  1818 56.00                             114   -0.1710 20.7  61 
 ALFM     S    a  1818 58.60                             114   -0.2710 20.7  61 
 UB5M     P    a  1818 56.60                             112    0.3110 21.6 119 
 UB5M     S    a  1818 59.50                             112    0.4210 21.6 119 
 U06M     P    a  1818 57.60                             107   -0.0110 30.1 179 
 U06M     S    a  1819 01.40                             107    0.0410 30.1 179 
 U09M     P    a  1818 59.00                             103    0.0210 38.7 235 
 U09M     S    a  1819 03.80                             103    0.0710 38.7 235 
 UB0M     P    a  1819 00.00                             101    0.0810 44.6 277 
 UB0M     S    a  1819 05.40                             101    0.0510 44.6 277 
 U16M     P    a  1819 00.20                             101    0.1110 45.7  27 
 U16M     S    a  1819 05.60                             101   -0.0510 45.7  27 
 U05M     P    a  1819 02.10                              99   -0.0710 58.5 158 
 U05M     S    a  1819 09.00                              99   -0.2510 58.5 158 
 U08M     P    a  1819 02.40                              98   -0.0410 60.3 212 
 U08M     S    a  1819 09.30                              98   -0.4210 60.3 212 
 U11M     P    a  1819 03.50                              98    0.1010 66.2 257 
 U11M     S    a  1819 11.20                              98   -0.1810 66.2 257 
 U15M     P    a  1819 05.20                              96   -0.1110 77.9 352 
 U15M     S    a  1819 14.60                              96   -0.0810 77.9 352 
 U13M     P    a  1819 06.60                              96    0.0610 85.5 276 
 U13M     S    a  1819 16.70                              96   -0.1210 85.5 276 
 U07M     P    a  1819 06.80                              96    0.1310 86.3 191 
 U07M     S    a  1819 17.20                              96    0.1710 86.3 191 
 U10M     P    a  1819 06.90                              96    0.1510 86.8 232 
 U10M     S    a  1819 16.80                              96   -0.3810 86.8 232 
 U12M     P    a  1819 07.50                              96    0.2510 89.8 253 
 U12M     S    a  1819 17.50                              96   -0.53 9 89.8 253 
 U14M     P    a  1819 11.50                              95    0.97 8  110 284 
 U14M     S    a  1819 23.60                              95   -0.1110  110 284 
 U04M     P    a  1819 19.10                              93    0.2110  161  91 
 U04M     S    a  1819 38.10                              93   -0.0810  161  91 
                                                                                
 2017  211 1832 18.6 R  47.967 106.528 10.1  mon 12 0.1                        1
 GAP=132        0.26       0.9     1.3  1.4 -0.7807E+00 -0.6381E+00  0.2321E+00E
 ACTION:REG 18-10-16 09:43 OP:ngse STATUS:               ID:20170211183219     I
 IDC: ellipse    2.3    0.9 141 MB sd+-                  Event ID    68608     3
 * 9 km NW Emeelt Urtuu UB region                    ***                       3
 STAT SP IPHASW D HRMM SECON CODA AMPLIT PERI AZIMU VELO AIN AR TRES W  DIS CAZ7
 UB2M     S    a  1832 22.70                             143    0.0110 8.55 312 
 SB1M     P    a  1832 21.70                             128   -0.0210 14.8 219 
 SB1M     S    a  1832 24.00                             128    0.0210 14.8 219 
 SB2M     P    a  1832 21.90                             127    0.1110 15.3 211 
 SB2M     S    a  1832 24.20                             127    0.1110 15.3 211 
 SA3M     P    a  1832 21.90                             126    0.0410 15.9 214 
 SA3M     S    a  1832 24.20                             126   -0.0110 15.9 214 
 SA2M     P    a  1832 21.80                             126   -0.0910 16.2 217 
 SA2M     S    a  1832 24.30                             126    0.0410 16.2 217 
 SA1M     P    a  1832 21.80                             125   -0.1110 16.3 215 
 SA1M     S    a  1832 24.30                             125    0.0010 16.3 215 
 SA4M     P    a  1832 21.80                             124   -0.1810 16.9 213 
 SA4M     S    a  1832 24.40                             124   -0.0310 16.9 213 
 SB3M     P    a  1832 22.10                             124    0.0910 17.0 210 
 SB3M     S    a  1832 24.50                             124    0.0310 17.0 210 
 SB5M     P    a  1832 22.10                             124    0.0710 17.3 223 
 SB5M     S    a  1832 24.50                             124   -0.0210 17.3 223 
 SA0M     P    a  1832 22.10                             123    0.0010 17.8 214 
 SA0M     S    a  1832 24.60                             123   -0.0310 17.8 214 
 ALFM     P    a  1832 22.30                             122    0.0710 18.6  77 
 ALFM     S    a  1832 24.80                             122   -0.0610 18.6  77 
 SB4M     P    a  1832 22.40                             121    0.0710 19.4 220 
 SB4M     S    a  1832 24.90                             121   -0.1210 19.4 220 
                                                                                
 2017  211 1833 43.0 R  47.965 106.528  8.3  mon 12 0.1-1.1Lmon                1
 GAP=134        0.28       0.9     1.4  1.8 -0.8521E+00 -0.9421E+00  0.3799E+00E
 ACTION:REG 18-10-16 09:43 OP:ngse STATUS:               ID:20170211183343     I
 IDC: ellipse    1.7    0.7 140 MB sd+-                  Event ID     6860     3
 * 9 km NW Emeelt Urtuu UB region                    ***                       3
 STAT SP IPHASW D HRMM SECON CODA AMPLIT PERI AZIMU VELO AIN AR TRES W  DIS CAZ7
 UB2M     S    a  1833 46.70                             138    0.0410 8.73 313 
 SB1M     P    a  1833 45.80                             124   -0.0510 14.6 219 
 SB1M     S    a  1833 47.80                             124   -0.1610 14.6 219 
 SB2M     P    a  1833 46.00                             123    0.0910 15.1 211 
 SB2M     S    a  1833 48.20     0.30     0.2            123    0.1310 15.1 211 
 SA3M     P    a  1833 46.00                             122    0.0110 15.7 214 
 SA3M     S    a  1833 48.30                             122    0.1010 15.7 214 
 SA2M     P    a  1833 46.00                             122   -0.0210 16.0 217 
 SA2M     S    a  1833 48.20     0.40     0.2            122   -0.0610 16.0 217 
 SA1M     P    a  1833 46.00                             121   -0.0410 16.1 215 
 SA1M     S    a  1833 48.40                             121    0.1110 16.1 215 
 SA4M     P    a  1833 46.10                             120   -0.0210 16.7 214 
 SA4M     S    a  1833 48.40                             120   -0.0310 16.7 214 
 SB3M     P    a  1833 46.20                             120    0.0610 16.8 210 
 SB3M     S    a  1833 48.60     0.40     0.3            120    0.1310 16.8 210 
 SB5M     P    a  1833 46.20                             120    0.0210 17.1 224 
 SB5M     S    a  1833 48.50                             120   -0.0310 17.1 224 
 SA0M     P    a  1833 46.30                             119    0.0610 17.6 215 
 SA0M     S    a  1833 48.60                             119   -0.0410 17.6 215 
 ALFM     P    a  1833 46.40                             118   -0.0210 18.7  77 
 ALFM     S    a  1833 48.90                             118   -0.0510 18.7  77 
 SB4M     P    a  1833 46.50                             117    0.0210 19.2 221 
 SB4M     S    a  1833 48.80                             117   -0.2510 19.2 221 
                                                                                
 2017  213 2140 43.7 R  47.577 106.758 30.0  mon 31 0.3 0.3Lmon                1
 GAP= 84        0.73       1.0     1.3  2.0 -0.7924E-01 -0.1428E+00  0.4004E+00E
 ACTION:REG 18-10-16 09:43 OP:ngse STATUS:               ID:20170213214043     I
 IDC: ellipse    0.7    0.6 163 MB sd+-                  Event ID    68640     3
 * 12 km  S Undur Dov UB region                      ***                       3
 STAT SP IPHASW D HRMM SECON CODA AMPLIT PERI AZIMU VELO AIN AR TRES W  DIS CAZ7
 U05M     P    a  2140 49.90                             151    0.2310 17.5 166 
 U05M     S    a  2140 54.10                             151    0.1010 17.5 166 
 U06M     P    a  2140 49.90                             150    0.2210 18.1 294 
 U06M     S    a  2140 54.40      6.8     0.3            150    0.3910 18.1 294 
 UB5M     S    a  2140 55.30                             139   -0.1510 27.0   4 
 UB4M     P    a  2140 51.00                             137    0.3110 28.9 337 
 UB4M     S    a  2140 55.90                             137    0.1310 28.9 337 
 SB3M     P    a  2140 52.00                             129    0.1210 38.5 318 
 SB3M     S    a  2140 57.90      2.1     0.2            129    0.0810 38.5 318 
 SB2M     P    a  2140 52.20                             129    0.2210 39.3 320 
 SB2M     S    a  2140 58.00      1.0     0.2            129   -0.0110 39.3 320 
 SA4M     P    a  2140 52.20                             128    0.2010 39.5 318 
 SA4M     S    a  2140 57.90      4.5     0.5            128   -0.1310 39.5 318 
 SA0M     P    a  2140 52.10                             128    0.1010 39.6 317 
 SA0M     S    a  2140 57.80                             128   -0.2310 39.6 317 
 SA3M     P    a  2140 52.20                             128    0.1410 39.9 319 
 SA3M     S    a  2140 57.90      3.3     0.6            128   -0.2410 39.9 319 
 SA1M     P    a  2140 52.30                             128    0.2210 40.1 319 
 SA1M     S    a  2140 57.90      5.0     0.5            128   -0.2810 40.1 319 
 UB1M     P    a  2140 52.40                             128    0.2810 40.5 342 
 UB1M     S    a  2140 58.50                             128    0.2610 40.5 342 
 SA2M     P    a  2140 52.30                             128    0.1510 40.7 319 
 SA2M     S    a  2140 57.90      6.5     0.6            128   -0.4010 40.7 319 
 SB4M     P    a  2140 52.40                             127    0.1710 41.3 314 
 SB4M     S    a  2140 57.90      1.6     0.3            127   -0.53 9 41.3 314 
 SB1M     P    a  2140 52.40                             127    0.1410 41.5 320 
 SB1M     S    a  2140 58.30      2.1     0.3            127   -0.1910 41.5 320 
 SB5M     P    a  2140 52.50                             126    0.1310 42.4 317 
 SB5M     S    a  2140 58.40      1.5     0.3            126   -0.2810 42.4 317 
 ALFM     P    a  2140 53.20                             124    0.1410 47.4   1 
 ALFM     S    a  2141 00.00                             124    0.1310 47.4   1 
 UGDM     P    a  2140 53.30                             123    0.0410 48.8  82 
 UGDM     S    a  2140 59.80                             123   -0.4210 48.8  82 
 U08M     P    a  2140 53.80                             121    0.2210 51.3 255 
 U08M     S    a  2141 00.80      1.8     0.2            121    0.0310 51.3 255 
 U09M     P    a  2140 53.70                             121    0.1010 51.5 288 
 U09M     S    a  2141 00.70      3.2     0.2            121   -0.1010 51.5 288 
 UB2M     P    a  2140 54.40                             120    0.3710 54.5 334 
 UB2M     S    a  2141 01.90                             120    0.3510 54.5 334 
 ARTM     P    a  2140 54.20                             120    0.1110 54.7  44 
 ARTM     S    a  2141 01.80                             120    0.1510 54.7  44 
 U07M     P    a  2140 54.60                             118    0.0510 58.1 216 
 U07M     S    a  2141 02.20     0.80     0.2            118   -0.2510 58.1 216 
 UB0M     P    a  2140 57.00                             113   -0.0210 74.9 305 
 UB0M     S    a  2141 06.80                             113    0.0810 74.9 305 
 U16M     P    a  2140 57.70                             112    0.1810 78.2   3 
 U16M     S    a  2141 07.70      5.4     0.3            112    0.1210 78.2   3 
 U11M     P    a  2140 58.70                             110    0.1810 84.7 286 
 U11M     S    a  2141 09.20      1.7     0.2            110   -0.1110 84.7 286 
 U10M     P    a  2140 59.00                             110    0.0610 87.5 260 
 U10M     S    a  2141 09.50     0.70     0.2            110   -0.54 9 87.5 260 
 U12M     P    a  2141 01.40                             107   -0.1010  104 277 
 U12M     S    a  2141 14.10      1.1     0.2            107   -0.3610  104 277 
 U13M     P    a  2141 03.10                             106    0.2910  112 295 
 U13M     S    a  2141 16.50      1.1     0.2            106   -0.2410  112 295 
 U15M     S    a  2141 17.60     0.30     0.2            105   -0.69 9  118 346 
 U04M     P    a  2141 07.90                             102   -0.61 9  148  77 
 U04M     S    a  2141 25.80                             102   -0.79 9  148  77 
 MDGM     S    a  2141 41.20                              49   -2.25 0  209 189 
                                                                                
 2017  217 2227 52.3 R  47.785 105.762 21.7  mon 22 0.2-0.2Lmon                1
 GAP= 77        0.54       0.9     1.1  2.8 -0.1840E+00 -0.2817E+00 -0.2152E+00E
 ACTION:REG 18-10-16 09:43 OP:ngse STATUS:               ID:20170217222753     I
 IDC: ellipse    1.5    1.1 164 MB sd+-                  Event ID    68709     3
 * 18 km NW Khustai Park UB region                   ***                       3
 STAT SP IPHASW D HRMM SECON CODA AMPLIT PERI AZIMU VELO AIN AR TRES W  DIS CAZ7
 U09M     P    a  2227 58.50                             131    0.3610 26.8 107 
 U09M     S    a  2228 02.50      3.8     0.2            131    0.1310 26.8 107 
 U12M     S    a  2228 03.00      1.6     0.2            127   -0.2510 30.9 247 
 U13M     P    a  2227 59.40                             123    0.0910 35.9 309 
 U13M     S    a  2228 04.50      1.6     0.3            123    0.0910 35.9 309 
 U10M     P    a  2228 00.10                             120    0.1410 40.5 196 
 U10M     S    a  2228 05.40      1.5     0.2            120   -0.1310 40.5 196 
 U08M     P    a  2228 00.70                             117    0.1310 44.6 145 
 U08M     S    a  2228 06.40     0.60     0.2            117   -0.1710 44.6 145 
 SB4M     P    a  2228 00.80                             117    0.1710 45.1  83 
 SB4M     S    a  2228 06.80     0.40     0.2            117    0.1110 45.1  83 
 SB5M     P    a  2228 00.90                             117    0.1210 46.1  80 
 SB5M     S    a  2228 06.80     0.60     0.3            117   -0.1410 46.1  80 
 SA0M     P    a  2228 01.00                             116   -0.0110 47.7  83 
 SA0M     S    a  2228 07.20                             116   -0.1410 47.7  83 
 SA2M     P    a  2228 01.30                             116    0.2110 48.2  81 
 SA2M     S    a  2228 07.40     0.40     0.2            116   -0.0810 48.2  81 
 SA1M     P    a  2228 01.20                             116    0.0710 48.5  82 
 SA1M     S    a  2228 07.80     0.70     0.2            116    0.2410 48.5  82 
 SA4M     P    a  2228 01.60                             116    0.4710 48.5  83 
 SA4M     S    a  2228 07.50     0.70     0.2            116   -0.0410 48.5  83 
 SB1M     P    a  2228 01.30                             116    0.1110 48.8  80 
 SB1M     S    a  2228 07.70     0.70     0.2            116    0.0510 48.8  80 
 SA3M     P    a  2228 01.40                             115    0.1910 49.0  82 
 SA3M     S    a  2228 07.80     0.50     0.2            115    0.1110 49.0  82 
 SB3M     P    a  2228 01.30                             115    0.0610 49.1  83 
 SB3M     S    a  2228 07.60     0.80     0.3            115   -0.1310 49.1  83 
 SB2M     P    a  2228 01.10                             115   -0.2610 50.0  82 
 SB2M     S    a  2228 07.80      1.1     0.2            115   -0.1510 50.0  82 
 U06M     S    a  2228 10.70     0.60     0.2            111    0.0810 60.3 105 
 UB4M     S    a  2228 11.30     0.20     0.2            110   -0.1210 63.4  87 
 ALFM     S    a  2228 15.80                             106    0.0610 79.3  72 
 U07M     P    a  2228 05.90                             106   -0.3310 81.6 149 
 U07M     S    a  2228 16.20     0.20     0.2            106   -0.1710 81.6 149 
 U05M     S    a  2228 18.30                             105   -0.0510 88.8 116 
 U16M     S    a  2228 19.70     0.90     0.3            104   -0.4510 95.5  54 
 U15M     S    a  2228 21.60                             103   -0.3810  102  26 
                                                                                
