 2012  812 0345 43.5 R  46.602  98.708  0.1  mon 60 0.5 0.6Lmon                1
 GAP= 65        1.15       1.0     1.1  5.8  0.2652E+00 -0.6036E+00  0.3153E+00E
 ACTION:REG 18-10-16 09:44 OP:ngse STATUS:               ID:20120812034543     I
 IDC: ellipse    0.7    0.5  24 MB sd+-                  Event ID   448554     3
 * 37 km NE Hureemaral Baynhongor                    ***                       3
 STAT SP IPHASW D HRMM SECON CODA AMPLIT PERI AZIMU VELO AIN AR TRES W  DIS CAZ7
 HD67     P    a  0345 50.00                              93    0.2410 38.4 137 
 HD67     S    a  0345 54.00      3.9     0.2             93   -0.3610 38.4 137 
 HD66     P    a  0345 52.00                              93   -0.1410 53.0 297 
 HD66     S    a  0345 59.00      13.     0.6             93    0.52 9 53.0 297 
 HD26     P    a  0345 54.00                              92    0.0110 64.3   2 
 HD26     S    a  0346 02.00      2.2     0.2             92    0.3210 64.3   2 
 HD25     P    a  0345 55.00                              92    0.1610 69.5  50 
 HD25     S    a  0346 03.00      1.9     0.2             92   -0.1510 69.5  50 
 HD27     P    a  0345 57.00                              92   -0.0710 83.1 344 
 HD27     S    a  0346 07.00      1.3     0.2             92   -0.0110 83.1 344 
 HD56     P    a  0345 58.00                              92   -0.0510 89.1 357 
 HD56     S    a  0346 08.00      1.3     0.2             92   -0.71 9 89.1 357 
 HD48     P    a  0345 59.00                              91   -0.0310 95.1 243 
 HD48     S    a  0346 10.00     0.50     0.2             91   -0.4010 95.1 243 
 HD28     P    a  0345 59.00                              92   -0.3110 96.8 325 
 HD28     S    a  0346 10.00      1.1     0.2             92   -0.88 8 96.8 325 
 HD46     P    a  0346 01.00                              91    0.1410  106  76 
 HD46     S    a  0346 13.00      1.4     0.2             91   -0.57 9  106  76 
 HD29     P    a  0346 01.00                              91   -0.0910  108 309 
 HD29     S    a  0346 14.00      3.2     0.2             91    0.0410  108 309 
 HD50     P    a  0346 00.00                              91   -1.19 7  108 269 
 HD50     S    a  0346 14.00      7.0     0.3             91   -0.1410  108 269 
 HD30     P    a  0346 01.00                              91   -0.3210  109 316 
 HD30     S    a  0346 14.00     0.80     0.2             91   -0.3510  109 316 
 HD52     P    a  0346 03.00                              91    0.2410  118 294 
 HD52     S    a  0346 17.00      1.1     0.2             91    0.1410  118 294 
 HD51     P    a  0346 03.00                              91    0.1810  118 281 
 HD51     S    a  0346 17.00      4.7     0.2             91    0.0510  118 281 
 HD31     P    a  0346 03.00                              91   -0.1110  120 322 
 HD31     S    a  0346 17.00     0.50     0.2             91   -0.4510  120 322 
 HD33     P    a  0346 03.00                              91   -0.4310  122 335 
 HD33     S    a  0346 18.00      1.0     0.2             91   -0.0110  122 335 
 HD32     P    a  0346 03.00                              91   -0.3710  122 330 
 HD32     S    a  0346 18.00     0.70     0.2             91    0.0910  122 330 
 HD47     P    a  0346 04.00                              91    0.65 9  122 114 
 HD47     S    a  0346 17.00     0.80     0.2             91   -0.88 8  122 114 
 HD45     P    a  0346 04.00                              91    0.2810  124  15 
 HD45     S    a  0346 18.00      3.9     0.3             91   -0.51 9  124  15 
 HD34     P    a  0346 05.00                              91    0.53 9  128 347 
 HD34     S    a  0346 19.00      1.7     0.3             91   -0.81 9  128 347 
 HD24     P    a  0346 05.00                              91    0.2910  130  52 
 HD24     S    a  0346 20.00      1.2     0.2             91   -0.2310  130  52 
 HD35     P    a  0346 06.00                              91   -0.53 9  141 349 
 HD35     S    a  0346 23.00      1.3     0.2             91   -0.3810  141 349 
 HD70     P    a  0346 07.00                              91   -0.1210  145 202 
 HD70     S    a  0346 25.00      1.5     0.3             91    0.60 9  145 202 
 HD36     P    a  0346 07.00                              91   -0.1410  145 352 
 HD36     S    a  0346 24.00     0.60     0.3             91   -0.4310  145 352 
 HD44     P    a  0346 08.00                              91    0.1510  149  21 
 HD44     S    a  0346 26.00      1.2     0.3             91    0.3410  149  21 
 HD37     P    a  0346 09.00                              91   -0.2110  157 358 
 HD37     S    a  0346 28.00      1.1     0.2             91   -0.0210  157 358 
 HD06     P    a  0346 10.00                              91    0.0210  162 104 
 HD06     S    a  0346 29.00      1.5     0.2             91   -0.3310  162 104 
 HD14     P    a  0346 10.00                              91   -0.1910  163  78 
 HD14     S    a  0346 30.00     0.90     0.3             91    0.2910  163  78 
 HD39     P    a  0346 10.00                              91   -0.1510  163   9 
 HD39     S    a  0346 29.00     0.10     0.1             91   -0.64 9  163   9 
 HD10     P    a  0346 11.00                              91    0.73 9  164  96 
 HD10     S    a  0346 29.00      5.1     0.3             91   -0.85 9  164  96 
 HD38     P    a  0346 11.00                              91    0.3810  166   4 
 HD38     S    a  0346 30.00     0.50     0.2             91   -0.4610  166   4 
 HD13     P    a  0346 12.00                              91    0.82 9  169  82 
 HD13     S    a  0346 32.00      2.3     0.2             91    0.58 9  169  82 
 HD11     P    a  0346 11.00                              91   -0.0410  169  90 
 HD11     S    a  0346 31.00     0.40     0.2             91   -0.1810  169  90 
 HD63     P    a  0346 11.00                              91   -0.2810  170  27 
 HD63     S    a  0346 31.00     0.70     0.2             91   -0.59 9  170  27 
 HD12     P    a  0346 11.00                              91   -0.4910  171  86 
 HD12     S    a  0346 32.00     0.90     0.2             91    0.0510  171  86 
 HD23     P    a  0346 12.00                              91    0.4810  171  53 
 HD23     S    a  0346 32.00      1.2     0.2             91   -0.0110  171  53 
 HD65     P    a  0346 12.00                              91    0.2010  173  42 
 HD65     S    a  0346 32.00      2.0     0.2             91   -0.4810  173  42 
 HD15     P    a  0346 13.00                              91    0.2810  179  72 
 HD15     S    a  0346 34.00      1.1     0.2             91   -0.0910  179  72 
 HD40     P    a  0346 14.00                              91    0.67 9  183  11 
 HD40     S    a  0346 36.00     0.90     0.2             91    0.86 9  183  11 
 HD07     P    a  0346 14.00                              91    0.57 9  183 113 
 HD07     S    a  0346 35.00     0.60     0.2             91   -0.3010  183 113 
 HD16     P    a  0346 14.00                              91   -0.1210  187  69 
 HD16     S    a  0346 36.00      1.1     0.2             91   -0.51 9  187  69 
 HD41     P    a  0346 15.00                              91    0.4910  190  16 
 HD41     S    a  0346 38.00      1.1     0.2             91    0.82 9  190  16 
 HD62     P    a  0346 16.00                              91    0.60 9  195  25 
 HD62     S    a  0346 39.00      1.3     0.3             91    0.2910  195  25 
 HD64     P    a  0346 17.00                              91    0.85 9  200  37 
 HD64     S    a  0346 40.00     0.70     0.3             91   -0.0110  200  37 
 HD17     P    a  0346 16.00                              91   -0.4210  201  67 
 HD17     S    a  0346 41.00     0.30     0.2             91    0.52 9  201  67 
 HD42     P    a  0346 18.00                              91    0.90 8  206  16 
 HD42     S    a  0346 42.00      2.9     0.2             91    0.3310  206  16 
 HD61     P    a  0346 18.00                              91    0.2010  210 352 
 HD61     S    a  0346 43.00     0.60     0.2             91    0.1310  210 352 
 HD18     P    a  0346 19.00                              91    0.3910  215  65 
 HD18     S    a  0346 44.00      1.1     0.2             91   -0.2710  215  65 
 HD60     P    a  0346 19.00                              91    0.2410  216 339 
 HD60     S    a  0346 44.00     0.20     0.2             91   -0.52 9  216 339 
 HD43     P    a  0346 20.00                              90    0.65 9  219  13 
 HD43     S    a  0346 46.00     0.50     0.2             90    0.4510  219  13 
 HD19     P    a  0346 20.00                              90    0.0410  223  62 
 HD19     S    a  0346 46.00     0.20     0.2             90   -0.62 9  223  62 
 HD59     P    a  0346 20.00                              91   -0.4110  226 325 
 HD59     S    a  0346 48.00     0.20     0.2             91    0.61 9  226 325 
 HD05     P    a  0346 21.00                              91    0.1810  228 102 
 HD05     S    a  0346 48.00      1.2     0.2             91   -0.1010  228 102 
 HD57     P    a  0346 23.00                              90    0.54 9  238  12 
 HD57     S    a  0346 51.00      3.9     0.3             90    0.0710  238  12 
 HD21     P    a  0346 25.00                              90   -0.3610  256  53 
 HD21     S    a  0346 56.00     0.60     0.3             90    0.0410  256  53 
 HD04     P    a  0346 26.00                              91   -0.2510  261  95 
 HD04     S    a  0346 57.00      2.1     0.2             91   -0.50 9  261  95 
 HD03     S    a  0347 06.00                              90   -0.85 9  295  90 
 HD01     P    a  0346 36.00                              49    1.19 7  319  83 
 HD01     S    a  0347 13.00     0.20     0.2             49    0.69 9  319  83 
 HD75     P    a  0346 40.00                              49    1.49 6  349 331 
 HD75     S    a  0347 21.00     0.10     0.2             49    2.30 0  349 331 
 HD73     P    a  0346 46.00                              49    4.00 0  378  31 
                                                                                
