 2017  211 1436 59.8 R  47.973 106.515  9.6  mon 17 0.2                        1
 GAP=127        0.46       0.9     1.1  1.8 -0.1671E+00 -0.2759E+00  0.3195E-01E
 ACTION:REG 18-10-16 09:43 OP:ngse STATUS:               ID:20170211143700     I
 IDC: ellipse    1.3    1.0 149 MB sd+-                  Event ID    68603     3
 * 11 km NW Emeelt Urtuu UB region                   ***                       3
 STAT SP IPHASW D HRMM SECON CODA AMPLIT PERI AZIMU VELO AIN AR TRES W  DIS CAZ7
 UB2M     P    a  1437 02.10                             146    0.0810 7.38 313 
 UB2M     S    a  1437 03.70                             146    0.1010 7.38 313 
 UB1M     P    a  1437 01.90                             145   -0.1510 7.79 136 
 UB1M     S    a  1437 03.70                             145    0.0510 7.79 136 
 SB1M     P    a  1437 02.80                             127   -0.0810 14.8 214 
 SB1M     S    a  1437 05.20                             127    0.1110 14.8 214 
 SB2M     P    a  1437 03.00                             126    0.0410 15.4 206 
 SB2M     S    a  1437 05.30                             126    0.0610 15.4 206 
 SA3M     P    a  1437 03.10                             125    0.0710 15.9 209 
 SA3M     S    a  1437 05.40                             125    0.0510 15.9 209 
 SA2M     P    a  1437 03.00                             125   -0.0510 16.1 213 
 SA2M     S    a  1437 05.40                             125    0.0110 16.1 213 
 SA1M     P    a  1437 02.90                             124   -0.1710 16.3 211 
 SA1M     S    a  1437 05.40                             124   -0.0310 16.3 211 
 SA4M     P    a  1437 03.00                             123   -0.1610 16.9 209 
 SA4M     S    a  1437 05.50                             123   -0.0710 16.9 209 
 SB5M     P    a  1437 03.20                             123    0.0210 17.1 219 
 SB5M     S    a  1437 05.50                             123   -0.1110 17.1 219 
 SB3M     P    a  1437 03.20                             123    0.0110 17.2 206 
 SB3M     S    a  1437 05.60                             123   -0.0410 17.2 206 
 SA0M     P    a  1437 03.30                             122    0.0310 17.8 210 
 SA0M     S    a  1437 05.70                             122   -0.0710 17.8 210 
 UB4M     P    a  1437 03.30                             120   -0.0910 18.8 158 
 UB4M     S    a  1437 05.90                             120   -0.0810 18.8 158 
 SB4M     P    a  1437 03.60                             120    0.1210 19.3 217 
 SB4M     S    a  1437 06.10                             120   -0.0410 19.3 217 
 ALFM     P    a  1437 03.40                             120   -0.1210 19.5  80 
 ALFM     S    a  1437 05.90                             120   -0.3110 19.5  80 
 UB5M     P    a  1437 04.80                             113    0.2910 26.3 130 
 UB5M     S    a  1437 08.60                             113    0.69 9 26.3 130 
 UB0M     S    a  1437 12.60                             104    0.1410 43.2 268 
 U05M     S    a  1437 18.40                             100   -0.1610 65.1 160 
                                                                                
 2017  211 1437 37.0 R  47.971 106.523 10.3  mon 14 0.1                        1
 GAP=128        0.25       0.7     0.9  1.1 -0.3154E+00 -0.3257E-02 -0.4246E-01E
 ACTION:REG 18-10-16 09:43 OP:ngse STATUS:               ID:20170211143737     I
 IDC: ellipse    2.3    1.1 142 MB sd+-                  Event ID    68603     3
 * 11 km NW Emeelt Urtuu UB region                   ***                       3
 STAT SP IPHASW D HRMM SECON CODA AMPLIT PERI AZIMU VELO AIN AR TRES W  DIS CAZ7
 UB1M     S    a  1437 41.00                             148    0.0610 7.20 138 
 UB2M     S    a  1437 41.10                             146    0.0210 8.00 311 
 SB1M     P    a  1437 40.30                             129    0.1210 15.0 217 
 SB1M     S    a  1437 42.50                             129    0.0310 15.0 217 
 SB2M     P    a  1437 40.30                             128    0.0510 15.5 209 
 SB2M     S    a  1437 42.70                             128    0.1110 15.5 209 
 SA3M     P    a  1437 40.40                             127    0.0810 16.1 212 
 SA3M     S    a  1437 42.70                             127   -0.0110 16.1 212 
 SA2M     P    a  1437 40.30                             126   -0.0510 16.3 215 
 SA2M     S    a  1437 42.80                             126    0.0410 16.3 215 
 SA1M     P    a  1437 40.30                             126   -0.0710 16.5 213 
 SA1M     S    a  1437 42.80                             126    0.0010 16.5 213 
 SA4M     P    a  1437 40.40                             125   -0.0510 17.1 211 
 SA4M     S    a  1437 42.90                             125   -0.0310 17.1 211 
 SB3M     P    a  1437 40.50                             125    0.0210 17.3 208 
 SB3M     S    a  1437 43.00                             125    0.0210 17.3 208 
 SB5M     P    a  1437 40.50                             124    0.0210 17.4 221 
 SB5M     S    a  1437 42.80                             124   -0.1910 17.4 221 
 SA0M     P    a  1437 40.50                             123   -0.0610 17.9 212 
 SA0M     S    a  1437 43.10                             123   -0.0210 17.9 212 
 UB4M     S    a  1437 43.20                             122    0.0110 18.4 160 
 ALFM     P    a  1437 40.70                             122   -0.0110 18.9  79 
 ALFM     S    a  1437 43.30                             122   -0.0810 18.9  79 
 SB4M     P    a  1437 40.90                             121    0.1210 19.5 219 
 SB4M     S    a  1437 43.40                             121   -0.1010 19.5 219 
                                                                                
 2017  211 1437 53.4 R  47.975 106.505 10.2  mon 15 0.1                        1
 GAP=124        0.37       1.0     1.3  1.7 -0.3090E+00 -0.2959E+00 -0.8300E-01E
 ACTION:REG 18-10-16 09:43 OP:ngse STATUS:               ID:20170211143753     I
 IDC: ellipse    2.2    2.0 138 MB sd+-                  Event ID    68604     3
 * 13 km NW Emeelt Urtuu UB region                   ***                       3
 STAT SP IPHASW D HRMM SECON CODA AMPLIT PERI AZIMU VELO AIN AR TRES W  DIS CAZ7
 UB2M     S    a  1437 57.30                             150    0.1010 6.73 317 
 UB1M     S    a  1437 57.30                             144   -0.1410 8.44 133 
 SB1M     P    a  1437 56.50                             129    0.0510 14.5 211 
 SB1M     S    a  1437 58.80                             129    0.1110 14.5 211 
 SB2M     P    a  1437 56.60                             128    0.0610 15.3 204 
 SB2M     S    a  1437 58.90                             128    0.0510 15.3 204 
 SA3M     P    a  1437 56.60                             127    0.0010 15.7 207 
 SA3M     S    a  1437 59.00                             127    0.0510 15.7 207 
 SA2M     P    a  1437 56.60                             126   -0.0110 15.9 210 
 SA2M     S    a  1437 59.00                             126    0.0210 15.9 210 
 SA1M     P    a  1437 56.50                             126   -0.1410 16.1 208 
 SA1M     S    a  1437 59.10                             126    0.0810 16.1 208 
 SA4M     P    a  1437 56.70                             125   -0.0210 16.7 207 
 SA4M     S    a  1437 59.10                             125   -0.0610 16.7 207 
 SB5M     P    a  1437 56.80                             125    0.0710 16.8 217 
 SB5M     S    a  1437 59.10                             125   -0.0710 16.8 217 
 SB3M     P    a  1437 56.80                             125    0.0410 17.0 203 
 SB3M     S    a  1437 59.30                             125    0.0610 17.0 203 
 SA0M     P    a  1437 56.80                             123   -0.0310 17.6 208 
 SA0M     S    a  1437 59.20                             123   -0.1610 17.6 208 
 SB4M     P    a  1437 57.10                             121    0.0710 19.0 215 
 SB4M     S    a  1437 59.60                             121   -0.0910 19.0 215 
 UB4M     S    a  1437 59.50                             121   -0.2210 19.2 156 
 ALFM     P    a  1437 57.00                             120   -0.2110 20.2  81 
 UB5M     S    a  1438 02.10                             113    0.4110 27.0 130 
                                                                                
 2017  211 1438 21.2 R  47.972 106.510  9.2  mon 27 0.2 0.1Lmon                1
 GAP= 77        0.48       0.6     0.9  1.3 -0.8790E-01  0.2440E+00 -0.1240E+00E
 ACTION:REG 18-10-16 09:43 OP:ngse STATUS:               ID:20170211143821     I
 IDC: ellipse    1.1    0.8 167 MB sd+-                  Event ID    68604     3
 * 12 km NW Emeelt Urtuu UB region                   ***                       3
 STAT SP IPHASW D HRMM SECON CODA AMPLIT PERI AZIMU VELO AIN AR TRES W  DIS CAZ7
 UB2M     P    a  1438 23.40                             146    0.0910 7.18 316 
 UB2M     S    a  1438 24.90                             146    0.0610 7.18 316 
 UB1M     P    a  1438 23.20                             143   -0.1810 7.98 134 
 UB1M     S    a  1438 24.90                             143   -0.0610 7.98 134 
 SB1M     P    a  1438 24.20                             127    0.0310 14.5 213 
 SB1M     S    a  1438 26.40      5.9     0.2            127    0.0710 14.5 213 
 SB2M     P    a  1438 24.30                             125    0.0410 15.2 205 
 SB2M     S    a  1438 26.60      7.0     0.2            125    0.1210 15.2 205 
 SA3M     P    a  1438 24.40                             124    0.0810 15.7 208 
 SA3M     S    a  1438 26.70      4.0     0.2            124    0.1110 15.7 208 
 SA2M     P    a  1438 24.40                             124    0.0610 15.9 212 
 SA2M     S    a  1438 26.60      4.6     0.2            124   -0.0310 15.9 212 
 SA1M     P    a  1438 24.30                             124   -0.0710 16.1 210 
 SA1M     S    a  1438 26.70      6.0     0.2            124    0.0210 16.1 210 
 SA4M     P    a  1438 24.50                             123    0.0510 16.7 208 
 SA4M     S    a  1438 26.70      4.1     0.2            123   -0.1210 16.7 208 
 SB5M     P    a  1438 24.40                             122   -0.0710 16.8 219 
 SB5M     S    a  1438 27.00      6.7     0.3            122    0.1510 16.8 219 
 SB3M     P    a  1438 24.40                             122   -0.0910 16.9 205 
 SB3M     S    a  1438 26.90      10.     0.4            122    0.0210 16.9 205 
 SA0M     P    a  1438 24.60                             121    0.0410 17.5 209 
 SA0M     S    a  1438 27.00                             121   -0.0210 17.5 209 
 UB4M     P    a  1438 24.70                             119   -0.0310 18.8 157 
 UB4M     S    a  1438 27.20                             119   -0.1110 18.8 157 
 SB4M     P    a  1438 24.70                             119   -0.0710 19.0 216 
 SB4M     S    a  1438 27.20      3.8     0.3            119   -0.1810 19.0 216 
 ALFM     P    a  1438 24.70                             118   -0.2110 19.9  80 
 ALFM     S    a  1438 27.30                             118   -0.3110 19.9  80 
 UB5M     P    a  1438 26.10                             112    0.2210 26.5 130 
 UB5M     S    a  1438 29.90                             112    0.61 9 26.5 130 
 U06M     P    a  1438 27.30                             106   -0.1510 36.6 177 
 U06M     S    a  1438 32.10                             106    0.0910 36.6 177 
 U16M     P    a  1438 28.20                             104    0.1010 40.8  33 
 U16M     S    a  1438 33.10                             104   -0.0310 40.8  33 
 U09M     P    a  1438 28.30                             104    0.0510 41.7 227 
 U09M     S    a  1438 33.40                             104    0.0010 41.7 227 
 UB0M     S    a  1438 33.90                             104    0.2010 42.8 268 
 U05M     S    a  1438 39.60                             100   -0.3110 65.1 159 
 U08M     P    a  1438 32.10                              99    0.0910 65.2 208 
 U08M     S    a  1438 39.80                              99   -0.1010 65.2 208 
 U11M     P    a  1438 32.50                              99    0.2610 66.5 251 
 U11M     S    a  1438 40.00                              99   -0.2910 66.5 251 
 U13M     S    a  1438 44.90                              97   -0.1710 83.6 272 
 U10M     P    a  1438 36.40                              97    0.3910 89.8 229 
 U10M     S    a  1438 46.90                              97    0.0910 89.8 229 
 U12M     P    a  1438 36.20                              97    0.0710 90.5 249 
 U12M     S    a  1438 46.60                              97   -0.4210 90.5 249 
 U07M     S    a  1438 47.50                              97   -0.0510 92.4 189 
 U14M     S    a  1438 51.70                              96    0.0210  107 281 
                                                                                
 2017  211 1441  5.5 R  47.975 106.510  9.1  mon 32 0.2 0.9Lmon                1
 GAP= 48        0.63       0.6     0.9  1.5 -0.5122E-01  0.1617E+00 -0.2700E+00E
 ACTION:REG 18-10-16 09:43 OP:ngse STATUS:               ID:20170211144105     I
 IDC: ellipse    0.7    0.6 134 MB sd+-                  Event ID    68604     3
 * 12 km NW Emeelt Urtuu UB region                   ***                       3
 STAT SP IPHASW D HRMM SECON CODA AMPLIT PERI AZIMU VELO AIN AR TRES W  DIS CAZ7
 UB2M     P    a  1441 07.70                             147    0.1710 6.95 314 
 UB2M     S    a  1441 09.30                             147    0.2610 6.95 314 
 UB1M     P    a  1441 07.50                             142   -0.1410 8.21 135 
 UB1M     S    a  1441 09.20                             142   -0.0310 8.21 135 
 SB1M     P    a  1441 08.50                             126    0.0510 14.8 212 
 SB1M     S    a  1441 10.60      40.     0.2            126   -0.0410 14.8 212 
 SB2M     P    a  1441 08.60                             125    0.0510 15.5 205 
 SB2M     S    a  1441 10.90      49.     0.2            125    0.1010 15.5 205 
 SA3M     P    a  1441 08.60                             124   -0.0110 16.0 208 
 SA3M     S    a  1441 10.90      25.     0.1            124   -0.0010 16.0 208 
 SA2M     P    a  1441 08.70                             123    0.0710 16.2 211 
 SA2M     S    a  1441 10.90      40.     0.2            123   -0.0410 16.2 211 
 SA1M     P    a  1441 08.60                             123   -0.0510 16.4 209 
 SA1M     S    a  1441 11.10      40.     0.2            123    0.1110 16.4 209 
 SA4M     P    a  1441 08.70                             122   -0.0410 17.0 208 
 SA4M     S    a  1441 11.00      28.     0.2            122   -0.1310 17.0 208 
 SB5M     P    a  1441 08.70                             122   -0.0510 17.1 218 
 SB5M     S    a  1441 11.00      34.     0.2            122   -0.1510 17.1 218 
 SB3M     P    a  1441 08.90                             122    0.1210 17.2 204 
 SB3M     S    a  1441 11.30      41.     0.2            122    0.1010 17.2 204 
 SA0M     P    a  1441 08.80                             120   -0.0510 17.9 209 
 SA0M     S    a  1441 11.30                             120   -0.0310 17.9 209 
 UB4M     P    a  1441 08.90                             118   -0.1210 19.2 158 
 UB4M     S    a  1441 11.50                             118   -0.1210 19.2 158 
 SB4M     P    a  1441 09.00                             119   -0.0610 19.3 215 
 SB4M     S    a  1441 11.50      16.     0.2            119   -0.1910 19.3 215 
 ALFM     P    a  1441 09.00                             118   -0.1410 19.8  81 
 ALFM     S    a  1441 11.60      41.     0.2            118   -0.2310 19.8  81 
 UB5M     P    a  1441 10.20                             111    0.0410 26.7 130 
 UB5M     S    a  1441 14.00                             111    0.4110 26.7 130 
 U06M     P    a  1441 11.80                             106    0.0410 37.0 177 
 U06M     S    a  1441 16.40                             106    0.0510 37.0 177 
 U16M     P    a  1441 12.20                             104   -0.1010 40.5  33 
 U16M     S    a  1441 17.40                             104    0.1010 40.5  33 
 U09M     P    a  1441 12.60                             104    0.0610 41.9 226 
 U09M     S    a  1441 17.60                             104   -0.1110 41.9 226 
 UB0M     P    a  1441 12.90                             104    0.2210 42.9 268 
 UB0M     S    a  1441 18.00                             104    0.0510 42.9 268 
 U08M     P    a  1441 16.30                              99   -0.0110 65.5 208 
 U08M     S    a  1441 24.10                              99   -0.1410 65.5 208 
 U05M     P    a  1441 16.30                              99   -0.0210 65.5 159 
 U05M     S    a  1441 23.90                              99   -0.3510 65.5 159 
 U11M     P    a  1441 16.70                              99    0.1910 66.7 251 
 U11M     S    a  1441 24.60                              99    0.0310 66.7 251 
 U15M     P    a  1441 17.60                              98    0.4110 70.9 352 
 U15M     S    a  1441 25.70                              98   -0.0610 70.9 352 
 U13M     P    a  1441 19.30                              97    0.0510 83.6 271 
 U13M     S    a  1441 29.00                              97   -0.3210 83.6 271 
 U10M     P    a  1441 20.60                              97    0.3010 90.0 228 
 U10M     S    a  1441 31.30                              97    0.1710 90.0 228 
 U12M     P    a  1441 20.80                              97    0.4010 90.7 249 
 U12M     S    a  1441 31.10                              97   -0.2110 90.7 249 
 U07M     P    a  1441 21.00                              97    0.2610 92.8 189 
 U07M     S    a  1441 31.70                              97   -0.2010 92.8 189 
 U14M     P    a  1441 23.70                              96    0.63 9  107 281 
 U14M     S    a  1441 35.90                              96   -0.0210  107 281 
 U04M     P    a  1441 32.40                              94    0.2210  163  93 
 U04M     S    a  1441 51.60                              94   -0.0810  163  93 
 BULM     P    a  1441 42.60                              93   -0.4110  229 293 
 BULM     S    a  1442 10.10                              93   -0.3210  229 293 
 MDGM     P    a  1441 47.20                              92    0.66 9  251 183 
 MDGM     S    a  1442 16.00                              92   -0.53 9  251 183 
 SHBM     S    a  1442 16.90                              92   -0.82 9  255 352 
                                                                                
