 2012  828 1810  4.0 R  46.368  99.943  6.8  mon 73 0.3 1.6Lmon                1
 GAP= 66        0.92       0.7     0.8  2.3  0.1222E+00  0.2344E+00  0.1034E+00E
 ACTION:REG 18-10-16 09:44 OP:ngse STATUS:               ID:20120828181004     I
 IDC: ellipse    0.5    0.4  15 MB sd+-                  Event ID   448895     3
 * 31 km NE Bumbugur Baynhongor                      ***                       3
 STAT SP IPHASW D HRMM SECON CODA AMPLIT PERI AZIMU VELO AIN AR TRES W  DIS CAZ7
 ALM3     P    a  1810 48.00                                                    
 CCGM     P    a  1810 32.00                                                    
 CCGM     S    a  1810 52.00      83.     0.3                                   
 TSCM     P    a  1810 52.00                                                    
 TSCM     S    a  1811 26.00      32.     0.2                                   
 ALM3     S    a  1811 21.00                                                    
 HD47     P    a  1810 09.00                             107    0.0410 29.2 148 
 HD47     S    a  1810 13.00      0.1E+03 0.2            107    0.4010 29.2 148 
 HD46     P    a  1810 13.00                             100    0.4010 51.9  10 
 HD46     S    a  1810 19.00      0.4E+03 0.3            100    0.1110 51.9  10 
 HD06     P    a  1810 15.00                              98    0.5010 63.7 103 
 HD06     S    a  1810 22.00      0.2E+03 0.2             98   -0.1910 63.7 103 
 HD10     P    a  1810 15.00                              97   -0.2210 68.1  85 
 HD10     S    a  1810 23.00      0.3E+03 0.2             97   -0.4310 68.1  85 
 HD67     P    a  1810 16.00                              97    0.69 9 68.7 269 
 HD67     S    a  1810 24.00      67.     0.2             97    0.4210 68.7 269 
 HD11     P    a  1810 17.00                              97    0.1510 78.2  71 
 HD11     S    a  1810 26.00      0.1E+03 0.2             97   -0.2610 78.2  71 
 HD25     P    a  1810 18.00                              96    0.58 9 81.7 330 
 HD25     S    a  1810 27.00      33.     0.2             96   -0.2410 81.7 330 
 HD12     P    a  1810 18.00                              96    0.0910 84.6  64 
 HD12     S    a  1810 28.00      0.3E+03 0.2             96   -0.0810 84.6  64 
 HD07     P    a  1810 18.00                              96   -0.2410 86.8 123 
 HD07     S    a  1810 28.00      32.     0.2             96   -0.66 9 86.8 123 
 HD14     P    a  1810 19.00                              96    0.71 9 87.0  49 
 HD14     S    a  1810 28.00      90.     0.2             96   -0.75 9 87.0  49 
 HD13     P    a  1810 19.00                              96    0.56 9 87.9  57 
 HD13     S    a  1810 29.00      0.2E+03 0.2             96   -0.0010 87.9  57 
 HD08     P    a  1810 19.00                              95   -0.52 9 94.6 140 
 HD08     S    a  1810 31.00      90.     0.2             95    0.1310 94.6 140 
 HD24     P    a  1810 21.00                              95   -0.1610  105   5 
 HD24     S    a  1810 34.00      0.1E+03 0.2             95    0.3010  105   5 
 HD15     P    a  1810 22.00                              95    0.0010  110  44 
 HD15     S    a  1810 35.00      0.1E+03 0.2             95   -0.1610  110  44 
 HD09     P    a  1810 23.00                              94   -0.1310  117 155 
 HD09     S    a  1810 37.00      27.     0.3             94   -0.1110  117 155 
 HD16     P    a  1810 24.00                              94   -0.0710  122  41 
 HD16     S    a  1810 39.00      0.2E+03 0.2             94    0.2610  122  41 
 HD26     P    a  1810 25.00                              94   -0.1410  129 315 
 HD26     S    a  1810 41.00      8.5     0.2             94    0.4210  129 315 
 HD05     P    a  1810 25.00                              94   -0.3210  130 101 
 HD05     S    a  1810 41.00      38.     0.2             94    0.0910  130 101 
 HD23     P    a  1810 26.00                              94   -0.0510  135  19 
 HD23     S    a  1810 43.00      0.2E+03 0.2             94    0.83 9  135  19 
 HD17     P    a  1810 27.00                              94    0.4410  138  42 
 HD17     S    a  1810 43.00      55.     0.2             94   -0.0610  138  42 
 HD56     P    a  1810 29.00                              94    0.2010  151 320 
 HD56     S    a  1810 47.00      14.     0.2             94    0.0710  151 320 
 HD66     P    a  1810 29.00                              93    0.3410  151 290 
 HD66     S    a  1810 47.00      51.     0.4             93    0.3110  151 290 
 HD18     P    a  1810 29.00                              93    0.0210  153  42 
 HD18     S    a  1810 47.00      0.2E+03 0.2             93   -0.2310  153  42 
 HD65     P    a  1810 30.00                              93    0.4810  156   8 
 HD65     S    a  1810 48.00      38.     0.2             93   -0.1710  156   8 
 HD27     P    a  1810 30.00                              93    0.1010  158 313 
 HD27     S    a  1810 48.00      12.     0.2             93   -0.84 9  158 313 
 HD45     P    a  1810 30.00                              93    0.1910  158 337 
 HD45     S    a  1810 48.00      0.1E+03 0.5             93   -0.67 9  158 337 
 HD19     P    a  1810 31.00                              93   -0.0410  165  39 
 HD19     S    a  1810 51.00      70.     0.2             93    0.2010  165  39 
 HD04     P    a  1810 31.00                              93   -0.1010  166  90 
 HD04     S    a  1810 51.00      0.1E+03 0.2             93    0.0910  166  90 
 HD44     P    a  1810 32.00                              93    0.2910  169 347 
 HD44     S    a  1810 51.00      30.     0.2             93   -0.96 8  169 347 
 HD63     P    a  1810 33.00                              93   -0.0510  177 355 
 HD63     S    a  1810 54.00      28.     0.2             93   -0.2810  177 355 
 HD48     P    a  1810 34.00                              93    0.4110  181 265 
 HD48     S    a  1810 55.00      49.     0.4             93   -0.2110  181 265 
 HD28     P    a  1810 34.00                              93    0.0110  183 306 
 HD28     S    a  1810 56.00      16.     0.3             93    0.0910  183 306 
 HD69     P    a  1810 34.00                              93   -0.0510  184 169 
 HD69     S    a  1810 56.00      0.1E+03 0.4             93   -0.0010  184 169 
 HD70     P    a  1810 34.00                              93   -0.1410  184 234 
 HD70     S    a  1810 56.00      0.2E+03 0.4             93   -0.1610  184 234 
 HD64     P    a  1810 35.00                              93    0.3710  187   8 
 HD64     S    a  1810 57.00      39.     0.2             93   -0.0210  187   8 
 HD34     P    a  1810 36.00                              93    0.1810  194 322 
 HD34     S    a  1810 59.00      20.     0.2             93   -0.0710  194 322 
 HD02     P    a  1810 36.00                              92   -0.2910  197  72 
 HD02     S    a  1811 00.00      0.2E+03 0.2             92    0.1210  197  72 
 HD49     P    a  1810 36.00                              92   -0.3710  198 270 
 HD49     S    a  1811 00.00      53.     0.2             92   -0.0210  198 270 
 HD39     P    a  1810 37.00                              93    0.4610  199 340 
 HD39     S    a  1811 00.00      15.     0.2             93   -0.3210  199 340 
 HD33     S    a  1811 00.00      13.     0.1             93   -0.61 9  200 314 
 HD30     P    a  1810 37.00                              93    0.3210  200 302 
 HD30     S    a  1811 01.00      25.     0.2             93    0.4410  200 302 
 HD33     P    a  1810 37.00                              93    0.2910  200 314 
 HD03     S    a  1811 01.00      41.     0.2             92    0.1210  201  84 
 HD29     P    a  1810 37.00                              93    0.0210  201 298 
 HD29     S    a  1811 01.00      37.     0.3             93   -0.0710  201 298 
 HD03     P    a  1810 37.00                              92    0.1410  201  84 
 HD62     P    a  1810 37.00                              93   -0.0810  202 358 
 HD62     S    a  1811 01.00      26.     0.2             93   -0.2510  202 358 
 HD32     P    a  1810 37.00                              93   -0.2710  203 311 
 HD32     S    a  1811 02.00      15.     0.2             93    0.4210  203 311 
 HD36     P    a  1810 37.00                              93   -0.3610  204 327 
 HD36     S    a  1811 01.00      10.     0.2             93   -0.73 9  204 327 
 HD35     P    a  1810 38.00                              93    0.55 9  204 324 
 HD35     S    a  1811 02.00      32.     0.3             93    0.1210  204 324 
 HD50     P    a  1810 38.00                              92    0.51 9  205 277 
 HD50     S    a  1811 01.00      82.     0.3             92   -0.96 8  205 277 
 HD31     P    a  1810 38.00                              93    0.1210  207 306 
 HD31     S    a  1811 03.00      18.     0.2             93    0.3610  207 306 
 HD38     P    a  1810 38.00                              92   -0.0610  208 337 
 HD38     S    a  1811 03.00      22.     0.3             92    0.0510  208 337 
 HD37     P    a  1810 38.00                              93   -0.1410  209 332 
 HD37     S    a  1811 03.00      20.     0.3             93   -0.0910  209 332 
 HD21     P    a  1810 39.00                              92    0.52 9  211  32 
 HD21     S    a  1811 04.00      86.     0.2             92    0.3210  211  32 
 HD41     P    a  1810 39.00                              92    0.2410  212 349 
 HD41     S    a  1811 04.00      27.     0.2             92   -0.1610  212 349 
 HD40     P    a  1810 39.00                              92    0.1210  213 344 
 HD40     S    a  1811 04.00      46.     0.3             92   -0.3710  213 344 
 HD52     P    a  1810 39.00                              93   -0.2810  216 291 
 HD52     S    a  1811 05.00      19.     0.2             93   -0.0610  216 291 
 HD51     P    a  1810 39.00                              92   -0.4310  216 284 
 HD51     S    a  1811 05.00      39.     0.2             92   -0.3210  216 284 
 HD42     P    a  1810 41.00                              92   -0.0710  226 351 
 HD42     S    a  1811 08.00      63.     0.2             92   -0.1510  226 351 
 HD01     P    a  1810 42.00                              92    0.2810  230  75 
 HD01     S    a  1811 09.00      33.     0.3             92   -0.2710  230  75 
 HD43     P    a  1810 44.00                              92    0.2310  243 350 
 HD43     S    a  1811 12.00      13.     0.2             92   -0.82 9  243 350 
 HD57     P    a  1810 47.00                              92    0.2110  261 351 
 HD57     S    a  1811 18.00      44.     0.2             92   -0.0510  261 351 
 HD61     P    a  1810 47.00                              92   -0.2910  265 333 
 HD61     S    a  1811 19.00      31.     0.3             92    0.0910  265 333 
 HD54     P    a  1810 48.00                              92   -0.2110  270 299 
 HD54     S    a  1811 20.00      9.5     0.2             92   -0.50 9  270 299 
 HD60     P    a  1810 50.00                              49   -0.3910  284 324 
 HD60     S    a  1811 24.00      7.6     0.2             49   -0.2710  284 324 
 HD68     P    a  1810 51.00                              49   -0.4610  293 137 
 HD68     S    a  1811 26.00      42.     0.5             49   -0.1310  293 137 
 HD59     P    a  1810 54.00                              49    0.73 9  308 314 
 HD59     S    a  1811 30.00      4.6     0.2             49    0.74 9  308 314 
 HD74     P    a  1811 02.00                              49    3.16 0  353 351 
 HD74     S    a  1811 43.00      18.     0.3             49    4.10 0  353 351 
 HD73     P    a  1811 03.00                              49    2.95 0  363  16 
 HD71     P    a  1811 04.00                              49    3.05 0  370 257 
 HD72     P    a  1811 06.00                              49    3.56 0  383  45 
 HD75     P    a  1811 13.00                              49    5.50 0  423 322 
                                                                                
