 2012  812 0349  3.8 R  46.595  98.705  0.9  mon 59 0.4 0.9Lmon                1
 GAP= 55        0.98       0.8     1.0  4.7  0.2381E+00 -0.5437E+00  0.1771E+00E
 ACTION:REG 18-10-16 09:44 OP:ngse STATUS:               ID:20120812034904     I
 IDC: ellipse    0.7    0.4  31 MB sd+-                  Event ID   448555     3
 * 37 km NE Hureemaral Baynhongor                    ***                       3
 STAT SP IPHASW D HRMM SECON CODA AMPLIT PERI AZIMU VELO AIN AR TRES W  DIS CAZ7
 HD67     P    a  0349 10.00                              95   -0.0910 38.0 136 
 HD67     S    a  0349 15.00      6.0     0.2             95    0.3410 38.0 136 
 HD66     P    a  0349 13.00                              93    0.4410 53.1 297 
 HD66     S    a  0349 19.00      3.6     0.3             93    0.0810 53.1 297 
 HD26     P    a  0349 15.00                              93    0.4910 65.1   2 
 HD26     S    a  0349 22.00      3.2     0.2             93   -0.3010 65.1   2 
 HD25     P    a  0349 15.00                              92   -0.3510 70.2  49 
 HD25     S    a  0349 24.00      7.3     0.2             92    0.2610 70.2  49 
 HD27     P    a  0349 18.00                              92    0.4310 83.8 344 
 HD27     S    a  0349 27.00      1.5     0.2             92   -0.60 9 83.8 344 
 HD56     P    a  0349 18.00                              92   -0.57 9 89.9 357 
 HD56     S    a  0349 29.00      1.5     0.2             92   -0.3210 89.9 357 
 HD48     P    a  0349 19.00                              92   -0.3410 94.6 243 
 HD48     S    a  0349 31.00      1.1     0.3             92    0.3610 94.6 243 
 HD28     P    a  0349 20.00                              92    0.2210 97.3 325 
 HD28     S    a  0349 31.00      1.6     0.2             92   -0.4210 97.3 325 
 HD46     P    a  0349 21.00                              92   -0.3210  107  75 
 HD46     S    a  0349 34.00      3.6     0.3             92   -0.0810  107  75 
 HD29     P    a  0349 22.00                              92    0.4710  108 309 
 HD29     S    a  0349 34.00      13.     0.2             92   -0.4410  108 309 
 HD30     P    a  0349 22.00                              92    0.2310  109 317 
 HD30     S    a  0349 35.00      2.2     0.3             92    0.1410  109 317 
 HD51     P    a  0349 23.00                              91   -0.2010  118 281 
 HD51     S    a  0349 37.00      6.3     0.2             91   -0.3210  118 281 
 HD52     P    a  0349 23.00                              92   -0.1810  118 295 
 HD52     S    a  0349 37.00      1.6     0.1             92   -0.2910  118 295 
 HD31     P    a  0349 24.00                              92    0.4210  121 322 
 HD31     S    a  0349 38.00      1.6     0.2             92    0.0210  121 322 
 HD47     P    a  0349 24.00                              91    0.2710  121 114 
 HD47     S    a  0349 38.00      1.9     0.2             91   -0.2410  121 114 
 HD32     P    a  0349 24.00                              92    0.1410  122 330 
 HD32     S    a  0349 39.00     0.80     0.2             92    0.53 9  122 330 
 HD33     P    a  0349 24.00                              92    0.0810  123 335 
 HD33     S    a  0349 39.00      1.1     0.2             92    0.4310  123 335 
 HD45     P    a  0349 25.00                              91    0.76 9  125  15 
 HD45     S    a  0349 39.00      3.1     0.2             91   -0.1310  125  15 
 HD34     P    a  0349 25.00                              92    0.0210  129 348 
 HD34     S    a  0349 40.00      2.0     0.3             92   -0.4110  129 348 
 HD24     P    a  0349 25.00                              91   -0.2110  131  52 
 HD24     S    a  0349 40.00      2.1     0.2             91   -0.81 9  131  52 
 HD35     P    a  0349 27.00                              91   -0.0410  142 349 
 HD35     S    a  0349 44.00      1.6     0.2             91    0.0310  142 349 
 HD70     P    a  0349 27.00                              91   -0.3910  144 202 
 HD70     S    a  0349 45.00      2.2     0.3             91    0.4310  144 202 
 HD36     P    a  0349 28.00                              91    0.3510  145 352 
 HD36     S    a  0349 45.00     0.80     0.3             91   -0.0310  145 352 
 HD44     P    a  0349 29.00                              91    0.63 9  150  21 
 HD44     S    a  0349 46.00      1.8     0.3             91   -0.2810  150  21 
 HD37     P    a  0349 30.00                              91    0.2710  158 358 
 HD37     S    a  0349 49.00      1.7     0.2             91    0.3810  158 358 
 HD06     P    a  0349 30.00                              91   -0.3710  162 104 
 HD06     S    a  0349 50.00      5.8     0.3             91    0.2610  162 104 
 HD10     P    a  0349 31.00                              91    0.3110  164  96 
 HD10     S    a  0349 50.00      4.6     0.3             91   -0.2910  164  96 
 HD14     P    a  0349 31.00                              91    0.3510  164  78 
 HD14     S    a  0349 51.00      1.2     0.3             91    0.79 9  164  78 
 HD39     P    a  0349 31.00                              91    0.3210  164   9 
 HD39     S    a  0349 50.00      2.3     0.3             91   -0.2610  164   9 
 HD38     P    a  0349 31.00                              91   -0.1410  167   4 
 HD38     S    a  0349 51.00      2.7     0.2             91   -0.0710  167   4 
 HD11     P    a  0349 31.00                              91   -0.4710  169  89 
 HD11     S    a  0349 51.00      2.9     0.4             91   -0.64 9  169  89 
 HD13     P    a  0349 32.00                              91    0.3710  170  81 
 HD13     S    a  0349 52.00      5.3     0.2             91    0.0910  170  81 
 HD63     P    a  0349 32.00                              91    0.2010  171  27 
 HD63     S    a  0349 52.00      2.1     0.2             91   -0.2110  171  27 
 HD23     P    a  0349 32.00                              91   -0.0210  172  53 
 HD23     S    a  0349 53.00      1.7     0.2             91    0.4110  172  53 
 HD65     P    a  0349 33.00                              91    0.69 9  174  42 
 HD65     S    a  0349 53.00      2.3     0.2             91   -0.0810  174  42 
 HD54     P    a  0349 33.00                              91    0.3310  176 306 
 HD54     S    a  0349 53.00      1.2     0.2             91   -0.71 9  176 306 
 HD15     P    a  0349 33.00                              91   -0.1910  179  72 
 HD15     S    a  0349 55.00     0.80     0.2             91    0.3910  179  72 
 HD07     P    a  0349 34.00                              91    0.1910  183 112 
 HD07     S    a  0349 55.00      1.3     0.2             91   -0.68 9  183 112 
 HD40     P    a  0349 34.00                              91    0.1510  183  11 
 HD40     S    a  0349 56.00      3.3     0.2             91    0.2410  183  11 
 HD08     P    a  0349 34.00                              91   -0.0210  184 121 
 HD08     S    a  0349 55.00      5.5     0.2             91   -1.05 8  184 121 
 HD16     P    a  0349 34.00                              91   -0.60 9  188  69 
 HD16     S    a  0349 57.00      1.4     0.2             91   -0.0410  188  69 
 HD41     P    a  0349 35.00                              91   -0.0410  191  16 
 HD41     S    a  0349 58.00      1.5     0.2             91    0.1910  191  16 
 HD64     P    a  0349 37.00                              91    0.3410  200  36 
 HD64     S    a  0350 01.00      1.6     0.3             91    0.3810  200  36 
 HD17     P    a  0349 37.00                              91    0.1110  202  67 
 HD17     S    a  0350 01.00      1.2     0.2             91   -0.0210  202  67 
 HD42     P    a  0349 38.00                              91    0.3710  206  16 
 HD42     S    a  0350 02.00      3.9     0.2             91   -0.2910  206  16 
 HD61     P    a  0349 38.00                              91   -0.3110  211 352 
 HD61     S    a  0350 03.00      2.1     0.5             91   -0.4710  211 352 
 HD18     P    a  0349 39.00                              91   -0.0910  215  65 
 HD18     S    a  0350 05.00      2.0     0.2             91    0.1910  215  65 
 HD60     P    a  0349 39.00                              91   -0.2510  216 339 
 HD60     S    a  0350 05.00     0.50     0.2             91   -0.1010  216 339 
 HD43     P    a  0349 40.00                              91    0.1310  220  13 
 HD43     S    a  0350 06.00      1.1     0.2             91   -0.1710  220  13 
 HD19     P    a  0349 40.00                              91   -0.4510  224  62 
 HD19     S    a  0350 08.00     0.60     0.3             91    0.83 9  224  62 
 HD59     P    a  0349 41.00                              91    0.1210  226 325 
 HD59     S    a  0350 08.00     0.60     0.3             91    0.0810  226 325 
 HD05     P    a  0349 41.00                              91   -0.2210  228 102 
 HD05     S    a  0350 08.00      1.6     0.2             91   -0.51 9  228 102 
 HD57     P    a  0349 43.00                              91    0.0210  239  13 
 HD57     S    a  0350 11.00      1.5     0.3             91   -0.54 9  239  13 
 HD69     P    a  0349 44.00                              91    0.2110  244 147 
 HD69     S    a  0350 12.00      1.7     0.2             91   -0.95 8  244 147 
 HD21     P    a  0349 46.00                              91    0.1410  257  53 
 HD21     S    a  0350 16.00     0.60     0.2             91   -0.53 9  257  53 
 HD04     P    a  0349 47.00                              91    0.3310  262  95 
 HD04     S    a  0350 18.00      3.5     0.2             91    0.0610  262  95 
 HD03     P    a  0349 52.00                              91   -0.0910  295  90 
 HD03     S    a  0350 27.00     0.60     0.4             91   -0.3010  295  90 
 HD01     P    a  0349 56.00                              49    0.84 9  319  83 
 HD01     S    a  0350 33.00     0.60     0.4             49    0.3910  319  83 
 HD75     P    a  0350 01.00                              49    2.12 1  349 331 
 HD75     S    a  0350 42.00     0.30     0.3             49    2.95 0  349 331 
                                                                                
