 2012  714 0156 50.4 R  46.094 100.237 11.0  mon 51 0.4 0.7Lmon                1
 GAP= 85        1.00       1.0     1.0  2.8  0.1520E+00  0.3494E+00 -0.3650E+00E
 ACTION:REG 18-10-16 09:44 OP:ngse STATUS:               ID:20120714015650     I
 IDC: ellipse    0.8    0.5  14 MB sd+-                  Event ID   448058     3
 * 27 km SW Bayan-Ovoo Baynhongor                    ***                       3
 STAT SP IPHASW D HRMM SECON CODA AMPLIT PERI AZIMU VELO AIN AR TRES W  DIS CAZ7
 HD47     P    a  0156 53.00                             145   -0.0510 9.18 309 
 HD47     S    a  0156 55.00      35.     0.2            145    0.0510 9.18 309 
 HD06     P    a  0156 58.00                             107    0.3010 42.4  68 
 HD06     S    a  0157 03.00      14.     0.2            107    0.0110 42.4  68 
 HD07     P    a  0156 59.00                             103   -0.3710 53.0 108 
 HD07     S    a  0157 06.00      8.0     0.2            103    0.1210 53.0 108 
 HD08     P    a  0157 00.00                             103    0.0410 56.8 137 
 HD08     S    a  0157 07.00      5.6     0.2            103    0.0910 56.8 137 
 HD10     P    a  0157 00.00                             103   -0.1710 57.9  52 
 HD10     S    a  0157 07.00      5.7     0.2            103   -0.2610 57.9  52 
 HD11     P    a  0157 03.00                             100   -0.0510 75.9  43 
 HD11     S    a  0157 12.00      2.8     0.3            100   -0.2510 75.9  43 
 HD09     P    a  0157 03.00                              99   -0.69 9 79.9 161 
 HD09     S    a  0157 13.00      5.8     0.2             99   -0.3610 79.9 161 
 HD46     P    a  0157 04.00                              99   -0.1710 82.8 351 
 HD46     S    a  0157 14.00      1.8     0.2             99   -0.1810 82.8 351 
 HD12     P    a  0157 05.00                              99    0.3410 85.8  39 
 HD12     S    a  0157 15.00      2.6     0.3             99   -0.0410 85.8  39 
 HD13     P    a  0157 06.00                              98    0.0510 93.7  33 
 HD13     S    a  0157 17.00      3.8     0.2             98   -0.2710 93.7  33 
 HD67     P    a  0157 07.00                              98    0.73 9 95.8 288 
 HD67     S    a  0157 18.00      1.5     0.2             98    0.1810 95.8 288 
 HD14     P    a  0157 07.00                              98    0.4710 97.4  27 
 HD14     S    a  0157 18.00      1.3     0.2             98   -0.2810 97.4  27 
 HD05     P    a  0157 08.00                              97    0.2410  105  88 
 HD05     S    a  0157 21.00     0.90     0.2             97    0.60 9  105  88 
 HD25     P    a  0157 11.00                              96    0.88 8  120 328 
 HD25     S    a  0157 25.00     0.70     0.2             96    0.52 9  120 328 
 HD15     P    a  0157 10.00                              96   -0.4910  122  26 
 HD15     S    a  0157 25.00      1.3     0.2             96   -0.1210  122  26 
 HD24     P    a  0157 13.00                              96    0.3110  135 355 
 HD24     S    a  0157 29.00     0.60     0.2             96    0.0810  135 355 
 HD16     P    a  0157 13.00                              95    0.2810  135  26 
 HD16     S    a  0157 29.00      1.3     0.3             95    0.0110  135  26 
 HD04     P    a  0157 14.00                              95   -0.4510  146  78 
 HD04     S    a  0157 32.00      1.6     0.2             95    0.0210  146  78 
 HD17     P    a  0157 15.00                              95   -0.0910  150  28 
 HD17     S    a  0157 33.00      2.0     0.2             95   -0.0710  150  28 
 HD23     P    a  0157 17.00                              95    0.4410  159   8 
 HD23     S    a  0157 36.00      1.1     0.2             95    0.3710  159   8 
 HD18     P    a  0157 17.00                              94   -0.4310  164  29 
 HD18     S    a  0157 37.00      2.5     0.2             94   -0.1210  164  29 
 HD26     P    a  0157 18.00                              95    0.1910  167 317 
 HD26     S    a  0157 38.00     0.40     0.3             95    0.2210  167 317 
 HD19     P    a  0157 20.00                              94    0.2810  178  27 
 HD19     S    a  0157 41.00     0.50     0.2             94   -0.0910  178  27 
 HD03     P    a  0157 21.00                              94    0.3510  184  74 
 HD03     S    a  0157 43.00     0.50     0.2             94    0.3110  184  74 
 HD65     P    a  0157 21.00                              94    0.2610  185   0 
 HD65     S    a  0157 42.00     0.90     0.2             94   -0.86 9  185   0 
 HD02     P    a  0157 21.00                              94   -0.3610  188  61 
 HD02     S    a  0157 43.00      4.7     0.2             94   -0.93 8  188  61 
 HD56     P    a  0157 22.00                              94    0.4810  189 321 
 HD56     S    a  0157 44.00     0.20     0.2             94   -0.2010  189 321 
 HD70     P    a  0157 21.00                              94   -0.4210  189 246 
 HD70     S    a  0157 44.00      1.5     0.3             94   -0.0210  189 246 
 HD45     P    a  0157 23.00                              94    0.62 9  195 335 
 HD45     S    a  0157 46.00      2.2     0.3             94    0.3110  195 335 
 HD27     P    a  0157 23.00                              94    0.4610  196 315 
 HD27     S    a  0157 46.00     0.30     0.2             94    0.0410  196 315 
 HD48     P    a  0157 24.00                              94    0.1910  203 275 
 HD48     S    a  0157 47.00     0.60     0.2             94   -1.16 7  203 275 
 HD44     P    a  0157 24.00                              94   -0.0110  205 343 
 HD44     S    a  0157 48.00      1.0     0.3             94   -0.50 9  205 343 
 HD63     P    a  0157 25.00                              94    0.0110  211 350 
 HD63     S    a  0157 50.00      1.1     0.3             94   -0.2010  211 350 
 HD64     P    a  0157 26.00                              93    0.1910  216   1 
 HD64     S    a  0157 52.00      1.6     0.3             93    0.3710  216   1 
 HD01     P    a  0157 26.00                              93   -0.4110  219  66 
 HD01     S    a  0157 53.00     0.60     0.2             93    0.3410  219  66 
 HD28     P    a  0157 27.00                              94    0.53 9  220 309 
 HD28     S    a  0157 52.00     0.50     0.2             94   -0.77 9  220 309 
 HD21     P    a  0157 28.00                              93    0.2910  227  23 
 HD21     S    a  0157 55.00      1.1     0.2             93    0.0910  227  23 
 HD34     P    a  0157 29.00                              93    0.4710  232 322 
 HD34     S    a  0157 56.00     0.20     0.2             93   -0.3410  232 322 
 HD39     P    a  0157 29.00                              93   -0.0310  235 338 
 HD39     S    a  0157 57.00     0.20     0.2             93   -0.1910  235 338 
 HD30     P    a  0157 29.00                              93   -0.0510  236 306 
 HD30     S    a  0157 57.00     0.80     0.3             93   -0.2410  236 306 
 HD33     P    a  0157 29.00                              93   -0.3610  237 315 
 HD33     S    a  0157 58.00     0.30     0.3             93    0.2410  237 315 
 HD32     P    a  0157 30.00                              93    0.1310  240 313 
 HD32     S    a  0157 59.00     0.60     0.3             93    0.3610  240 313 
 HD36     P    a  0157 30.00                              93   -0.0610  242 326 
 HD36     S    a  0157 59.00     0.50     0.3             93    0.0110  242 326 
 HD31     P    a  0157 30.00                              93   -0.3710  244 309 
 HD31     S    a  0157 59.00     0.30     0.2             93   -0.52 9  244 309 
 HD38     P    a  0157 30.00                              93   -0.62 9  245 335 
 HD38     S    a  0158 00.00     0.60     0.3             93    0.0510  245 335 
 HD37     P    a  0157 31.00                              93    0.2010  246 331 
 HD37     S    a  0158 00.00     0.30     0.2             93   -0.2610  246 331 
 HD51     P    a  0157 31.00                              93    0.0810  247 290 
 HD51     S    a  0157 59.00     0.60     0.2             93   -1.46 6  247 290 
 HD41     P    a  0157 31.00                              93    0.0510  247 345 
 HD41     S    a  0158 01.00     0.80     0.3             93    0.4810  247 345 
 HD52     P    a  0157 32.00                              93    0.83 9  248 296 
 HD52     S    a  0158 01.00     0.50     0.2             93    0.1010  248 296 
 HD40     P    a  0157 31.00                              93   -0.2410  249 342 
 HD40     S    a  0158 00.00     0.40     0.2             93   -1.02 8  249 342 
 HD43     P    a  0157 36.00                              49    0.4910  277 347 
 HD43     S    a  0158 08.00     0.30     0.2             49   -0.4110  277 347 
                                                                                
 2012  724 0617 58.8 R  45.918 100.606  4.6  mon 58 0.4 1.1Lmon                1
 GAP= 67        1.10       0.9     1.3  3.6  0.9955E-01  0.7317E+00 -0.3679E+00E
 ACTION:REG 18-10-16 09:44 OP:ngse STATUS:               ID:20120724061759     I
 IDC: ellipse    0.6    0.6  34 MB sd+-                  Event ID   448213     3
 * 25 km SW Ulziit Baynhongor                        ***                       3
 STAT SP IPHASW D HRMM SECON CODA AMPLIT PERI AZIMU VELO AIN AR TRES W  DIS CAZ7
 HD07     P    a  0618 02.00                             106   -0.49 9 22.0  82 
 HD07     S    a  0618 05.00      9.9     0.2            106   -0.2310 22.0  82 
 HD08     P    a  0618 03.00                             104    0.1310 24.3 157 
 HD08     S    a  0618 06.00      44.     0.2            104    0.1310 24.3 157 
 HD06     P    a  0618 05.00                             100    0.1510 36.7  17 
 HD06     S    a  0618 09.00      76.     0.2            100   -0.3110 36.7  17 
 HD47     P    a  0618 06.00                              99   -0.0010 43.8 305 
 HD47     S    a  0618 11.00      5.8     0.2             99   -0.3010 43.8 305 
 HD09     P    a  0618 08.00                              96    0.0110 56.1 183 
 HD09     S    a  0618 15.00      21.     0.4             96    0.2710 56.1 183 
 HD10     P    a  0618 08.00                              97   -0.3010 58.0  17 
 HD10     S    a  0618 15.00      21.     0.3             97   -0.2810 58.0  17 
 HD11     P    a  0618 12.00                              95    0.3310 78.6  17 
 HD11     S    a  0618 21.00      2.7     0.2             95   -0.1010 78.6  17 
 HD05     P    a  0618 12.00                              95    0.1310 79.9  73 
 HD05     S    a  0618 21.00      4.3     0.3             95   -0.4410 79.9  73 
 HD12     P    a  0618 14.00                              94    0.4910 89.9  17 
 HD12     S    a  0618 24.00      17.     0.4             94   -0.2810 89.9  17 
 HD13     P    a  0618 15.00                              94   -0.2710  101  13 
 HD13     S    a  0618 27.00      9.5     0.2             94   -0.3310  101  13 
 HD14     P    a  0618 16.00                              94   -0.4010  108   8 
 HD14     S    a  0618 29.00      4.5     0.2             94   -0.2810  108   8 
 HD46     P    a  0618 16.00                              94   -0.72 9  110 338 
 HD46     S    a  0618 30.00      2.3     0.2             94    0.1610  110 338 
 HD67     P    a  0618 20.00                              93    0.0510  129 292 
 HD67     S    a  0618 35.00      5.1     0.2             93   -0.4310  129 292 
 HD15     P    a  0618 21.00                              93    0.78 9  131  11 
 HD15     S    a  0618 36.00      2.6     0.2             93    0.1010  131  11 
 HD69     P    a  0618 20.00                              93   -0.2210  131 187 
 HD69     S    a  0618 36.00      8.1     0.3             93    0.1010  131 187 
 HD16     P    a  0618 23.00                              93    0.54 9  145  12 
 HD16     S    a  0618 40.00      3.2     0.2             93    0.2310  145  12 
 HD25     P    a  0618 24.00                              93    0.3810  152 323 
 HD25     S    a  0618 42.00      2.2     0.3             93    0.2210  152 323 
 HD17     P    a  0618 25.00                              92    0.4110  158  15 
 HD17     S    a  0618 43.00      3.1     0.2             92   -0.4510  158  15 
 HD24     P    a  0618 25.00                              92    0.1110  160 345 
 HD24     S    a  0618 43.00      1.4     0.2             92   -0.97 8  160 345 
 HD22     P    a  0618 25.00                              92   -0.1710  161  33 
 HD22     S    a  0618 45.00      4.1     0.2             92    0.54 9  161  33 
 HD03     P    a  0618 25.00                              92   -0.59 9  164  65 
 HD03     S    a  0618 44.00      2.4     0.2             92   -1.18 7  164  65 
 HD18     P    a  0618 27.00                              92    0.2410  171  18 
 HD18     S    a  0618 47.00      16.     0.3             92   -0.2110  171  18 
 HD23     P    a  0618 28.00                              92    0.2510  177 358 
 HD23     S    a  0618 49.00      2.9     0.2             92    0.0810  177 358 
 HD19     P    a  0618 30.00                              92    0.83 9  186  17 
 HD19     S    a  0618 51.00      3.1     0.3             92   -0.3810  186  17 
 HD26     P    a  0618 32.00                              92    0.4010  201 315 
 HD26     S    a  0618 56.00     0.60     0.3             92    0.4210  201 315 
 HD01     P    a  0618 32.00                              92   -0.0510  203  58 
 HD01     S    a  0618 57.00      1.4     0.2             92    0.65 9  203  58 
 HD65     P    a  0618 33.00                              92    0.51 9  206 352 
 HD65     S    a  0618 57.00      3.0     0.2             92   -0.1210  206 352 
 HD70     P    a  0618 33.00                              92   -0.0110  209 255 
 HD70     S    a  0618 57.00      1.6     0.3             92   -1.03 8  209 255 
 HD66     P    a  0618 35.00                              92    0.57 9  218 298 
 HD66     S    a  0619 00.00      8.1     0.6             92   -0.4710  218 298 
 HD68     P    a  0618 35.00                              92   -0.0810  222 139 
 HD68     S    a  0619 01.00      2.2     0.3             92   -0.61 9  222 139 
 HD56     P    a  0618 36.00                              92    0.77 9  223 318 
 HD56     S    a  0619 02.00      1.2     0.3             92    0.1410  223 318 
 HD45     P    a  0618 36.00                              92    0.3910  225 331 
 HD45     S    a  0619 02.00      2.1     0.2             92   -0.52 9  225 331 
 HD27     P    a  0618 36.00                              92   -0.3710  230 313 
 HD27     S    a  0619 04.00     0.90     0.2             92    0.1610  230 313 
 HD44     P    a  0618 37.00                              92    0.1510  233 338 
 HD44     S    a  0619 05.00      1.3     0.3             92    0.3310  233 338 
 HD48     P    a  0618 37.00                              92   -0.0910  234 279 
 HD48     S    a  0619 04.00      2.5     0.3             92   -1.08 8  234 279 
 HD64     P    a  0618 38.00                              92    0.56 9  236 355 
 HD64     S    a  0619 06.00      1.6     0.3             92    0.3210  236 355 
 HD63     P    a  0618 38.00                              92    0.59 9  236 344 
 HD63     S    a  0619 05.00      1.8     0.3             92   -0.64 9  236 344 
 HD21     P    a  0618 38.00                              92    0.54 9  236  15 
 HD21     S    a  0619 06.00      3.2     0.3             92    0.2910  236  15 
 HD28     P    a  0618 41.00                              92    0.62 9  254 309 
 HD28     S    a  0619 11.00      1.8     0.5             92    0.2310  254 309 
 HD62     P    a  0618 42.00                              91    0.88 8  259 347 
 HD62     S    a  0619 12.00      1.4     0.3             91   -0.0610  259 347 
 HD39     P    a  0618 42.00                              91   -0.1210  265 334 
 HD39     S    a  0619 14.00     0.70     0.3             91    0.2310  265 334 
 HD34     P    a  0618 42.00                              92   -0.2210  266 320 
 HD34     S    a  0619 14.00      1.0     0.3             92    0.0510  266 320 
 HD30     P    a  0618 43.00                              91    0.0210  270 306 
 HD30     S    a  0619 15.00      1.5     0.3             91   -0.2710  270 306 
 HD33     P    a  0618 43.00                              92   -0.1910  271 314 
 HD33     S    a  0619 16.00     0.60     0.2             92    0.3710  271 314 
 HD29     P    a  0618 43.00                              91   -0.1310  271 303 
 HD29     S    a  0619 15.00      1.4     0.3             91   -0.53 9  271 303 
 HD41     P    a  0618 44.00                              91    0.3710  274 341 
 HD41     S    a  0619 16.00      1.3     0.3             91   -0.4010  274 341 
 HD36     P    a  0618 44.00                              91    0.3810  274 324 
 HD36     S    a  0619 16.00     0.60     0.2             91   -0.3810  274 324 
 HD38     P    a  0618 44.00                              91    0.1710  275 332 
 HD38     S    a  0619 16.00     0.90     0.3             91   -0.73 9  275 332 
 HD35     P    a  0618 44.00                              91    0.2110  275 322 
 HD35     S    a  0619 17.00      1.1     0.3             91    0.3210  275 322 
 HD32     P    a  0618 44.00                              91    0.2610  275 312 
 HD32     S    a  0619 17.00     0.50     0.2             91    0.4210  275 312 
 HD40     P    a  0618 44.00                              91   -0.1410  277 337 
 HD40     S    a  0619 16.00      1.1     0.2             91   -1.28 7  277 337 
 HD37     P    a  0618 44.00                              91   -0.2010  278 328 
 HD37     S    a  0619 17.00     0.80     0.3             91   -0.3810  278 328 
 HD52     P    a  0618 45.00                              91   -0.0410  283 297 
 HD52     S    a  0619 19.00      1.3     0.3             91    0.1610  283 297 
 HD42     P    a  0618 45.00                              49   -0.71 9  287 343 
 HD42     S    a  0619 19.00      1.5     0.2             49   -0.98 8  287 343 
 HD43     P    a  0618 48.00                              49    0.2410  304 343 
 HD43     S    a  0619 24.00      1.1     0.4             49    0.4610  304 343 
 HD60     P    a  0618 57.00                              49    2.86 0  355 322 
 HD60     S    a  0619 38.00     0.50     0.3             49    3.43 0  355 322 
 HD72     P    a  0619 03.00                              49    4.90 0  388  35 
 HD73     P    a  0619 05.00                              49    5.21 0  402   8 
                                                                                
