 2016 10 1 2037 22.4 R  46.192 106.577  9.4  mon  6 0.2-0.4Lmon                1
 GAP=180        0.64       2.4     2.1  6.8  0.2023E+01  0.9161E+01  0.3982E+01E
 ACTION:REG 18-10-16 09:42 OP:ngse STATUS:               ID:20161001203722     I
 IDC: ellipse    3.6    1.5   8 MB sd+-                  Event ID       52     3
 * 11 km  W Deren Dundgobi                           ***                       3
 STAT SP IPHASW D HRMM SECON CODA AMPLIT PERI AZIMU VELO AIN AR TRES W  DIS CAZ7
 DR03     P    a  2037 25.80                             123    0.2310 16.5 122 
 DR03     S    a  2037 27.60     0.60     0.3            123   -0.3210 16.5 122 
 DR08     P    a  2037 26.00                             121    0.2310 17.9 103 
 DR08     S    a  2037 28.30      1.3     0.3            121    0.0310 17.9 103 
 DR10     P    a  2037 27.30                             111    0.0610 27.8 254 
 DR10     S    a  2037 31.00     0.70     0.2            111    0.1910 27.8 254 
 DR02     P    a  2037 28.30                             108    0.0310 34.4 278 
 DR02     S    a  2037 32.40      1.8     0.3            108   -0.1910 34.4 278 
 DR01     P    a  2037 34.10                             102    2.92 0 52.8 283 
 DR01     S    a  2037 37.60     0.30     0.2            102   -0.0210 52.8 283 
 MDGM     P    a  2037 31.10                             101   -0.51 9 55.5 200 
 MDGM     S    a  2037 38.60      1.1     0.3            101    0.2310 55.5 200 
                                                                                
 2016 10 1 2323 15.8 R  46.231 106.136 14.5  mon  7 0.2                        1
 GAP=128        0.45       1.4     1.5  2.0  0.4586E+00 -0.1379E+01  0.1992E+00E
 ACTION:REG 18-10-16 09:42 OP:ngse STATUS:               ID:20161001232315     I
 IDC: ellipse    3.0    2.1  15 MB sd+-                  Event ID      523     3
 * 21 km NW Delgertsogt Dundgobi                     ***                       3
 STAT SP IPHASW D HRMM SECON CODA AMPLIT PERI AZIMU VELO AIN AR TRES W  DIS CAZ7
 DR02     P    a  2323 18.40                             179   -0.0410 0.38 339 
 DR02     S    a  2323 20.40                             179    0.0510 0.38 339 
 DR10     P    a  2323 19.20                             139   -0.1010 14.0 149 
 DR10     S    a  2323 21.90                             139    0.0610 14.0 149 
 DR01     P    a  2323 19.90                             130    0.0210 19.0 293 
 DR01     S    a  2323 22.80                             130   -0.0410 19.0 293 
 DR03     P    a  2323 24.60                             108    0.2410 49.7 105 
 DR03     S    a  2323 30.80                             108    0.2010 49.7 105 
 DR08     P    a  2323 24.80                             107    0.0710 52.2  99 
 DR08     S    a  2323 30.80                             107   -0.4510 52.2  99 
 MDGM     P    a  2323 25.60                             105   -0.1310 58.4 165 
 MDGM     S    a  2323 33.00                             105    0.0310 58.4 165 
 DR07     P    a  2323 25.90                             105    0.0410 59.3  89 
 DR07     S    a  2323 33.20                             105    0.0110 59.3  89 
                                                                                
 2016 10 2 1056  6.8 R  46.194 106.220  5.1  mon  5 0.1-0.5Lmon                1
 GAP=140        0.38       1.6     1.5  3.0  0.1524E+01 -0.2951E+01 -0.2824E+01E
 ACTION:REG 18-10-16 09:42 OP:ngse STATUS:               ID:20161002105606     I
 IDC: ellipse    4.4    2.3  16 MB sd+-                  Event ID       52     3
 * 14 km  W Delgertsogt Dundgobi                     ***                       3
 STAT SP IPHASW D HRMM SECON CODA AMPLIT PERI AZIMU VELO AIN AR TRES W  DIS CAZ7
 DR10     P    a  1056 08.30                             130   -0.1710 7.91 174 
 DR10     S    a  1056 09.80      8.7     0.2            130    0.1010 7.91 174 
 DR02     P    a  1056 08.50                             130    0.0210 8.00 304 
 DR02     S    a  1056 09.70     0.80     0.2            130   -0.0210 8.00 304 
 DR01     P    a  1056 11.20                             104   -0.0710 26.6 296 
 DR01     S    a  1056 14.60      1.4     0.2            104    0.0510 26.6 296 
 DR08     P    a  1056 14.20                              98   -0.0610 45.2  95 
 DR08     S    a  1056 19.70     0.40     0.2             98   -0.0110 45.2  95 
 DR07     P    a  1056 15.80                              97    0.2710 53.0  85 
 DR07     S    a  1056 21.80                              97   -0.1110 53.0  85 
                                                                                
 2016 10 2 1233 10.8 R  46.184 106.201  2.0  mon  6 0.1-0.2Lmon                1
 GAP=138        0.35       1.3     1.3  3.6  0.1123E+01 -0.2854E+01 -0.2483E+01E
 ACTION:REG 18-10-16 09:42 OP:ngse STATUS:               ID:20161002123310     I
 IDC: ellipse    4.2    2.0  21 MB sd+-                  Event ID      528     3
 * 15 km  W Delgertsogt Dundgobi                     ***                       3
 STAT SP IPHASW D HRMM SECON CODA AMPLIT PERI AZIMU VELO AIN AR TRES W  DIS CAZ7
 DR10     P    a  1233 12.00                             116   -0.0910 7.10 161 
 DR10     S    a  1233 13.10      17.     0.2            116    0.0610 7.10 161 
 DR02     P    a  1233 12.00                             115   -0.1710 7.62 318 
 DR02     S    a  1233 13.20                             115    0.0310 7.62 318 
 DR01     P    a  1233 15.10                              98    0.0410 25.8 300 
 DR01     S    a  1233 18.30                              98    0.1210 25.8 300 
 DR03     S    a  1233 23.30                              94    0.0910 43.7 100 
 DR08     S    a  1233 24.00     0.40     0.2             94   -0.0210 46.6  94 
 DR07     P    a  1233 19.60                              93   -0.1610 54.6  84 
 DR07     S    a  1233 26.40     0.90     0.4             93    0.1010 54.6  84 
                                                                                
 2016 10 2 1441 51.7 R  46.177 106.767  8.5  mon  5 0.1-0.8Lmon                1
 GAP=156        0.44       2.7     2.0  2.8 -0.3565E+01  0.2595E+01 -0.4436E+01E
 ACTION:REG 18-10-16 09:42 OP:ngse STATUS:               ID:20161002144151     I
 IDC: ellipse    4.4    2.0 145 MB sd+-                  Event ID       53     3
 * 5 km  E Deren Dundgobi                            ***                       3
 STAT SP IPHASW D HRMM SECON CODA AMPLIT PERI AZIMU VELO AIN AR TRES W  DIS CAZ7
 DR08     P    a  1441 53.20                             159   -0.2210 3.74 131 
 DR08     S    a  1441 54.60     0.90     0.2            159   -0.0810 3.74 131 
 DR03     P    a  1441 53.60                             144   -0.0910 7.07 185 
 DR03     S    a  1441 55.30                             144    0.1610 7.07 185 
 DR07     P    a  1441 54.20                             128   -0.1210 12.6  58 
 DR07     S    a  1441 56.30     0.50     0.3            128    0.0810 12.6  58 
 DR04     P    a  1441 55.90                             112   -0.0710 24.1  81 
 DR04     S    a  1441 59.30     0.90     0.2            112    0.2210 24.1  81 
 DR10     S    a  1442 04.00     0.50     0.2            103    0.1110 41.8 262 
                                                                                
 2016 10 5 2045  8.6 R  46.188 106.218  5.6  mon  7 0.2-0.4Lmon                1
 GAP=135        0.52       1.4     1.6  3.0  0.9264E+00 -0.2460E+01 -0.1029E+01E
 ACTION:REG 18-10-16 09:42 OP:ngse STATUS:               ID:20161005204508     I
 IDC: ellipse    1.6    0.8  21 MB sd+-                  Event ID       54     3
 * 13 km NW Delgertsogt Dundgobi                     ***                       3
 STAT SP IPHASW D HRMM SECON CODA AMPLIT PERI AZIMU VELO AIN AR TRES W  DIS CAZ7
 DR10     P    a  2045 10.20                             134   -0.0710 7.25 172 
 DR10     S    a  2045 11.60      4.9     0.2            134    0.1310 7.25 172 
 DR02     P    a  2045 10.40                             131    0.0110 8.25 309 
 DR02     S    a  2045 11.60      2.2     0.2            131   -0.0910 8.25 309 
 DR01     P    a  2045 13.10                             105   -0.0410 26.8 297 
 DR01     S    a  2045 16.50      1.2     0.2            105    0.0510 26.8 297 
 DR03     P    a  2045 15.90                              99    0.2310 42.5 101 
 DR03     S    a  2045 21.10                              99    0.2810 42.5 101 
 DR08     S    a  2045 21.40                              99   -0.2010 45.3  94 
 MDGM     S    a  2045 23.40                              98   -0.1810 52.4 170 
 DR07     P    a  2045 17.60                              97    0.1910 53.3  84 
 DR07     S    a  2045 23.50                              97   -0.3310 53.3  84 
                                                                                
 2016 10 5 2234 52.0 R  46.196 106.564  3.2  mon  8 0.2-0.2Lmon                1
 GAP=157        0.62       1.8     1.3 11.7  0.4370E-01  0.7724E+01 -0.2061E+01E
 ACTION:REG 18-10-16 09:42 OP:ngse STATUS:               ID:20161005223451     I
 IDC: ellipse    2.1    0.9   4 MB sd+-                  Event ID      541     3
 * 10 km  W Deren Dundgobi                           ***                       3
 STAT SP IPHASW D HRMM SECON CODA AMPLIT PERI AZIMU VELO AIN AR TRES W  DIS CAZ7
 DR03     P    a  2234 55.00                             104   -0.0110 17.6 121 
 DR03     S    a  2234 57.20      1.6     0.2            104    0.0210 17.6 121 
 DR08     P    a  2234 55.00                             103   -0.2410 19.0 104 
 DR08     S    a  2234 57.40      2.1     0.2            103   -0.1710 19.0 104 
 DR07     P    a  2234 56.20                             100   -0.2710 26.7  80 
 DR07     S    a  2234 59.70      1.7     0.2            100   -0.0010 26.7  80 
 DR10     P    a  2234 56.40                             100   -0.1310 27.0 253 
 DR10     S    a  2235 00.10      1.3     0.2            100    0.3010 27.0 253 
 DR02     P    a  2234 57.50                              98   -0.0610 33.4 277 
 DR02     S    a  2235 01.50      2.6     0.3             98   -0.0910 33.4 277 
 DR04     S    a  2235 04.00      2.2     0.3             96    0.71 9 39.5  87 
 DR01     P    a  2235 00.40                              95   -0.1410 51.7 283 
 DR01     S    a  2235 06.90     0.40     0.2             95    0.1510 51.7 283 
 MDGM     P    a  2235 01.30                              95    0.1110 55.7 199 
 MDGM     S    a  2235 07.80                              95   -0.0610 55.7 199 
                                                                                
 2016 10 6 0637  0.6 R  46.194 106.831 10.8  mon  5 0.1-0.5Lmon                1
 GAP=130        0.38       1.9     1.5  2.2 -0.1311E+01  0.1231E+01 -0.1759E+01E
 ACTION:REG 18-10-16 09:42 OP:ngse STATUS:               ID:20161006063659     I
 IDC: ellipse    4.8    2.2 161 MB sd+-                  Event ID       54     3
 * 11 km  E Deren Dundgobi                           ***                       3
 STAT SP IPHASW D HRMM SECON CODA AMPLIT PERI AZIMU VELO AIN AR TRES W  DIS CAZ7
 DR08     P    a  0637 02.50                             158   -0.2010 4.83 207 
 DR08     S    a  0637 04.20      1.9     0.2            158   -0.0610 4.83 207 
 DR07     P    a  0637 02.90                             148    0.0110 7.46  50 
 DR07     S    a  0637 04.60      1.6     0.3            148    0.0110 7.46  50 
 DR03     P    a  0637 03.30                             139    0.1010 10.5 212 
 DR03     S    a  0637 05.20                             139    0.0810 10.5 212 
 DR04     P    a  0637 04.10                             123   -0.1510 18.9  84 
 DR04     S    a  0637 07.10      1.8     0.2            123    0.1610 18.9  84 
 DR01     S    a  0637 21.30     0.20     0.2            100    0.0510 72.0 280 
                                                                                
 2016 10 6 1655 43.7 R  46.232 106.795  4.7  mon  6 0.2-0.5Lmon                1
 GAP=170        0.49       2.0     2.6  6.3 -0.2378E+01  0.1403E+02 -0.7807E+01E
 ACTION:REG 18-10-16 09:42 OP:ngse STATUS:               ID:20161006165543     I
 IDC: ellipse    2.1    1.3   7 MB sd+-                  Event ID       54     3
 * 8 km  E Deren Dundgobi                            ***                       3
 STAT SP IPHASW D HRMM SECON CODA AMPLIT PERI AZIMU VELO AIN AR TRES W  DIS CAZ7
 DR07     P    a  1655 45.30                             125   -0.1310 8.54  86 
 DR07     S    a  1655 46.80      3.2     0.2            125    0.1210 8.54  86 
 DR08     P    a  1655 45.20                             125   -0.2410 8.58 176 
 DR08     S    a  1655 46.70      1.3     0.2            125    0.0110 8.58 176 
 DR03     P    a  1655 46.00                             114   -0.1410 13.4 192 
 DR03     S    a  1655 48.10      1.8     0.3            114    0.2010 13.4 192 
 DR10     P    a  1655 51.50                              98    0.3110 45.2 255 
 DR10     S    a  1655 56.50     0.80     0.3             98   -0.1410 45.2 255 
 DR02     S    a  1655 58.10     0.40     0.3             97   -0.1510 50.9 271 
 DR01     P    a  1655 55.10                              95    0.1010 68.6 277 
 DR01     S    a  1656 03.30     0.60     0.3             95    0.0610 68.6 277 
                                                                                
 2016 10 6 2203  3.5 R  46.245 106.883  7.7  mon  4 0.4-0.8Lmon                1
 GAP=250        0.93       7.9     6.1  5.7 -0.3641E+02 -0.4333E+01  0.1173E+02E
 ACTION:REG 18-10-16 09:42 OP:ngse STATUS:               ID:20161006220303     I
 IDC: ellipse    3.6    1.3 154 MB sd+-                  Event ID       54     3
 * 16 km  E Deren Dundgobi                           ***                       3
 STAT SP IPHASW D HRMM SECON CODA AMPLIT PERI AZIMU VELO AIN AR TRES W  DIS CAZ7
 DR07     P    a  2203 05.10                             168    0.1010 1.92 117 
 DR07     S    a  2203 06.20      2.0     0.3            168    0.0910 1.92 117 
 DR08     P    a  2203 05.70                             128   -0.2210 11.7 212 
 DR08     S    a  2203 07.00                             128   -0.69 9 11.7 212 
 DR04     P    a  2203 06.40                             121    0.0010 15.3 104 
 DR04     S    a  2203 08.50                             121   -0.0210 15.3 104 
 DR03     P    a  2203 06.70                             117   -0.0210 17.4 214 
 DR03     S    a  2203 09.90     0.70     0.2            117    0.83 9 17.4 214 
                                                                                
 2016 10 7 0857 22.9 R  46.162 106.066 12.6  mon  7 0.2-0.1Lmon                1
 GAP=164        0.52       1.6     1.9  3.0  0.8615E+00 -0.7150E+00  0.2025E+01E
 ACTION:REG 18-10-16 09:42 OP:ngse STATUS:               ID:20161007085723     I
 IDC: ellipse    3.2    2.1  50 MB sd+-                  Event ID      551     3
 * 19 km  N Tevshyn gobi coal mine                   ***                       3
 STAT SP IPHASW D HRMM SECON CODA AMPLIT PERI AZIMU VELO AIN AR TRES W  DIS CAZ7
 DR02     P    a  0857 25.60                             146   -0.1410 9.62  33 
 DR02     S    a  0857 27.80      3.0     0.2            146    0.0210 9.62  33 
 DR10     P    a  0857 26.10                             137   -0.0210 13.4 109 
 DR10     S    a  0857 28.50      5.6     0.2            137    0.0510 13.4 109 
 DR01     P    a  0857 26.80                             126   -0.0610 19.4 322 
 DR01     S    a  0857 29.80      4.6     0.2            126    0.0710 19.4 322 
 MDGM     P    a  0857 32.00                             105    0.1110 52.9 157 
 MDGM     S    a  0857 38.40                             105   -0.0310 52.9 157 
 DR03     S    a  0857 38.70                             105    0.0510 53.7  95 
 DR08     S    a  0857 39.10     0.50     0.3            104   -0.4310 56.9  91 
 DR07     S    a  0857 42.20                             102    0.3710 65.3  82 
                                                                                
 2016 10 7 1433 42.7 R  46.296 106.867  7.0  mon  4 0.1-0.6Lmon                1
 GAP=278        0.40       3.9     2.9  3.7 -0.8440E+01  0.5859E+01 -0.8069E+01E
 ACTION:REG 18-10-16 09:42 OP:ngse STATUS:               ID:20161007143343     I
 IDC: ellipse    9.0    3.2 154 MB sd+-                  Event ID       55     3
 * 16 km  E Deren Dundgobi                           ***                       3
 STAT SP IPHASW D HRMM SECON CODA AMPLIT PERI AZIMU VELO AIN AR TRES W  DIS CAZ7
 DR07     P    a  1433 44.50                             139    0.0410 7.22 156 
 DR07     S    a  1433 45.80      1.4     0.2            139    0.0310 7.22 156 
 DR08     P    a  1433 45.50                             117   -0.1810 16.5 198 
 DR08     S    a  1433 47.70     0.60     0.3            117   -0.1810 16.5 198 
 DR04     P    a  1433 46.00                             114    0.0110 18.5 120 
 DR04     S    a  1433 48.40      1.7     0.2            114   -0.0110 18.5 120 
 DR03     P    a  1433 46.60                             111    0.0910 22.0 203 
 DR03     S    a  1433 49.50      1.1     0.2            111    0.1910 22.0 203 
                                                                                
 2016 10 7 1529  3.4 R  46.298 106.863  7.1  mon  4 0.1-0.8Lmon                1
 GAP=279        0.38       3.7     2.8  3.7 -0.7775E+01  0.5703E+01 -0.7767E+01E
 ACTION:REG 18-10-16 09:42 OP:ngse STATUS:               ID:20161007152904     I
 IDC: ellipse    9.1    3.2 155 MB sd+-                  Event ID       55     3
 * 16 km  E Deren Dundgobi                           ***                       3
 STAT SP IPHASW D HRMM SECON CODA AMPLIT PERI AZIMU VELO AIN AR TRES W  DIS CAZ7
 DR07     P    a  1529 05.30                             138    0.0610 7.53 155 
 DR07     S    a  1529 06.60                             138    0.0110 7.53 155 
 DR08     P    a  1529 06.30                             117   -0.1410 16.6 196 
 DR08     S    a  1529 08.50     0.20     0.2            117   -0.1610 16.6 196 
 DR04     P    a  1529 06.70                             114   -0.0810 18.9 120 
 DR04     S    a  1529 09.30      1.8     0.2            114    0.0410 18.9 120 
 DR03     P    a  1529 07.40                             111    0.1410 22.0 202 
 DR03     S    a  1529 10.20     0.50     0.2            111    0.1210 22.0 202 
                                                                                
 2016 10 7 1922 17.7 R  46.179 106.832  9.9  mon  4 0.0-0.5Lmon                1
 GAP=184        0.28       2.0     2.3  2.0 -0.4162E+01 -0.1638E+01  0.1931E+01E
 ACTION:REG 18-10-16 09:42 OP:ngse STATUS:               ID:20161007192218     I
 IDC: ellipse    4.8    1.7 141 MB sd+-                  Event ID       55     3
 * 14 km SE Deren Dundgobi                           ***                       3
 STAT SP IPHASW D HRMM SECON CODA AMPLIT PERI AZIMU VELO AIN AR TRES W  DIS CAZ7
 DR07     P    a  1922 20.00                             143   -0.0110 8.55  42 
 DR07     S    a  1922 21.70      2.9     0.2            143    0.0110 8.55  42 
 DR03     P    a  1922 20.10                             141    0.0210 9.24 218 
 DR03     S    a  1922 21.80      1.4     0.3            141   -0.0210 9.24 218 
 DR04     P    a  1922 21.30                             120   -0.0310 19.1  79 
 DR04     S    a  1922 24.00     0.70     0.2            120    0.0210 19.1  79 
 MDGM     S    a  1922 36.10     0.70     0.2            100    0.0110 63.9 218 
                                                                                
