 2016 10 9 0028 19.1 R  46.200 106.503  8.4  mon  7 0.2-0.3Lmon                1
 GAP=159        0.53       1.6     1.0  5.4  0.1787E-01  0.6776E-01 -0.4570E+00E
 ACTION:REG 18-10-16 09:42 OP:ngse STATUS:               ID:20161009002818     I
 IDC: ellipse    3.2    1.2   2 MB sd+-                  Event ID      563     3
 * 14 km NE Delgertsogt Dundgobi                     ***                       3
 STAT SP IPHASW D HRMM SECON CODA AMPLIT PERI AZIMU VELO AIN AR TRES W  DIS CAZ7
 DR03     P    a  0028 22.90                             114   -0.0910 21.9 116 
 DR03     S    a  0028 25.90      1.0     0.2            114    0.0410 21.9 116 
 DR10     P    a  0028 23.00                             114   -0.1210 22.7 248 
 DR10     S    a  0028 26.30     0.60     0.3            114    0.2210 22.7 248 
 DR02     P    a  0028 24.40                             109    0.3610 28.7 278 
 DR02     S    a  0028 27.40      1.0     0.2            109   -0.2610 28.7 278 
 DR07     P    a  0028 24.30                             107   -0.1310 31.3  82 
 DR07     S    a  0028 28.30      1.0     0.3            107   -0.0410 31.3  82 
 DR04     P    a  0028 26.30                             102   -0.1710 44.2  88 
 DR04     S    a  0028 32.10      1.4     0.2            102    0.2310 44.2  88 
 DR01     P    a  0028 27.00                             102    0.0610 47.1 284 
 DR01     S    a  0028 32.60      3.9     0.3            102   -0.0810 47.1 284 
 MDGM     P    a  0028 28.40                             100    0.2310 54.7 194 
 MDGM     S    a  0028 34.60                             100   -0.2110 54.7 194 
                                                                                
 2016 10 9 0121 13.7 R  46.229 106.241  8.2  mon  4 0.1-0.4Lmon                1
 GAP=162        0.40       2.0     1.7  3.6  0.1940E+01 -0.3495E+01 -0.4195E+01E
 ACTION:REG 18-10-16 09:42 OP:ngse STATUS:               ID:20161009012114     I
 IDC: ellipse    3.7    2.3  49 MB sd+-                  Event ID      564     3
 * 15 km NW Delgertsogt Dundgobi                     ***                       3
 STAT SP IPHASW D HRMM SECON CODA AMPLIT PERI AZIMU VELO AIN AR TRES W  DIS CAZ7
 DR02     P    a  0121 15.70                             140   -0.1210 8.26 274 
 DR02     S    a  0121 17.30      3.0     0.2            140   -0.0510 8.26 274 
 DR10     P    a  0121 16.10                             130   -0.1310 11.8 184 
 DR10     S    a  0121 18.00      1.6     0.2            130   -0.0510 11.8 184 
 DR01     P    a  0121 18.60                             110    0.2210 26.7 287 
 DR01     S    a  0121 21.80      2.3     0.2            110    0.0210 26.7 287 
 DR07     P    a  0121 24.50                             101    2.24 0 51.2  89 
 DR07     S    a  0121 28.60     0.50     0.2            101    0.1210 51.2  89 
                                                                                
 2016 10 9 0222 42.4 R  46.198 106.327 14.6  mon  7 0.0 0.3Lmon                1
 GAP=155        0.23       0.7     0.6  1.3  0.4136E-01 -0.3766E+00  0.6118E-02E
 ACTION:REG 18-10-16 09:42 OP:ngse STATUS:               ID:20161009022242     I
 IDC: ellipse    0.6    0.4   7 MB sd+-                  Event ID      565     3
 * 10 km  N Delgertsogt Dundgobi                     ***                       3
 STAT SP IPHASW D HRMM SECON CODA AMPLIT PERI AZIMU VELO AIN AR TRES W  DIS CAZ7
 DR10     P    a  0222 45.60                             145    0.0210 11.1 222 
 DR10     S    a  0222 47.90      7.9     0.2            145   -0.0210 11.1 222 
 DR02     P    a  0222 46.00                             136   -0.0210 15.4 285 
 DR02     S    a  0222 48.70      10.     0.3            136    0.0210 15.4 285 
 DR01     P    a  0222 48.60                             115    0.0710 34.0 289 
 DR01     S    a  0222 53.00      9.2     0.2            115   -0.0310 34.0 289 
 DR03     P    a  0222 48.60                             115   -0.0110 34.6 106 
 DR03     S    a  0222 53.20      1.9     0.3            115    0.0310 34.6 106 
 DR07     P    a  0222 50.10                             110   -0.0610 44.8  84 
 DR07     S    a  0222 55.80      2.5     0.4            110   -0.0410 44.8  84 
 MDGM     P    a  0222 51.40                             107   -0.0110 52.8 180 
 MDGM     S    a  0222 58.00                             107   -0.0010 52.8 180 
 DR04     S    a  0222 59.40      1.9     0.3            105    0.0610 57.8  88 
                                                                                
 2016 10 9 0343 47.1 R  46.197 106.251  9.7  mon  4 0.0-0.6Lmon                1
 GAP=239        0.29       2.1     4.6  1.8  0.8950E+01 -0.1416E+00  0.7685E-02E
 ACTION:REG 18-10-16 09:42 OP:ngse STATUS:               ID:20161009034348     I
 IDC: ellipse    7.8    2.7  49 MB sd+-                  Event ID       56     3
 * 16 km  W Delgertsogt Dundgobi                     ***                       3
 STAT SP IPHASW D HRMM SECON CODA AMPLIT PERI AZIMU VELO AIN AR TRES W  DIS CAZ7
 DR10     P    a  0343 49.40                             143    0.0210 8.35 191 
 DR10     S    a  0343 51.10      1.7     0.2            143    0.0510 8.35 191 
 DR02     P    a  0343 49.50                             139   -0.0510 9.92 295 
 DR02     S    a  0343 51.30      1.9     0.3            139   -0.0410 9.92 295 
 DR01     P    a  0343 52.20                             111    0.0710 28.7 293 
 DR01     S    a  0343 55.80     0.50     0.2            111   -0.0110 28.7 293 
 MDGM     S    a  0344 02.40                             102   -0.0410 53.0 173 
                                                                                
 2016 1010 1326 26.5 R  46.173 106.835  8.2  mon  5 0.1-0.4Lmon                1
 GAP=185        0.34       1.8     2.3  3.1 -0.2801E+01  0.5693E+01 -0.3374E+01E
 ACTION:REG 18-10-16 09:42 OP:ngse STATUS:               ID:20161010132626     I
 IDC: ellipse    2.5    1.5 157 MB sd+-                  Event ID      575     3
 * 10 km  E Deren Dundgobi                           ***                       3
 STAT SP IPHASW D HRMM SECON CODA AMPLIT PERI AZIMU VELO AIN AR TRES W  DIS CAZ7
 DR03     P    a  1326 28.60                             137    0.0010 8.83 222 
 DR03     S    a  1326 30.20      3.1     0.2            137    0.0510 8.83 222 
 DR07     P    a  1326 28.50                             137   -0.1010 8.97  37 
 DR07     S    a  1326 30.20      2.2     0.2            137    0.0310 8.97  37 
 DR10     S    a  1326 39.90     0.50     0.2            102   -0.1510 47.0 263 
 DR02     S    a  1326 42.10                             100   -0.0310 54.5 277 
 DR01     P    a  1326 38.60                              98    0.1310 72.7 281 
 DR01     S    a  1326 47.30     0.40     0.3             98    0.0710 72.7 281 
                                                                                
 2016 1012 0056 15.0 R  46.302 106.116  4.0  mon  3 0.0-0.9Lmon                1
 GAP=247        0.29       4.2     4.0  4.1  0.1605E+02 -0.1078E+02 -0.1214E+02E
 ACTION:REG 18-10-16 09:42 OP:ngse STATUS:               ID:20161012005615     I
 IDC: ellipse    6.8    1.5  32 MB sd+-                  Event ID       61     3
 * 27 km NW Delgertsogt Dundgobi                     ***                       3
 STAT SP IPHASW D HRMM SECON CODA AMPLIT PERI AZIMU VELO AIN AR TRES W  DIS CAZ7
 DR02     P    a  0056 16.60                             126    0.0110 7.63 169 
 DR02     S    a  0056 17.70     0.90     0.3            126   -0.0110 7.63 169 
 DR01     P    a  0056 17.80                             109    0.0010 15.9 269 
 DR01     S    a  0056 19.80     0.60     0.2            109   -0.0010 15.9 269 
 DR10     P    a  0056 18.70                             104   -0.0110 21.7 156 
 DR10     S    a  0056 21.40     0.60     0.3            104    0.0110 21.7 156 
                                                                                
 2016 1012 1048 57.0 R  45.847 106.993  9.6  mon 13 0.3 1.4Lmon                1
 GAP=242        0.75       2.2     2.6  7.3 -0.3521E+01 -0.4127E+01  0.6709E+01E
 ACTION:REG 18-10-16 09:42 OP:ngse STATUS:               ID:20161012104856     I
 IDC: ellipse    1.1    1.0  44 MB sd+-                  Event ID      616     3
 * 34 km  N Gurvansaikhan Dundgobi                   ***                       3
 STAT SP IPHASW D HRMM SECON CODA AMPLIT PERI AZIMU VELO AIN AR TRES W  DIS CAZ7
 DR06     P    a  1049 02.60                             108   -0.0910 33.1  13 
 DR06     S    a  1049 06.90                             108    0.0410 33.1  13 
 DR03     P    a  1049 02.90                             107   -0.0510 34.8 329 
 DR03     S    a  1049 07.30                             107   -0.0010 34.8 329 
 DR08     P    a  1049 03.30                             106   -0.0310 37.3 337 
 DR08     S    a  1049 08.00                             106    0.0310 37.3 337 
 DR04     P    a  1049 03.80                             105   -0.1310 41.1   9 
 DR04     S    a  1049 08.70                             105   -0.3110 41.1   9 
 DR07     P    a  1049 04.40                             104    0.0310 43.9 351 
 DR07     S    a  1049 10.20      42.     0.2            104    0.4210 43.9 351 
 MDGM     P    a  1049 05.80                             102   -0.1010 53.4 255 
 MDGM     S    a  1049 12.80                             102    0.3810 53.4 255 
 DR05     P    a  1049 06.40                             101   -0.0810 57.0 324 
 DR05     S    a  1049 13.40      17.     0.2            101   -0.0210 57.0 324 
 DR10     P    a  1049 08.00                              99   -0.0210 66.6 298 
 DR10     S    a  1049 16.00      8.4     0.2             99   -0.0910 66.6 298 
 DR02     P    a  1049 10.00                              98   -0.0610 79.2 303 
 DR02     S    a  1049 18.90                              98   -0.72 9 79.2 303 
 DR09     P    a  1049 10.70                              98   -0.0410 83.4 290 
 DR09     S    a  1049 20.70      11.     0.2             98   -0.0910 83.4 290 
 DR01     P    a  1049 13.10                              96    0.0310 97.7 301 
 DR01     S    a  1049 25.40                              96    0.58 9 97.7 301 
 SEMM     P    a  1049 28.20                              93   -0.0510  191 360 
 SEMM     S    a  1049 50.70      17.     0.4             93   -0.3910  191 360 
 UGDM     P    a  1049 30.10                              93    0.0910  202   9 
 UGDM     S    a  1049 55.00                              93    0.87 8  202   9 
                                                                                
 2016 1012 1753 11.3 R  46.203 106.563  6.0  mon  8 0.3-0.7Lmon                1
 GAP= 86        0.76       2.5     1.9  5.9  0.1542E+01  0.3598E+01  0.9045E+01E
 ACTION:REG 18-10-16 09:42 OP:ngse STATUS:               ID:20161012175311     I
 IDC: ellipse    2.4    1.5  13 MB sd+-                  Event ID       61     3
 * 10 km  W Deren Dundgobi                           ***                       3
 STAT SP IPHASW D HRMM SECON CODA AMPLIT PERI AZIMU VELO AIN AR TRES W  DIS CAZ7
 DR05     P    a  1753 12.90                             140   -0.0010 6.35 355 
 DR05     S    a  1753 14.10      1.2     0.2            140    0.0310 6.35 355 
 DR03     P    a  1753 14.40                             112   -0.0910 18.0 123 
 DR03     S    a  1753 16.90     0.60     0.2            112    0.0810 18.0 123 
 DR08     P    a  1753 14.70                             111    0.0210 19.3 106 
 DR08     S    a  1753 17.00     0.30     0.2            111   -0.1510 19.3 106 
 DR07     P    a  1753 16.00                             105    0.1710 26.7  82 
 DR10     S    a  1753 19.70                             105    0.4310 27.1 251 
 DR02     S    a  1753 20.10                             103   -0.84 9 33.2 276 
 DR01     S    a  1753 26.30                              98    0.2710 51.5 282 
 MDGM     S    a  1753 27.30      1.5     0.3             97   -0.0910 56.3 199 
                                                                                
 2016 1013 0648 25.9 R  45.840 107.010 15.1  mon 16 0.3 1.1Lmon                1
 GAP=228        0.91       2.4     3.2  3.3 -0.4649E+01 -0.5286E+01  0.2981E+01E
 ACTION:REG 18-10-16 09:42 OP:ngse STATUS:               ID:20161013064826     I
 IDC: ellipse    1.4    1.1 114 MB sd+-                  Event ID     1002     3
 * 35 km  N Gurvansaikhan Dundgobi                   ***                       3
 STAT SP IPHASW D HRMM SECON CODA AMPLIT PERI AZIMU VELO AIN AR TRES W  DIS CAZ7
 DR06     P    a  0648 31.80                             116   -0.1910 33.6  11 
 DR06     S    a  0648 36.30      21.     0.3            116   -0.1710 33.6  11 
 DR03     P    a  0648 32.30                             114   -0.0610 36.2 327 
 DR03     S    a  0648 36.80      27.     0.3            114   -0.3110 36.2 327 
 DR08     P    a  0648 32.50                             113   -0.2110 38.5 336 
 DR08     S    a  0648 37.60      22.     0.3            113   -0.1110 38.5 336 
 DR04     P    a  0648 33.30                             111    0.1010 41.7   7 
 DR04     S    a  0648 38.70      19.     0.4            111    0.1510 41.7   7 
 DR07     P    a  0648 33.60                             110   -0.0810 44.9 350 
 DR07     S    a  0648 39.60      36.     0.3            110    0.2110 44.9 350 
 MDGM     P    a  0648 35.10                             107   -0.0810 54.5 256 
 MDGM     S    a  0648 42.00                             107    0.0210 54.5 256 
 DR05     P    a  0648 35.70                             106   -0.1010 58.4 323 
 DR05     S    a  0648 43.00      6.4     0.3            106   -0.0610 58.4 323 
 DR10     P    a  0648 37.00                             104   -0.3310 68.1 298 
 DR10     S    a  0648 45.70      6.6     0.3            104   -0.0110 68.1 298 
 DR02     P    a  0648 39.70                             102    0.3510 80.7 303 
 DR02     S    a  0648 48.40      2.6     0.2            102   -0.79 9 80.7 303 
 DR09     P    a  0648 39.90                             101   -0.1110 84.9 291 
 DR09     S    a  0648 50.10      7.1     0.3            101   -0.2410 84.9 291 
 DR01     P    a  0648 42.70                              99    0.3710 99.2 301 
 DR01     S    a  0648 54.90      4.8     0.3             99    0.56 9 99.2 301 
 U07M     P    a  0648 51.90                              96    0.4510  155 340 
 U07M     S    a  0649 11.10                              96    0.98 8  155 340 
 U05M     P    a  0648 55.30                              95    0.3810  177 355 
 U05M     S    a  0649 16.20      3.0     0.2             95    0.0610  177 355 
 SEMM     P    a  0648 57.50                              95    0.1610  192 359 
 SEMM     S    a  0649 20.10      4.0     0.3             95   -0.2210  192 359 
 UGDM     P    a  0648 59.80                              95    0.74 9  202   8 
 UGDM     S    a  0649 22.60      1.1     0.3             95   -0.70 9  202   8 
 U04M     P    a  0649 08.00                              49   -0.2210  259  29 
 U04M     S    a  0649 38.90      2.6     0.3             49   -0.2510  259  29 
                                                                                
 2016 1014 1601 36.3 R  46.193 106.830 11.8  mon  9 0.1-0.1Lmon                1
 GAP=121        0.39       1.1     0.9  1.9  0.3358E-01  0.8188E+00  0.4380E+00E
 ACTION:REG 18-10-16 09:42 OP:ngse STATUS:               ID:20161014160135     I
 IDC: ellipse    1.8    0.9 176 MB sd+-                  Event ID     1007     3
 * 11 km  E Deren Dundgobi                           ***                       3
 STAT SP IPHASW D HRMM SECON CODA AMPLIT PERI AZIMU VELO AIN AR TRES W  DIS CAZ7
 DR07     P    a  1601 38.60                             150   -0.1410 7.59  50 
 DR07     S    a  1601 40.40      2.8     0.2            150   -0.1510 7.59  50 
 DR03     P    a  1601 39.10                             142    0.0910 10.4 212 
 DR03     S    a  1601 41.10      5.6     0.3            142    0.0910 10.4 212 
 DR04     P    a  1601 40.00                             125   -0.0510 19.1  84 
 DR04     S    a  1601 42.90      6.8     0.2            125    0.0810 19.1  84 
 DR06     P    a  1601 40.40                             122    0.0710 21.0 107 
 DR06     S    a  1601 43.40                             122    0.1010 21.0 107 
 DR05     P    a  1601 40.50                             121   -0.0210 22.4 289 
 DR05     S    a  1601 43.60      1.3     0.2            121   -0.0310 22.4 289 
 DR10     P    a  1601 44.50                             106    0.2610 46.9 261 
 DR10     S    a  1601 50.20                             106    0.1310 46.9 261 
 DR02     S    a  1601 51.90     0.80     0.2            104   -0.0610 53.8 275 
 MDGM     P    a  1601 46.90                             101   -0.2310 65.1 217 
 MDGM     S    a  1601 54.90                             101   -0.1710 65.1 217 
 DR01     S    a  1601 57.00     0.70     0.2            100    0.0310 71.9 280 
                                                                                
 2016 1014 1606  8.9 R  46.205 106.413 11.1  mon  9 0.2 0.4Lmon                1
 GAP=136        0.52       1.4     1.0  3.0 -0.1247E+00 -0.5014E+00  0.1091E+01E
 ACTION:REG 18-10-16 09:42 OP:ngse STATUS:               ID:20161014160608     I
 IDC: ellipse    2.3    1.2   1 MB sd+-                  Event ID     1008     3
 * 10 km  N Delgertsogt Dundgobi                     ***                       3
 STAT SP IPHASW D HRMM SECON CODA AMPLIT PERI AZIMU VELO AIN AR TRES W  DIS CAZ7
 DR05     P    a  1606 11.80                             135    0.0010 12.6  61 
 DR05     S    a  1606 13.80      33.     0.2            135   -0.1210 12.6  61 
 DR10     P    a  1606 12.40                             127    0.0910 16.8 237 
 DR10     S    a  1606 15.00                             127    0.1810 16.8 237 
 DR02     P    a  1606 12.90                             120   -0.0910 21.7 279 
 DR02     S    a  1606 15.90      5.1     0.2            120   -0.0910 21.7 279 
 DR03     P    a  1606 14.10                             114    0.1210 28.6 111 
 DR03     S    a  1606 17.70      1.9     0.3            114   -0.0010 28.6 111 
 DR07     P    a  1606 15.60                             108    0.1510 38.1  85 
 DR07     S    a  1606 20.50                             108    0.2610 38.1  85 
 DR01     P    a  1606 15.70                             107   -0.0710 40.1 285 
 DR01     S    a  1606 20.80      5.6     0.2            107    0.0110 40.1 285 
 DR04     S    a  1606 23.70      4.5     0.4            104   -0.0810 51.1  89 
 DR06     P    a  1606 18.10                             103    0.3310 52.9  98 
 DR06     S    a  1606 23.80                             103   -0.4610 52.9  98 
 MDGM     P    a  1606 17.70                             103   -0.2610 54.0 187 
 MDGM     S    a  1606 24.60                             103    0.0210 54.0 187 
                                                                                
