 2013 1215 0513 28.9 R  46.056  98.910  8.2  mon 26 0.8 1.1Lmon                1
 GAP=104        1.63       2.6     4.6  4.7  0.5264E+00 -0.7591E+00 -0.3961E+01E
 ACTION:REG 17-04-05 21:52 OP:ngse STATUS:               ID:20131215051330     I
 IDC: ellipse    1.5    1.2  60 MB sd+-                  Event ID   457329     3
 * 20 km SE Buutsagaan Baynhongor                    ***                       3
 STAT SP IPHASW D HRMM SECON CODA AMPLIT PERI AZIMU VELO AIN AR TRES W  DIS CAZ7
 HD67     P    a  0513 36.60                              46    0.1910 34.4  18 
 HD67     S    a  0513 40.90      32.     0.2             46   -0.97 8 34.4  18 
 HD47     P    a  0513 46.30                              46   -0.1210 96.0  84 
 HD47     S    a  0513 57.70      2.8     0.2             46   -1.48 6 96.0  84 
 HD70     P    a  0513 47.20                              46   -0.0810  101 223 
 HD70     S    a  0514 00.20      1.9     0.2             46   -0.4710  101 223 
 HD46     P    a  0513 51.00                              45    0.1310  123  45 
 HD46     S    a  0514 05.40      5.1     0.2             45   -1.48 6  123  45 
 HD27     P    a  0513 54.10                              45   -0.4310  146 345 
 HD27     S    a  0514 11.00     0.90     0.2             45   -2.21 2  146 345 
 HD56     P    a  0513 54.80                              45   -0.56 9  151 353 
 HD56     S    a  0514 12.70      1.1     0.2             45   -1.96 4  151 353 
 HD28     P    a  0513 56.70                              45    0.3910  157 333 
 HD28     S    a  0514 14.60      1.2     0.3             45   -1.70 5  157 333 
 HD30     P    a  0513 58.10                              45    0.3210  167 327 
 HD30     S    a  0514 17.00      1.3     0.2             45   -1.85 5  167 327 
 HD31     P    a  0513 59.90                              43    0.1310  179 330 
 HD31     S    a  0514 21.80      5.5     0.3             43   -0.4910  179 330 
 HD45     P    a  0514 00.30                              43    0.2810  181   5 
 HD45     S    a  0514 21.50      7.6     0.5             43   -1.21 8  181   5 
 HD32     P    a  0514 00.20                              43   -0.1210  183 335 
 HD32     S    a  0514 22.50      6.2     0.3             43   -0.74 9  183 335 
 HD33     P    a  0514 01.00                              43    0.4710  184 339 
 HD33     S    a  0514 23.20      2.9     0.2             43   -0.4010  184 339 
 HD69     S    a  0514 23.40      4.5     0.2             41   -0.5610  186 141 
 HD34     P    a  0514 01.60                              41    0.0110  191 347 
 HD34     S    a  0514 23.80      1.9     0.2             41   -1.63 6  191 347 
 HD35     P    a  0514 03.80                              41    0.3710  204 348 
 HD35     S    a  0514 28.20      5.4     0.3             41   -0.4110  204 348 
 HD36     P    a  0514 04.10                              41    0.1810  207 350 
 HD36     S    a  0514 29.10      1.3     0.3             41   -0.3710  207 350 
 HD37     P    a  0514 06.60                              41    0.91 9  219 354 
 HD37     S    a  0514 32.60     0.60     0.2             41    0.0710  219 354 
 HD39     P    a  0514 06.80                              41    0.67 9  222   3 
 HD39     S    a  0514 33.10      1.3     0.2             41   -0.1810  222   3 
 HD38     P    a  0514 07.80                              41    1.04 8  226 359 
 HD38     S    a  0514 35.00     0.80     0.2             41    0.63 9  226 359 
 HD40     P    a  0514 09.80                              41    0.93 9  241   5 
 HD40     S    a  0514 38.30     0.70     0.4             41    0.2710  241   5 
 HD64     S    a  0514 39.30     0.60     0.2             41    0.4510  244  25 
 HD41     P    a  0514 10.80                              41    1.14 8  246   9 
 HD41     S    a  0514 40.30      2.3     0.4             41    0.90 9  246   9 
 HD61     S    a  0514 47.00      2.3     0.5             34    1.86 4  272 350 
 HD43     P    a  0514 15.50                              34    2.03 3  276   7 
 HD43     S    a  0514 48.50      3.0     0.8             34    2.51 0  276   7 
 HD60     P    a  0514 15.70                              34    1.97 4  278 341 
 HD60     S    a  0514 48.30      1.8     0.3             34    1.87 4  278 341 
 HD59     S    a  0514 50.40     0.40     0.2             34    2.30 1  285 330 
                                                                                
 2014  130 0238 15.4 R  45.986  97.209  0.0  mon 26 1.6 0.7Lmon                1
 GAP=168        3.51       8.5    11.0 10.1 -0.2226E+02 -0.6197E+01 -0.4280E+02E
 ACTION:REG 17-04-05 21:52 OP:ngse STATUS:               ID:20140130023816     I
 IDC: ellipse    2.7    1.9  45 MB sd+-                  Event ID   458678     3
 * 22 km  N Biger GobiAltai                          ***                       3
 STAT SP IPHASW D HRMM SECON CODA AMPLIT PERI AZIMU VELO AIN AR TRES W  DIS CAZ7
 HD50     P    a  0238 29.70                              46    0.5210 65.5   6 
 HD50     S    a  0238 38.30      6.2     0.3             46   -0.9210 65.5   6 
 HD51     P    a  0238 33.40                              46    0.1610 90.1 359 
 HD51     S    a  0238 45.30      2.8     0.2             46   -0.9510 90.1 359 
 HD66     P    a  0238 36.70                              46   -0.4710  114  36 
 HD66     S    a  0238 50.50      1.2     0.3             46   -2.55 8  114  36 
 HD29     P    a  0238 40.90                              45   -0.3010  139  12 
 HD29     S    a  0238 56.60     0.80     0.3             45   -3.42 6  139  12 
 HD67     P    a  0238 40.50                              45   -2.11 8  148  73 
 HD67     S    a  0238 58.10      1.4     0.2             45   -4.36 3  148  73 
 HD30     P    a  0238 42.80                              45   -0.4410  152  15 
 HD30     S    a  0239 01.20     0.20     0.2             45   -2.35 8  152  15 
 HD71     P    a  0238 44.00                              45    0.3010  155 252 
 HD71     S    a  0239 02.60     0.70     0.2             45   -1.75 9  155 252 
 HD28     P    a  0238 43.80                              45   -0.5910  159  21 
 HD28     S    a  0239 03.80     0.30     0.2             45   -1.74 9  159  21 
 HD31     P    a  0238 45.40                              45   -0.3410  168  14 
 HD31     S    a  0239 05.90     0.30     0.2             45   -1.98 9  168  14 
 HD54     P    a  0238 46.30                              45    0.0810  171 350 
 HD54     S    a  0239 07.90     0.80     0.1             45   -0.8110  171 350 
 HD32     P    a  0238 47.70                              45   -0.2610  182  17 
 HD32     S    a  0239 09.40     0.50     0.2             45   -2.31 8  182  17 
 HD33     S    a  0239 11.60     0.70     0.2             43   -2.23 8  189  19 
 HD47     P    a  0238 53.60                              41   -1.2210  228  84 
 HD47     S    a  0239 18.70     0.40     0.2             41   -4.88 2  228  84 
 HD36     P    a  0238 55.50                              41    0.0310  232  24 
 HD36     S    a  0239 24.40      1.6     0.3             41   -0.3110  232  24 
 HD45     P    a  0238 56.90                              41    0.4210  239  37 
 HD45     S    a  0239 25.90      1.2     0.3             41   -0.5510  239  37 
 HD37     P    a  0238 56.70                              41   -1.48 9  250  25 
 HD37     S    a  0239 30.10      1.1     0.2             41    0.7110  250  25 
 HD59     P    a  0238 59.20                              41    0.6710  253 356 
 HD59     S    a  0239 30.40     0.50     0.3             41    0.4010  253 356 
 HD38     P    a  0239 01.30                              34    1.0310  266  28 
 HD38     S    a  0239 34.10     0.20     0.2             34    1.0910  266  28 
 HD60     P    a  0239 02.00                              34    1.0410  272   7 
 HD60     S    a  0239 34.60     0.40     0.3             34    0.3810  272   7 
 HD61     P    a  0239 04.70                              34    1.74 9  288  16 
 HD61     S    a  0239 39.90     0.40     0.3             34    2.23 8  288  16 
 HD40     P    a  0239 05.20                              34    2.03 8  289  30 
 HD40     S    a  0239 39.60     0.40     0.3             34    1.58 9  289  30 
 HD63     P    a  0239 05.80                              34    2.26 8  292  40 
 HD63     S    a  0239 39.80     0.40     0.2             34    1.13 9  292  40 
 HD41     P    a  0239 06.50                              34    1.84 9  301  33 
 HD41     S    a  0239 43.10     0.60     0.2             34    2.50 8  301  33 
 HD65     P    a  0239 03.60                              34   -1.37 9  304  49 
 HD65     S    a  0239 42.80     0.40     0.2             34    1.66 9  304  49 
 HD42     P    a  0239 09.50                              34    3.01 7  316  32 
 HD42     S    a  0239 47.10      1.1     0.2             34    3.33 6  316  32 
 HD43     P    a  0239 10.80                              34    3.07 6  326  29 
 HD43     S    a  0239 50.00     0.20     0.3             34    4.08 4  326  29 
                                                                                
 2014  131 1230 10.0 R  46.801  96.970  8.9  mon 26 1.1 0.7Lmon                1
 GAP=128        2.59       3.1     6.7  7.1  0.1719E+01  0.2752E+01 -0.3534E+00E
 ACTION:REG 17-04-05 21:52 OP:ngse STATUS:               ID:20140131123011     I
 IDC: ellipse    1.7    1.1  73 MB sd+-                  Event ID   458710     3
 * 20 km  W Shiluustei Zavhan                        ***                       3
 STAT SP IPHASW D HRMM SECON CODA AMPLIT PERI AZIMU VELO AIN AR TRES W  DIS CAZ7
 HD51     P    a  1230 15.60                              46    1.09 9 16.7  92 
 HD51     S    a  1230 18.70      47.     0.2             46    0.92 9 16.7  92 
 HD50     S    a  1230 23.00      33.     0.2             46   -0.0410 35.6 136 
 HD29     P    a  1230 22.40                              46   -0.1610 66.0  47 
 HD29     S    a  1230 30.30      1.4     0.2             46   -1.41 9 66.0  47 
 HD54     P    a  1230 24.40                              46   -0.1710 78.6 351 
 HD54     S    a  1230 33.80      2.8     0.2             46   -1.39 9 78.6 351 
 HD30     P    a  1230 24.80                              46   -0.0010 79.6  45 
 HD30     S    a  1230 33.60      1.2     0.2             46   -1.98 8 79.6  45 
 HD48     P    a  1230 25.20                              46    0.0710 82.1 143 
 HD48     S    a  1230 35.20      5.9     0.2             46   -0.9410 82.1 143 
 HD66     P    a  1230 25.70                              46   -0.0210 85.3  89 
 HD66     S    a  1230 36.60      3.3     0.3             46   -0.5710 85.3  89 
 HD31     P    a  1230 26.70                              46   -0.1910 92.4  38 
 HD31     S    a  1230 37.50      2.2     0.2             46   -1.70 8 92.4  38 
 HD28     P    a  1230 27.50                              46    0.1010 95.3  53 
 HD28     S    a  1230 38.40     0.70     0.2             46   -1.68 8 95.3  53 
 HD32     P    a  1230 29.60                              46   -0.0110  109  40 
 HD32     S    a  1230 41.80     0.80     0.2             46   -2.09 8  109  40 
 HD33     P    a  1230 31.20                              46   -0.0410  119  42 
 HD33     S    a  1230 44.50     0.60     0.2             46   -2.23 7  119  42 
 HD59     P    a  1230 37.80                              45   -0.1310  161 360 
 HD59     S    a  1230 56.60     0.40     0.2             45   -1.69 8  161 360 
 HD67     P    a  1230 38.50                              45   -0.3810  167 107 
 HD67     S    a  1230 59.10     0.70     0.2             45   -0.8310  167 107 
 HD70     P    a  1230 39.10                              43   -1.33 9  177 152 
 HD70     S    a  1231 01.30      1.3     0.3             43   -1.33 9  177 152 
 HD60     P    a  1230 41.90                              41    0.0910  186  16 
 HD60     S    a  1231 04.30      1.0     0.3             41   -0.7010  186  16 
 HD71     S    a  1231 05.60     0.40     0.2             41   -0.0610  189 223 
 HD45     P    a  1230 42.20                              41   -0.3210  191  59 
 HD45     S    a  1231 05.10      1.5     0.2             41   -1.13 9  191  59 
 HD61     P    a  1230 46.10                              41    0.7810  210  28 
 HD61     S    a  1231 11.60      1.6     0.3             41    0.5110  210  28 
 HD40     P    a  1230 49.00                              41    0.93 9  228  46 
 HD40     S    a  1231 16.30      1.2     0.2             41    0.4710  228  46 
 HD46     P    a  1230 49.70                              41    0.5710  236  88 
 HD46     S    a  1231 19.10      1.9     0.3             41    1.42 9  236  88 
 HD41     P    a  1230 51.20                              41    0.95 9  243  48 
 HD41     S    a  1231 20.40     0.60     0.2             41    0.7810  243  48 
 HD63     P    a  1230 51.80                              41    1.16 9  246  57 
 HD63     S    a  1231 21.40      1.1     0.2             41    1.12 9  246  57 
 HD47     P    a  1230 52.80                              34    1.03 9  254 105 
 HD47     S    a  1231 23.40     0.30     0.2             34    1.16 9  254 105 
 HD42     P    a  1230 53.00                              34    0.98 9  257  46 
 HD42     S    a  1231 24.00      1.1     0.2             34    1.33 9  257  46 
 HD43     P    a  1230 54.30                              34    1.47 9  263  43 
 HD57     P    a  1230 57.00                              34    2.30 7  279  40 
 HD57     S    a  1231 29.60      2.1     0.3             34    2.29 7  279  40 
                                                                                
 2014  313 1022 13.1 R  45.845  98.848  6.8  mon 26 1.4 0.8Lmon                1
 GAP=161        3.02       7.3     9.8  9.5 -0.2353E+02  0.2275E+02 -0.4181E+02E
 ACTION:REG 17-04-05 21:52 OP:ngse STATUS:               ID:20140313102213     I
 IDC: ellipse    1.7    1.4 139 MB sd+-                  Event ID   459896     3
 * 44 km SE Buutsagaan Baynhongor                    ***                       3
 STAT SP IPHASW D HRMM SECON CODA AMPLIT PERI AZIMU VELO AIN AR TRES W  DIS CAZ7
 HD67     P    a  1022 23.20                              46   -1.45 9 58.2  16 
 HD67     S    a  1022 30.20      2.7     0.2             46   -2.91 6 58.2  16 
 HD70     P    a  1022 27.80                              46   -0.6610 81.4 232 
 HD70     S    a  1022 38.50      6.7     0.3             46   -1.20 9 81.4 232 
 HD47     P    a  1022 30.00                              46   -2.39 7  106  71 
 HD47     S    a  1022 41.70      3.3     0.2             46   -4.79 0  106  71 
 HD66     P    a  1022 35.30                              46    0.1510  123 332 
 HD66     S    a  1022 49.60     0.40     0.2             46   -1.67 9  123 332 
 HD46     P    a  1022 36.70                              45   -1.79 9  144  40 
 HD46     S    a  1022 53.60      5.4     0.3             45   -3.45 5  144  40 
 HD28     P    a  1022 44.20                              45    0.4610  176 338 
 HD28     S    a  1023 04.50     0.20     0.2             45   -1.64 9  176 338 
 HD29     P    a  1022 45.30                              43    1.23 9  179 328 
 HD29     S    a  1023 05.50     0.30     0.2             43   -1.20 9  179 328 
 HD30     P    a  1022 44.90                              43   -0.0210  184 332 
 HD30     S    a  1023 06.90     0.60     0.2             43   -1.27 9  184 332 
 HD31     P    a  1022 47.20                              41    0.2710  198 335 
 HD31     S    a  1023 11.00     0.20     0.2             41   -0.6610  198 335 
 HD32     P    a  1022 48.30                              41    0.6510  203 339 
 HD32     S    a  1023 13.60     0.70     0.2             41    0.7010  203 339 
 HD33     P    a  1022 48.30                              41    0.3410  204 342 
 HD33     S    a  1023 13.80     0.30     0.2             41    0.3710  204 342 
 HD45     P    a  1022 47.60                              41   -0.3410  205   6 
 HD45     S    a  1023 12.00     0.90     0.2             41   -1.41 9  205   6 
 HD34     S    a  1023 14.90     0.50     0.2             41   -0.7110  213 350 
 HD35     S    a  1023 19.20      1.0     0.2             41    0.3710  226 350 
 HD36     P    a  1022 52.00                              41    0.3810  229 353 
 HD36     S    a  1023 19.90     0.60     0.2             41    0.1310  229 353 
 HD65     P    a  1022 52.50                              41   -0.2710  238  26 
 HD65     S    a  1023 20.70      1.6     0.2             41   -1.06 9  238  26 
 HD63     P    a  1022 54.30                              41    0.4510  245  16 
 HD63     S    a  1023 23.20      1.1     0.2             41   -0.4210  245  16 
 HD38     P    a  1022 54.90                              41    0.3010  250   0 
 HD38     S    a  1023 23.90     0.40     0.2             41   -1.0210  250   0 
 HD40     P    a  1022 57.60                              34    1.13 9  264   5 
 HD40     S    a  1023 27.20     0.50     0.2             34   -0.9610  264   5 
 HD41     P    a  1022 58.50                              34    1.35 9  270   9 
 HD41     S    a  1023 30.40      1.1     0.2             34    1.07 9  270   9 
 HD62     P    a  1022 58.00                              34    0.7910  270  16 
 HD62     S    a  1023 30.10     0.80     0.3             34    0.6510  270  16 
 HD42     P    a  1023 00.70                              34    1.65 9  286   9 
 HD42     S    a  1023 34.80      1.5     0.2             34    2.17 8  286   9 
 HD61     S    a  1023 37.60     0.40     0.3             34    3.02 6  295 352 
 HD60     P    a  1023 03.90                              34    3.17 6  299 343 
 HD60     S    a  1023 38.50     0.30     0.2             34    2.98 6  299 343 
 HD43     P    a  1023 03.10                              34    2.24 8  300   8 
 HD43     S    a  1023 38.30     0.40     0.2             34    2.55 7  300   8 
 HD57     P    a  1023 09.20                              34    5.98 0  319   7 
 HD57     S    a  1023 44.50      3.5     0.2             34    4.67 0  319   7 
                                                                                
