 2013  418 0258  6.9 R  46.247  97.067  0.0  mon 27 1.6 0.5Lmon                1
 GAP=262        3.38      10.9    12.8  9.6  0.7748E+02 -0.4328E+02 -0.7342E+02E
 ACTION:REG 17-04-05 21:52 OP:ngse STATUS:               ID:20130418025804     I
 IDC: ellipse    2.9    2.3  61 MB sd+-                  Event ID   451450     3
 * 51 km SW Delger GobiAltai                         ***                       3
 STAT SP IPHASW D HRMM SECON CODA AMPLIT PERI AZIMU VELO AIN AR TRES W  DIS CAZ7
 HD48     P    a  0258 15.50                              92   -0.8310 42.0  96 
 HD48     S    a  0258 22.40                              92   -0.8510 42.0  96 
 HD66     P    a  0258 25.70                              46   -0.6910  100  51 
 HD66     S    a  0258 40.30     0.80     0.2             46   -0.3610  100  51 
 HD30     P    a  0258 29.80                              46   -1.05 9  128  22 
 HD30     S    a  0258 46.90     0.30     0.1             46   -1.46 9  128  22 
 HD28     P    a  0258 31.50                              45   -0.9410  137  30 
 HD28     S    a  0258 49.70     0.30     0.2             45   -1.42 9  137  30 
 HD31     P    a  0258 32.30                              45   -1.0010  143  21 
 HD31     S    a  0258 51.10     0.50     0.2             45   -1.51 9  143  21 
 HD67     P    a  0258 33.60                              45   -1.31 9  153  85 
 HD67     S    a  0258 54.10     0.40     0.2             45   -1.29 9  153  85 
 HD27     P    a  0258 34.80                              45   -0.7110  157  40 
 HD27     S    a  0258 55.90                              45   -0.5410  157  40 
 HD32     P    a  0258 34.70                              45   -0.9810  158  23 
 HD32     S    a  0258 55.30     0.30     0.2             45   -1.42 9  158  23 
 HD26     P    a  0258 35.90                              45   -0.8310  164  50 
 HD26     S    a  0258 57.70     0.30     0.2             45   -0.8410  164  50 
 HD33     P    a  0258 36.10                              45   -0.9610  166  26 
 HD33     S    a  0258 58.00     0.20     0.2             45   -1.11 9  166  26 
 HD56     P    a  0258 38.10                              45   -0.5210  176  43 
 HD56     S    a  0259 01.30     0.30     0.2             45   -0.5110  176  43 
 HD36     P    a  0258 44.00                              41    0.2110  211  29 
 HD36     S    a  0259 11.70     0.20     0.2             41    0.9410  211  29 
 HD59     P    a  0258 44.50                              41   -1.10 9  223 358 
 HD59     S    a  0259 12.90     0.30     0.2             41   -0.9810  223 358 
 HD45     P    a  0258 46.50                              41    0.7710  224  44 
 HD45     S    a  0259 16.10      1.5     0.3             41    2.00 9  224  44 
 HD47     P    a  0258 47.10                              41   -0.6410  238  92 
 HD47     S    a  0259 16.90     0.40     0.3             41   -0.7010  238  92 
 HD46     S    a  0259 19.70     0.90     0.3             41    1.91 9  238  73 
 HD38     P    a  0258 49.80                              41    0.7610  246  33 
 HD38     S    a  0259 20.70     0.10     0.2             41    0.8610  246  33 
 HD39     P    a  0258 50.30                              41    0.6010  251  36 
 HD39     S    a  0259 22.70     0.60     0.3             41    1.73 9  251  36 
 HD61     S    a  0259 25.90     0.50     0.3             34    1.99 9  264  20 
 HD40     P    a  0258 53.70                              34    1.3910  271  35 
 HD40     S    a  0259 28.30     0.40     0.2             34    2.81 8  271  35 
 HD63     P    a  0258 55.00                              34    1.72 9  278  46 
 HD63     S    a  0259 30.90     0.60     0.3             34    3.73 6  278  46 
 HD41     S    a  0259 32.60     0.60     0.3             34    4.30 5  284  38 
 HD65     P    a  0258 57.90                              34    2.68 8  294  54 
 HD65     S    a  0259 35.00     0.30     0.2             34    4.48 4  294  54 
 HD42     S    a  0259 36.80      1.2     0.2             34    5.44 1  298  37 
 HD62     S    a  0259 37.10     0.30     0.2             34    5.26 2  300  43 
 HD43     S    a  0259 39.00                              34    5.72 0  307  34 
 HD64     P    a  0259 00.70                              34    2.78 8  316  50 
 HD64     S    a  0259 40.50     0.60     0.3             34    5.31 2  316  50 
                                                                                
 2013  712 0627  6.1 R  46.718  99.391  9.4  mon 27 0.7 0.6Lmon                1
 GAP= 75        1.71       2.0     2.7  8.1  0.7274E+00 -0.5205E+01 -0.4082E+01E
 ACTION:REG 17-04-05 21:52 OP:ngse STATUS:               ID:20130712062707     I
 IDC: ellipse    0.9    0.7  17 MB sd+-                  Event ID   452850     3
 * 32 km SE Zag Baynhongor                           ***                       3
 STAT SP IPHASW D HRMM SECON CODA AMPLIT PERI AZIMU VELO AIN AR TRES W  DIS CAZ7
 HD25     P    a  0627 13.80                              91    0.79 9 31.8   2 
 HD25     S    a  0627 17.90      2.8     0.2             91   -0.1610 31.8   2 
 HD67     P    a  0627 16.30                              91    0.5310 48.5 213 
 HD67     S    a  0627 22.20                              91   -0.62 9 48.5 213 
 HD46     P    a  0627 16.60                              91    0.2010 52.5  76 
 HD46     S    a  0627 22.70      5.0     0.2             91   -1.21 8 52.5  76 
 HD26     P    a  0627 19.80                              90    0.2210 71.5 316 
 HD26     S    a  0627 28.00      1.6     0.3             90   -1.41 7 71.5 316 
 HD24     P    a  0627 21.80                              90    0.3610 83.2  38 
 HD24     S    a  0627 32.00      5.0     0.2             90   -0.63 9 83.2  38 
 HD47     P    a  0627 22.00                              90    0.1510 86.0 137 
 HD47     S    a  0627 31.90      1.1     0.2             90   -1.43 7 86.0 137 
 HD27     P    a  0627 24.50                              90    0.1710  101 312 
 HD27     S    a  0627 35.50     0.70     0.2             90   -2.13 3  101 312 
 HD45     P    a  0627 26.00                              90    0.5010  108 350 
 HD45     S    a  0627 38.60      3.2     0.4             90   -1.06 8  108 350 
 HD06     P    a  0627 27.20                              78    0.2710  117 117 
 HD06     S    a  0627 41.00      2.0     0.3             78   -1.13 8  117 117 
 HD23     P    a  0627 28.30                              78    0.3510  124  44 
 HD23     S    a  0627 43.20      2.1     0.2             78   -0.70 9  124  44 
 HD28     P    a  0627 29.00                              78    0.5210  126 302 
 HD28     S    a  0627 43.60     0.50     0.2             78   -1.21 8  126 302 
 HD65     P    a  0627 29.70                              76    0.3810  132  29 
 HD65     S    a  0627 44.90      4.6     0.2             76   -1.37 7  132  29 
 HD16     P    a  0627 30.00                              76    0.3710  134  66 
 HD16     S    a  0627 46.20      6.5     0.2             76   -0.61 9  134  66 
 HD63     P    a  0627 31.40                              76    0.73 9  140  11 
 HD63     S    a  0627 48.40      1.4     0.2             76   -0.1910  140  11 
 HD33     P    a  0627 31.90                              76    0.87 9  142 314 
 HD33     S    a  0627 48.40     0.50     0.2             76   -0.82 9  142 314 
 HD07     P    a  0627 31.70                              76    0.60 9  144 126 
 HD07     S    a  0627 48.90     0.90     0.2             76   -0.4510  144 126 
 HD32     P    a  0627 32.50                              76    0.96 9  146 310 
 HD32     S    a  0627 49.50     0.60     0.2             76   -0.61 9  146 310 
 HD48     P    a  0627 32.20                              76    0.3810  148 248 
 HD48     S    a  0627 49.70      1.4     0.3             76   -0.89 9  148 248 
 HD17     P    a  0627 32.10                              76    0.2210  148  64 
 HD17     S    a  0627 50.50      1.3     0.2             76   -0.2010  148  64 
 HD39     P    a  0627 30.40                              76   -1.84 5  150 350 
 HD39     S    a  0627 51.30     0.30     0.2             76   -0.0110  150 350 
 HD64     P    a  0627 34.90                              76    0.91 9  162  25 
 HD64     S    a  0627 53.80      1.4     0.4             76   -0.5510  162  25 
 HD40     P    a  0627 35.90                              76    1.04 8  167 354 
 HD40     S    a  0627 55.30      1.7     0.3             76   -0.5510  167 354 
 HD41     P    a  0627 37.60                              76    2.33 2  170   0 
 HD41     S    a  0627 57.10      1.7     0.2             76    0.5510  170   0 
 HD19     P    a  0627 36.10                              76    0.61 9  171  58 
 HD19     S    a  0627 56.80     0.60     0.2             76   -0.1310  171  58 
 HD22     P    a  0627 38.50                              65    0.80 9  186  75 
 HD22     S    a  0628 00.40      1.3     0.3             65   -0.3610  186  75 
 HD43     S    a  0628 05.30     0.70     0.2             65    0.81 9  200 360 
 HD21     P    a  0627 42.00                              65    1.06 8  208  47 
 HD21     S    a  0628 06.90      1.3     0.2             65    0.5310  208  47 
                                                                                
 2014  211 1114  0.5 R  45.825  98.637  7.3  mon 27 1.2 0.7Lmon                1
 GAP= 94        2.22       4.5     5.8  7.1 -0.6281E+01  0.1094E+02 -0.1713E+02E
 ACTION:REG 17-04-05 21:52 OP:ngse STATUS:               ID:20140211111401     I
 IDC: ellipse    1.7    1.2  35 MB sd+-                  Event ID   459030     3
 * 42 km  S Buutsagaan Baynhongor                    ***                       3
 STAT SP IPHASW D HRMM SECON CODA AMPLIT PERI AZIMU VELO AIN AR TRES W  DIS CAZ7
 HD67     P    a  1114 12.20                              46   -1.20 9 66.5  29 
 HD67     S    a  1114 20.10      2.4     0.2             46   -2.69 5 66.5  29 
 HD70     P    a  1114 14.20                              46    0.5910 67.7 225 
 HD70     S    a  1114 23.50      2.8     0.3             46    0.3410 67.7 225 
 HD48     P    a  1114 17.70                              46    0.4810 90.4 299 
 HD48     S    a  1114 29.40      5.7     0.2             46   -0.0110 90.4 299 
 HD66     P    a  1114 21.70                              46   -0.0610  118 339 
 HD66     S    a  1114 36.10      1.2     0.3             46   -1.15 9  118 339 
 HD47     P    a  1114 20.60                              46   -1.83 7  122  72 
 HD47     S    a  1114 34.20      1.3     0.2             46   -4.21 0  122  72 
 HD50     S    a  1114 40.80      1.4     0.2             45   -0.5110  133 309 
 HD51     P    a  1114 28.20                              45    0.4710  155 315 
 HD51     S    a  1114 47.00      2.1     0.2             45   -0.5810  155 315 
 HD46     P    a  1114 26.80                              45   -1.08 9  156  44 
 HD46     S    a  1114 44.80     0.70     0.2             45   -3.04 3  156  44 
 HD28     P    a  1114 30.30                              45   -0.3010  173 343 
 HD28     S    a  1114 50.90     0.40     0.2             45   -1.65 8  173 343 
 HD29     P    a  1114 30.60                              45    0.0910  173 333 
 HD29     S    a  1114 50.80     0.40     0.2             45   -1.59 8  173 333 
 HD30     P    a  1114 31.30                              43   -0.2410  179 337 
 HD30     S    a  1114 53.60     0.40     0.2             43   -0.5810  179 337 
 HD69     P    a  1114 30.00                              43   -1.97 7  183 130 
 HD69     S    a  1114 51.10      2.9     0.2             43   -3.82 0  183 130 
 HD31     P    a  1114 33.60                              41   -0.0810  194 339 
 HD31     S    a  1114 57.20     0.80     0.2             41   -0.6710  194 339 
 HD32     P    a  1114 34.70                              41    0.1210  200 344 
 HD32     S    a  1114 58.60     0.40     0.2             41   -0.84 9  200 344 
 HD33     P    a  1114 35.30                              41    0.2910  202 347 
 HD33     S    a  1115 00.40     0.20     0.2             41    0.2210  202 347 
 HD34     S    a  1115 02.10     0.50     0.2             41   -0.79 9  213 354 
 HD35     P    a  1114 39.30                              41    0.8410  226 354 
 HD35     S    a  1115 06.70     0.50     0.2             41    0.5510  226 354 
 HD36     P    a  1114 39.80                              41    0.7010  230 356 
 HD36     S    a  1115 07.30     0.80     0.3             41    0.0410  230 356 
 HD54     P    a  1114 42.00                              41    2.53 5  233 324 
 HD54     S    a  1115 08.80     0.30     0.2             41    0.91 9  233 324 
 HD65     P    a  1114 42.10                              41    0.5210  247  29 
 HD65     S    a  1115 11.40     0.70     0.2             41   -0.1410  247  29 
 HD63     S    a  1115 13.50     0.40     0.2             34    0.7810  252  19 
 HD38     P    a  1114 43.60                              34    1.23 9  252   4 
 HD38     S    a  1115 13.70     0.40     0.2             34    0.7910  252   4 
 HD41     P    a  1114 47.00                              34    1.83 8  275  12 
 HD41     S    a  1115 20.20     0.80     0.3             34    2.45 6  275  12 
 HD42     P    a  1114 50.10                              34    3.02 4  291  12 
 HD42     S    a  1115 24.00      1.1     0.2             34    2.94 4  291  12 
 HD60     P    a  1114 51.10                              34    3.28 2  297 346 
 HD60     S    a  1115 26.70     0.60     0.3             34    4.35 0  297 346 
 HD59     P    a  1114 51.40                              34    3.31 2  298 335 
 HD59     S    a  1115 26.30     0.10     0.2             34    3.49 1  298 335 
 HD43     P    a  1114 52.40                              34    3.57 1  305  10 
 HD43     S    a  1115 27.60     0.30     0.3             34    3.52 1  305  10 
                                                                                
 2014  326 1103  6.7 R  46.072  96.936  0.2  mon 26 1.9 0.8Lmon                1
 GAP=229        4.19      11.8    23.0 16.4  0.1651E+03 -0.2491E+03 -0.1291E+03E
 ACTION:REG 17-04-05 21:52 OP:ngse STATUS:               ID:20140326110305     I
 IDC: ellipse    2.7    2.2  58 MB sd+-                  Event ID   460191     3
 * 48 km NW Biger GobiAltai                          ***                       3
 STAT SP IPHASW D HRMM SECON CODA AMPLIT PERI AZIMU VELO AIN AR TRES W  DIS CAZ7
 HD70     P    a  1103 26.80                              46   -1.66 9  114 131 
 HD70     S    a  1103 40.90      1.8     0.3             46   -3.42 7  114 131 
 HD66     P    a  1103 28.80                              46   -0.7710  121  47 
 HD66     S    a  1103 45.00      1.5     0.3             46   -1.2610  121  47 
 HD29     P    a  1103 30.60                              45   -1.43 9  136  22 
 HD29     S    a  1103 48.00                              45   -2.50 8  136  22 
 HD30     P    a  1103 32.90                              45   -1.2810  150  23 
 HD30     S    a  1103 52.80     0.80     0.2             45   -1.42 9  150  23 
 HD28     P    a  1103 34.70                              45   -1.0610  159  30 
 HD28     S    a  1103 54.90     0.30     0.2             45   -2.06 9  159  30 
 HD31     P    a  1103 35.30                              45   -1.30 9  165  21 
 HD31     S    a  1103 56.10     0.30     0.2             45   -2.31 8  165  21 
 HD67     P    a  1103 35.20                              45   -1.58 9  166  79 
 HD67     S    a  1103 57.30     0.90     0.2             45   -1.42 9  166  79 
 HD32     P    a  1103 37.80                              45   -1.1910  180  24 
 HD32     S    a  1104 01.80     0.60     0.2             45   -0.7510  180  24 
 HD33     P    a  1103 39.20                              43   -1.1510  188  26 
 HD33     S    a  1104 04.00     0.30     0.1             43   -0.8910  188  26 
 HD34     S    a  1104 11.40      1.0     0.3             41    0.2310  213  30 
 HD35     S    a  1104 14.80     0.70     0.3             41    0.7410  224  28 
 HD36     P    a  1103 46.80                              41   -0.0810  233  29 
 HD36     S    a  1104 16.10     0.30     0.2             41   -0.1010  233  29 
 HD59     P    a  1103 47.10                              41   -1.2110  242   0 
 HD59     S    a  1104 17.50     0.30     0.2             41   -1.1710  242   0 
 HD45     P    a  1103 49.20                              41    0.5010  245  43 
 HD45     S    a  1104 19.40      1.4     0.3             41    0.0610  245  43 
 HD47     S    a  1104 19.60      1.1     0.2             41   -0.4710  248  87 
 HD46     S    a  1104 23.50      1.9     0.4             41    1.84 9  254  70 
 HD60     P    a  1103 51.40                              34   -0.1210  266  12 
 HD60     S    a  1104 24.90     0.40     0.3             34    0.6910  266  12 
 HD38     P    a  1103 52.60                              34    0.7510  268  32 
 HD38     S    a  1104 26.20     0.50     0.3             34    1.4010  268  32 
 HD61     P    a  1103 55.10                              34    1.1410  286  21 
 HD61     S    a  1104 30.60     0.60     0.2             34    2.16 9  286  21 
 HD40     S    a  1104 32.90     0.70     0.3             34    2.88 8  292  35 
 HD63     P    a  1103 57.90                              34    2.17 9  299  44 
 HD63     S    a  1104 35.10     0.50     0.2             34    3.59 7  299  44 
 HD41     S    a  1104 37.30     0.90     0.3             34    4.51 5  305  37 
 HD65     P    a  1104 00.10                              34    2.57 8  314  52 
 HD65     S    a  1104 38.30     0.60     0.2             34    3.69 7  314  52 
 HD42     P    a  1104 01.00                              34    2.75 8  320  36 
 HD42     S    a  1104 40.70      1.2     0.2             34    4.83 4  320  36 
 HD62     P    a  1104 01.10                              34    2.63 8  321  42 
 HD62     S    a  1104 40.70     0.30     0.2             34    4.46 5  321  42 
 HD64     P    a  1104 04.30                              34    3.99 6  336  48 
                                                                                
