 2016 1031 1211  0.1 R  46.198 106.911 11.2  mon  5 0.2-0.8Lmon                1
 GAP=116        0.46       2.1     1.5  3.2  0.2678E+00  0.8509E+00  0.1906E+01E
 ACTION:REG 18-10-16 09:42 OP:ngse STATUS:               ID:20161031121100     I
 IDC: ellipse    4.0    2.2 174 MB sd+-                  Event ID       26     3
 * 17 km  E Deren Dundgobi                           ***                       3
 STAT SP IPHASW D HRMM SECON CODA AMPLIT PERI AZIMU VELO AIN AR TRES W  DIS CAZ7
 DR07     P    a  1211 02.00                             161   -0.2410 4.33 354 
 DR07     S    a  1211 03.70     0.40     0.2            161   -0.1210 4.33 354 
 DR04     P    a  1211 03.10                             134    0.0910 12.8  83 
 DR04     S    a  1211 05.40      1.1     0.3            134    0.2610 12.8  83 
 DR03     P    a  1211 03.20                             130   -0.0910 15.1 232 
 DR03     S    a  1211 05.70     0.60     0.2            130    0.0710 15.1 232 
 DR06     P    a  1211 03.20                             129   -0.1310 15.4 116 
 DR06     S    a  1211 05.70     0.80     0.2            129   -0.0110 15.4 116 
 DR05     S    a  1211 09.00     0.70     0.2            114    0.1710 28.2 284 
                                                                                
 2016 1031 1428 36.5 R  46.225 106.640  6.2  mon  5 0.1-0.4Lmon                1
 GAP=165        0.43       2.4     1.6  3.0  0.2824E+01  0.2556E+00  0.1454E+01E
 ACTION:REG 18-10-16 09:42 OP:ngse STATUS:               ID:20161031142836     I
 IDC: ellipse    3.9    1.3  25 MB sd+-                  Event ID       27     3
 * 4 km  W Deren Dundgobi                            ***                       3
 STAT SP IPHASW D HRMM SECON CODA AMPLIT PERI AZIMU VELO AIN AR TRES W  DIS CAZ7
 DR05     P    a  1428 38.20                             136   -0.0910 7.55 301 
 DR05     S    a  1428 39.60      3.6     0.2            136    0.0210 7.55 301 
 DR03     P    a  1428 39.10                             116   -0.2310 15.4 144 
 DR03     S    a  1428 41.50      1.3     0.3            116    0.1210 15.4 144 
 DR06     P    a  1428 42.50                             102   -0.0610 36.1 106 
 DR06     S    a  1428 47.10      1.1     0.3            102    0.1410 36.1 106 
 DR02     S    a  1428 47.70                             101   -0.1010 39.0 272 
 DR01     S    a  1428 53.00                              98    0.2110 56.9 278 
                                                                                
 2016 1031 1738 17.5 R  46.161 106.071 15.7  mon  5 0.0-0.7Lmon                1
 GAP=163        0.28       1.0     1.4  2.0  0.6228E+00  0.4127E+00  0.8201E+00E
 ACTION:REG 18-10-16 09:42 OP:ngse STATUS:               ID:20161031173818     I
 IDC: ellipse    5.6    3.1  43 MB sd+-                  Event ID       27     3
 * 19 km  N Tevshyn gobi coal mine                   ***                       3
 STAT SP IPHASW D HRMM SECON CODA AMPLIT PERI AZIMU VELO AIN AR TRES W  DIS CAZ7
 DR02     P    a  1738 20.70                             151   -0.0610 9.48  31 
 DR02     S    a  1738 23.10      1.4     0.3            151   -0.0110 9.48  31 
 DR10     P    a  1738 21.10                             143    0.0210 13.0 109 
 DR10     S    a  1738 23.70                             143    0.0510 13.0 109 
 DR01     P    a  1738 21.90                             131    0.0810 19.7 321 
 DR01     S    a  1738 24.90     0.70     0.2            131   -0.0410 19.7 321 
 DR05     P    a  1738 27.50                             114    2.98 0 39.0  74 
 DR05     S    a  1738 29.60     0.20     0.2            114   -0.0110 39.0  74 
 MDGM     S    a  1738 33.20                             108   -0.0310 52.7 158 
                                                                                
 2016 11 1 0124 32.5 R  46.158 106.829 15.0  mon  5 0.4-0.5Lmon                1
 GAP=132        0.66       5.5     3.0  5.9  0.8865E+01 -0.8081E+01 -0.2015E+02E
 ACTION:REG 18-10-16 09:42 OP:ngse STATUS:               ID:20161101012433     I
 IDC: ellipse    3.1    1.6   0 MB sd+-                  Event ID       27     3
 * 12 km  E Deren Dundgobi                           ***                       3
 STAT SP IPHASW D HRMM SECON CODA AMPLIT PERI AZIMU VELO AIN AR TRES W  DIS CAZ7
 DR03     P    a  0124 35.60                             156    0.2010 7.40 228 
 DR03     S    a  0124 37.50      1.2     0.2            156   -0.0410 7.40 228 
 DR07     S    a  0124 36.00                             147   -1.95 3 10.5  34 
 DR04     P    a  0124 36.40                             129   -0.2710 19.9  72 
 DR06     P    a  0124 36.70                             129   -0.0210 20.3  96 
 DR06     S    a  0124 39.80      1.5     0.2            129   -0.0310 20.3  96 
 DR05     P    a  0124 37.50                             125    0.2810 23.9 298 
 DR05     S    a  0124 40.70                             125    0.0110 23.9 298 
                                                                                
 2016 11 1 0145 42.5 R  46.208 106.720  6.2  mon  5 0.1-0.4Lmon                1
 GAP=163        0.39       1.8     1.2  4.3 -0.4700E+00  0.1430E+01 -0.4120E+01E
 ACTION:REG 18-10-16 09:42 OP:ngse STATUS:               ID:20161101014542     I
 IDC: ellipse    2.5    1.6 163 MB sd+-                  Event ID       27     3
 * 2 km  E Deren Dundgobi                            ***                       3
 STAT SP IPHASW D HRMM SECON CODA AMPLIT PERI AZIMU VELO AIN AR TRES W  DIS CAZ7
 DR03     P    a  0145 44.60                             125   -0.0810 10.8 164 
 DR03     S    a  0145 46.30                             125    0.0410 10.8 164 
 DR07     P    a  0145 45.10                             117   -0.1110 14.6  77 
 DR07     S    a  0145 47.10                             117   -0.0710 14.6  77 
 DR04     S    a  0145 50.80      1.1     0.3            105    0.2410 27.4  89 
 DR06     P    a  0145 47.40                             104   -0.1210 29.6 105 
 DR06     S    a  0145 51.20      1.1     0.3            104    0.0310 29.6 105 
 DR02     S    a  0145 55.60                             100    0.0710 45.3 274 
                                                                                
 2016 11 1 0148  7.8 R  46.201 106.498 12.8  mon  9 0.2-0.9Lmon                1
 GAP=111        0.51       1.5     1.0  2.7 -0.6868E-01  0.3443E-01  0.1407E+01E
 ACTION:REG 18-10-16 09:42 OP:ngse STATUS:               ID:20161101014807     I
 IDC: ellipse    2.0    1.0 177 MB sd+-                  Event ID       27     3
 * 15 km  W Deren Dundgobi                           ***                       3
 STAT SP IPHASW D HRMM SECON CODA AMPLIT PERI AZIMU VELO AIN AR TRES W  DIS CAZ7
 DR05     P    a  0148 10.30                             151   -0.1310 7.96  34 
 DR05     S    a  0148 12.20     0.70     0.2            151   -0.1810 7.96  34 
 DR03     P    a  0148 12.10                             122    0.0210 22.3 116 
 DR03     S    a  0148 15.30                             122    0.0710 22.3 116 
 DR10     P    a  0148 12.30                             123    0.2010 22.4 247 
 DR10     S    a  0148 15.50                             123    0.2310 22.4 247 
 DR02     S    a  0148 16.80                             117    0.0710 28.3 278 
 DR07     P    a  0148 13.00                             114   -0.4310 31.7  83 
 DR07     S    a  0148 17.60                             114    0.0310 31.7  83 
 DR04     P    a  0148 15.40                             108   -0.0010 44.6  88 
 DR04     S    a  0148 21.20                             108    0.2110 44.6  88 
 DR06     S    a  0148 21.70                             107    0.2410 46.3  99 
 DR01     P    a  0148 15.80                             107    0.0710 46.6 284 
 DR01     S    a  0148 21.50                             107   -0.0610 46.6 284 
 MDGM     P    a  0148 16.90                             105   -0.1010 54.7 194 
 MDGM     S    a  0148 23.50                             105   -0.2610 54.7 194 
                                                                                
 2016 11 1 0204 39.1 R  46.202 106.715  8.9  mon  8 0.2-0.4Lmon                1
 GAP=137        0.51       1.9     1.1  3.6  0.3096E+00  0.7633E+00 -0.1545E+01E
 ACTION:REG 18-10-16 09:42 OP:ngse STATUS:               ID:20161101020439     I
 IDC: ellipse    3.8    1.7   2 MB sd+-                  Event ID       27     3
 * 3 km  E Deren Dundgobi                            ***                       3
 STAT SP IPHASW D HRMM SECON CODA AMPLIT PERI AZIMU VELO AIN AR TRES W  DIS CAZ7
 DR03     P    a  0204 41.30                             135   -0.1510 10.4 161 
 DR03     S    a  0204 43.10      2.6     0.2            135   -0.1010 10.4 161 
 DR05     P    a  0204 41.80                             127   -0.1010 13.8 298 
 DR05     S    a  0204 44.00                             127    0.0410 13.8 298 
 DR07     P    a  0204 42.00                             124   -0.0610 15.2  75 
 DR07     S    a  0204 44.10                             124   -0.1410 15.2  75 
 DR04     P    a  0204 43.60                             110   -0.3210 27.8  88 
 DR04     S    a  0204 47.70                             110    0.2410 27.8  88 
 DR06     S    a  0204 48.30                             109    0.2910 29.8 104 
 DR10     S    a  0204 50.40                             105    0.0610 38.4 257 
 DR02     S    a  0204 52.10                             103   -0.0210 44.9 275 
 DR01     P    a  0204 51.80                              99    2.28 0 63.0 280 
 DR01     S    a  0204 57.40                              99    0.2510 63.0 280 
                                                                                
 2016 11 1 0711  8.0 R  46.166 106.499  0.0  mon  5 0.3-0.8Lmon                1
 GAP=151        0.74       3.1     1.8 39.4 -0.1068E+01 -0.1030E+02  0.7860E+02E
 ACTION:REG 18-10-16 09:42 OP:ngse STATUS:               ID:20161101071107     I
 IDC: ellipse    4.3    2.3 174 MB sd+-                  Event ID       28     3
 * 12 km  E Delgertsogt Dundgobi                     ***                       3
 STAT SP IPHASW D HRMM SECON CODA AMPLIT PERI AZIMU VELO AIN AR TRES W  DIS CAZ7
 DR05     P    a  0711 09.70                              97   -0.2210 11.4  23 
 DR05     S    a  0711 11.20      1.3     0.2             97   -0.0910 11.4  23 
 DR03     P    a  0711 10.90                              94   -0.57 9 20.8 106 
 DR03     S    a  0711 14.10                              94    0.1410 20.8 106 
 DR10     P    a  0711 11.40                              94   -0.1310 21.2 257 
 DR10     S    a  0711 14.20                              94    0.1210 21.2 257 
 DR02     S    a  0711 16.50                              93    0.1910 29.1 285 
 DR07     P    a  0711 13.40                              92    0.0510 32.3  76 
 DR07     S    a  0711 17.70                              92    0.4910 32.3  76 
                                                                                
 2016 11 1 1142  6.9 R  46.221 106.512  7.7  mon  6 0.2                        1
 GAP=121        0.60       3.0     1.5  3.8  0.1461E+01  0.1457E+01  0.5882E+01E
 ACTION:REG 18-10-16 09:42 OP:ngse STATUS:               ID:20161101114206     I
 IDC: ellipse    4.6    1.9   7 MB sd+-                  Event ID      282     3
 * 14 km NE Delgertsogt Dundgobi                     ***                       3
 STAT SP IPHASW D HRMM SECON CODA AMPLIT PERI AZIMU VELO AIN AR TRES W  DIS CAZ7
 DR05     P    a  1142 08.60                             149   -0.1010 5.50  38 
 DR05     S    a  1142 10.00                             149    0.0210 5.50  38 
 DR03     P    a  1142 10.80                             112   -0.1110 22.5 122 
 DR03     S    a  1142 13.70                             112   -0.1010 22.5 122 
 DR10     S    a  1142 14.40                             111    0.1010 24.3 243 
 DR02     P    a  1142 11.40                             108   -0.54 9 29.1 273 
 DR02     S    a  1142 15.70                             108    0.1110 29.1 273 
 DR06     P    a  1142 14.60                             101    0.0410 45.6 102 
 DR06     S    a  1142 20.40                             101    0.2810 45.6 102 
 DR01     S    a  1142 20.80                             101    0.2410 47.2 281 
                                                                                
 2016 11 2 2017 53.7 R  46.220 106.057 20.3  mon  9 0.2 0.2Lmon                1
 GAP=149        0.56       1.8     2.0  2.3  0.1979E+00 -0.2166E+01  0.7122E+00E
 ACTION:REG 18-10-16 09:42 OP:ngse STATUS:               ID:20161102201752     I
 IDC: ellipse    3.4    2.3   5 MB sd+-                  Event ID      295     3
 * 29 km SE Adaatsag Dundgobi                        ***                       3
 STAT SP IPHASW D HRMM SECON CODA AMPLIT PERI AZIMU VELO AIN AR TRES W  DIS CAZ7
 DR02     P    a  2017 57.40                             164    0.0310 6.22  75 
 DR02     S    a  2018 00.20      7.9     0.3            164    0.1310 6.22  75 
 DR01     P    a  2017 57.90                             147   -0.0110 14.3 308 
 DR01     S    a  2018 01.00      3.4     0.2            147   -0.0210 14.3 308 
 DR10     P    a  2017 58.20                             142    0.0010 17.2 129 
 DR10     S    a  2018 01.70      4.9     0.2            142    0.1810 17.2 129 
 DR05     P    a  2018 00.70                             119   -0.2310 38.8  83 
 DR05     S    a  2018 05.60      3.0     0.3            119   -0.64 9 38.8  83 
 DR03     P    a  2018 03.60                             111    0.2010 55.4 102 
 DR03     S    a  2018 10.40      1.7     0.2            111   -0.1110 55.4 102 
 MDGM     P    a  2018 03.80                             110   -0.1710 59.2 159 
 MDGM     S    a  2018 11.40                             110   -0.1010 59.2 159 
 DR07     P    a  2018 05.10                             108    0.1610 65.5  88 
 DR07     S    a  2018 13.10                             108   -0.0810 65.5  88 
 DR04     P    a  2018 07.00                             105    0.0010 78.6  90 
 DR04     S    a  2018 16.90                             105    0.1710 78.6  90 
 DR06     P    a  2018 07.40                             105    0.1310 80.3  96 
 DR06     S    a  2018 17.50                             105    0.2910 80.3  96 
                                                                                
 2016 11 2 2018 24.4 R  46.217 106.059 20.6  mon  9 0.2 0.2Lmon                1
 GAP=149        0.54       1.7     1.9  2.3  0.1462E+00 -0.2072E+01  0.8314E+00E
 ACTION:REG 18-10-16 09:42 OP:ngse STATUS:               ID:20161102201823     I
 IDC: ellipse    3.4    2.4   6 MB sd+-                  Event ID      296     3
 * 29 km SE Adaatsag Dundgobi                        ***                       3
 STAT SP IPHASW D HRMM SECON CODA AMPLIT PERI AZIMU VELO AIN AR TRES W  DIS CAZ7
 DR02     P    a  2018 28.20                             164    0.0410 6.16  72 
 DR02     S    a  2018 30.90      5.9     0.3            164   -0.0010 6.16  72 
 DR01     P    a  2018 28.70                             146   -0.0310 14.6 308 
 DR01     S    a  2018 32.00      3.5     0.2            146    0.1110 14.6 308 
 DR10     P    a  2018 29.00                             143    0.0510 16.9 128 
 DR10     S    a  2018 32.40                             143    0.1310 16.9 128 
 DR05     P    a  2018 31.40                             120   -0.2910 38.6  83 
 DR05     S    a  2018 36.40      3.9     0.2            120   -0.60 9 38.6  83 
 DR03     P    a  2018 34.20                             112    0.0710 55.2 102 
 DR03     S    a  2018 41.30      1.3     0.2            112    0.0710 55.2 102 
 MDGM     P    a  2018 34.50                             111   -0.1810 58.8 159 
 MDGM     S    a  2018 42.10                             111   -0.0810 58.8 159 
 DR07     P    a  2018 35.70                             109    0.0210 65.3  88 
 DR07     S    a  2018 43.90                             109   -0.0110 65.3  88 
 DR04     S    a  2018 47.60                             106    0.1410 78.4  90 
 DR06     P    a  2018 38.20                             105    0.2010 80.1  96 
 DR06     S    a  2018 48.20                             105    0.2710 80.1  96 
                                                                                
 2016 11 2 2020 51.9 R  46.220 106.063 20.0  mon  9 0.2 0.3Lmon                1
 GAP=147        0.50       1.6     1.8  2.0  0.1420E+00 -0.1683E+01  0.5587E+00E
 ACTION:REG 18-10-16 09:42 OP:ngse STATUS:               ID:20161102202051     I
 IDC: ellipse    2.5    1.9   1 MB sd+-                  Event ID      297     3
 * 26 km NW Delgertsogt Dundgobi                     ***                       3
 STAT SP IPHASW D HRMM SECON CODA AMPLIT PERI AZIMU VELO AIN AR TRES W  DIS CAZ7
 DR02     P    a  2020 55.60                             165    0.0510 5.72  74 
 DR02     S    a  2020 58.30      5.3     0.2            165    0.0810 5.72  74 
 DR01     P    a  2020 56.10                             146   -0.0710 14.7 306 
 DR01     S    a  2020 59.20                             146   -0.0810 14.7 306 
 DR10     P    a  2020 56.40                             142    0.0310 16.8 130 
 DR10     S    a  2020 59.90                             142    0.2610 16.8 130 
 DR05     P    a  2020 58.90                             119   -0.1910 38.2  83 
 DR05     S    a  2021 03.90      4.4     0.2            119   -0.4310 38.2  83 
 DR03     P    a  2021 01.80                             111    0.2510 54.9 102 
 DR03     S    a  2021 08.70      1.6     0.2            111    0.1010 54.9 102 
 MDGM     P    a  2021 02.00                             110   -0.1810 59.0 159 
 MDGM     S    a  2021 09.50                             110   -0.1810 59.0 159 
 DR07     P    a  2021 03.30                             108    0.2010 65.0  88 
 DR07     S    a  2021 11.20                             108   -0.0610 65.0  88 
 DR04     P    a  2021 05.30                             105    0.1510 78.1  90 
 DR04     S    a  2021 14.70                             105   -0.1210 78.1  90 
 DR06     P    a  2021 05.60                             105    0.1710 79.8  96 
 DR06     S    a  2021 15.30      1.8     0.2            105   -0.0010 79.8  96 
                                                                                
