 2016  922 2006 45.5 R  46.196 106.255 13.0  mon  9 0.1 0.7Lmon                1
 GAP=150        0.34       0.9     0.8  1.6  0.3115E-01 -0.6851E+00 -0.1879E-01E
 ACTION:REG 18-10-16 09:42 OP:ngse STATUS:               ID:20160922200645     I
 IDC: ellipse    1.0    0.5   1 MB sd+-                  Event ID      158     3
 * 12 km NW Delgertsogt Dundgobi                     ***                       3
 STAT SP IPHASW D HRMM SECON CODA AMPLIT PERI AZIMU VELO AIN AR TRES W  DIS CAZ7
 DR10     P    a  2006 48.30                             150    0.1010 8.36 193 
 DR10     S    a  2006 50.30      9.8     0.2            150    0.1010 8.36 193 
 DR02     P    a  2006 48.40                             145    0.0310 10.2 294 
 DR02     S    a  2006 50.40      21.     0.2            145   -0.0810 10.2 294 
 DR09     P    a  2006 50.00                             122    0.0110 23.5 244 
 DR09     S    a  2006 53.30      19.     0.2            122    0.0110 23.5 244 
 DR01     P    a  2006 50.70                             116   -0.0610 28.9 293 
 DR01     S    a  2006 54.60      12.     0.2            116   -0.0210 28.9 293 
 DR03     P    a  2006 52.50                             110    0.0810 39.9 103 
 DR03     S    a  2006 57.50      10.     0.3            110    0.0110 39.9 103 
 DR08     P    a  2006 52.80                             109   -0.0210 42.6  96 
 DR08     S    a  2006 58.10      4.9     0.2            109   -0.0910 42.6  96 
 DR07     P    a  2006 54.10                             106    0.0610 50.4  85 
 DR07     S    a  2007 00.00      5.7     0.4            106   -0.3010 50.4  85 
 MDGM     P    a  2006 54.40                             105   -0.0510 52.9 174 
 MDGM     S    a  2007 00.90      4.4     0.2            105   -0.1110 52.9 174 
 DR04     P    a  2006 56.30                             103    0.2010 63.3  88 
 DR04     S    a  2007 04.00      12.     0.4            103    0.1410 63.3  88 
                                                                                
 2016  923 1954 59.1 R  46.207 106.327  8.0  mon  5 0.2-0.8Lmon                1
 GAP=171        0.60       2.8     2.1  6.0  0.1762E+01 -0.4287E+01 -0.6300E+01E
 ACTION:REG 18-10-16 09:42 OP:ngse STATUS:               ID:20160923195459     I
 IDC: ellipse    3.9    2.4  14 MB sd+-                  Event ID       17     3
 * 11 km  N Delgertsogt Dundgobi                     ***                       3
 STAT SP IPHASW D HRMM SECON CODA AMPLIT PERI AZIMU VELO AIN AR TRES W  DIS CAZ7
 DR10     P    a  1955 01.40                             129   -0.1510 11.9 219 
 DR10     S    a  1955 03.50     0.40     0.3            129    0.1310 11.9 219 
 DR02     P    a  1955 01.80                             122   -0.1810 15.1 282 
 DR02     S    a  1955 04.20      1.3     0.3            122    0.0810 15.1 282 
 DR09     P    a  1955 04.50                             108    0.4410 29.0 247 
 DR09     S    a  1955 07.40     0.20     0.2            108   -0.3110 29.0 247 
 DR01     S    a  1955 09.00     0.70     0.2            106    0.0210 33.7 288 
 DR08     S    a  1955 09.90     0.30     0.2            104   -0.0310 37.2  99 
                                                                                
 2016  924 0953  6.3 R  46.146 106.250  7.6  mon  7 0.3-0.2Lmon                1
 GAP=131        0.39       1.0     1.1  1.7  0.3813E+00 -0.5887E+00  0.1045E-02E
 ACTION:REG 18-10-16 09:42 OP:ngse STATUS:               ID:20160924095306     I
 IDC: ellipse    2.2    1.4  22 MB sd+-                  Event ID      175     3
 * 9 km NW Delgertsogt Dundgobi                      ***                       3
 STAT SP IPHASW D HRMM SECON CODA AMPLIT PERI AZIMU VELO AIN AR TRES W  DIS CAZ7
 DR10     P    a  0953 07.90                             162    0.0710 2.97 211 
 DR10     S    a  0953 09.00      3.9     0.2            162    0.0310 2.97 211 
 DR02     P    a  0953 08.80                             125   -0.1010 13.3 318 
 DR02     S    a  0953 10.70      7.6     0.2            125   -0.1210 13.3 318 
 DR09     P    a  0953 10.00                             113   -0.0510 21.3 257 
 DR09     S    a  0953 12.90      1.5     0.2            113    0.0810 21.3 257 
 DR01     P    a  0953 11.70                             106    0.1110 31.3 303 
 DR01     S    a  0953 15.50      2.3     0.2            106    0.0210 31.3 303 
 DR03     P    a  0953 12.90                             103    0.0310 39.4  95 
 DR03     S    a  0953 17.80                             103    0.1010 39.4  95 
 DR08     P    a  0953 13.40                             102   -0.0010 42.7  88 
 DR08     S    a  0953 16.60                             102   -2.01 2 42.7  88 
 MDGM     P    a  0953 14.20                             101    0.0410 47.4 173 
 MDGM     S    a  0953 19.80     0.60     0.2            101   -0.1310 47.4 173 
                                                                                
 2016  924 1803  8.0 R  46.038 106.038  6.4  mon  9 0.1 0.4Lmon                1
 GAP=182        0.43       1.0     1.5  2.9  0.2785E+00 -0.2005E+01  0.8001E+00E
 ACTION:REG 18-10-16 09:42 OP:ngse STATUS:               ID:20160924180308     I
 IDC: ellipse    1.4    0.9  40 MB sd+-                  Event ID      177     3
 * 9 km NW Tevshyn gobi coal mine                    ***                       3
 STAT SP IPHASW D HRMM SECON CODA AMPLIT PERI AZIMU VELO AIN AR TRES W  DIS CAZ7
 DR09     P    a  1803 09.90                             133   -0.0110 8.44 329 
 DR09     S    a  1803 11.40      74.     0.2            133    0.1110 8.44 329 
 DR10     P    a  1803 11.10                             114   -0.0810 17.6  57 
 DR10     S    a  1803 13.50      12.     0.2            114    0.0110 17.6  57 
 DR02     P    a  1803 11.90                             109   -0.1110 23.1  19 
 DR02     S    a  1803 14.80      9.2     0.2            109   -0.1310 23.1  19 
 DR01     P    a  1803 13.00                             104   -0.2010 30.6 341 
 DR01     S    a  1803 17.10      7.6     0.3            104    0.1210 30.6 341 
 MDGM     P    a  1803 14.80                             101   -0.1610 41.6 147 
 MDGM     S    a  1803 20.00                             101   -0.0210 41.6 147 
 DR03     P    a  1803 17.50                              98    0.1810 56.3  81 
 DR03     S    a  1803 24.30      1.3     0.3             98    0.1910 56.3  81 
 DR08     P    a  1803 18.00                              97   -0.0110 60.5  77 
 DR08     S    a  1803 25.10      1.1     0.2             97   -0.2010 60.5  77 
 DR07     P    a  1803 19.80                              96    0.1710 70.5  71 
 DR07     S    a  1803 28.00      1.0     0.3             96   -0.1110 70.5  71 
 DR04     P    a  1803 21.90                              95    0.3310 82.4  76 
 DR04     S    a  1803 31.40                              95   -0.0610 82.4  76 
                                                                                
 2016  925 1157 46.9 R  46.170 106.389  9.6  mon  5 0.5-0.6Lmon                1
 GAP=161        1.22       7.4     4.2 12.5  0.7620E+01 -0.1223E+02 -0.3087E+02E
 ACTION:REG 18-10-16 09:42 OP:ngse STATUS:               ID:20160925115747     I
 IDC: ellipse   11.6    6.2   4 MB sd+-                  Event ID       18     3
 * 7 km  N Delgertsogt Dundgobi                      ***                       3
 STAT SP IPHASW D HRMM SECON CODA AMPLIT PERI AZIMU VELO AIN AR TRES W  DIS CAZ7
 DR10     P    a  1157 50.60                             130    0.92 8 13.3 247 
 DR10     S    a  1157 51.80      1.3     0.2            130    0.0510 13.3 247 
 DR02     P    a  1157 51.40                             118    0.67 9 20.9 290 
 DR02     S    a  1157 53.40     0.80     0.2            118   -0.1510 20.9 290 
 DR08     S    a  1157 56.10                             109   -0.3310 32.0  93 
 DR09     P    a  1157 52.50                             109    0.0510 32.3 257 
 DR09     S    a  1157 55.60     0.40     0.2            109   -0.93 8 32.3 257 
 DR01     S    a  1157 58.30     0.70     0.2            105   -0.2110 39.6 291 
                                                                                
 2016  926 1140 19.2 R  46.238 106.289  7.5  mon  9 0.2 0.8Lmon                1
 GAP=167        0.44       1.2     1.0  3.1  0.4063E-01 -0.1642E+01 -0.4602E+00E
 ACTION:REG 18-10-16 09:42 OP:ngse STATUS:               ID:20160926114019     I
 IDC: ellipse    1.4    0.7 178 MB sd+-                  Event ID      185     3
 * 15 km  N Delgertsogt Dundgobi                     ***                       3
 STAT SP IPHASW D HRMM SECON CODA AMPLIT PERI AZIMU VELO AIN AR TRES W  DIS CAZ7
 DR02     P    a  1140 21.60                             127   -0.0810 11.9 268 
 DR02     S    a  1140 23.50      83.     0.2            127    0.0310 11.9 268 
 DR10     P    a  1140 21.90                             124    0.0110 13.5 200 
 DR10     S    a  1140 23.90      70.     0.3            124    0.0610 13.5 200 
 DR09     P    a  1140 24.00                             108   -0.0610 28.1 238 
 DR09     S    a  1140 27.70      23.     0.3            108    0.1110 28.1 238 
 DR01     P    a  1140 24.30                             107   -0.0610 30.0 283 
 DR01     S    a  1140 28.10      14.     0.2            107   -0.0110 30.0 283 
 DR03     P    a  1140 25.70                             103   -0.0410 38.7 111 
 DR03     S    a  1140 30.40      4.8     0.2            103   -0.0910 38.7 111 
 DR08     P    a  1140 25.80                             102   -0.2610 40.7 103 
 DR08     S    a  1140 30.90      7.1     0.2            102   -0.1410 40.7 103 
 DR07     P    a  1140 27.10                             101   -0.0410 47.5  90 
 DR07     S    a  1140 32.80      7.8     0.3            101   -0.1210 47.5  90 
 MDGM     P    a  1140 28.80                              99    0.0710 57.3 177 
 MDGM     S    a  1140 35.60      3.6     0.2             99   -0.0610 57.3 177 
 DR04     P    a  1140 29.60                              98    0.3210 60.7  92 
 DR04     S    a  1140 37.00      5.7     0.3             98    0.3910 60.7  92 
                                                                                
 2016  927 0840  9.6 R  46.205 106.447 13.7  mon  8 0.1-0.2Lmon                1
 GAP=160        0.44       1.3     0.9  3.0  0.4009E-01 -0.3982E+00 -0.1003E+00E
 ACTION:REG 18-10-16 09:42 OP:ngse STATUS:               ID:20160927084009     I
 IDC: ellipse    2.1    1.1   2 MB sd+-                  Event ID      188     3
 * 11 km NE Delgertsogt Dundgobi                     ***                       3
 STAT SP IPHASW D HRMM SECON CODA AMPLIT PERI AZIMU VELO AIN AR TRES W  DIS CAZ7
 DR10     P    a  0840 13.50                             129   -0.0310 19.0 242 
 DR10     S    a  0840 16.60     0.70     0.2            129    0.1710 19.0 242 
 DR02     P    a  0840 14.20                             122   -0.0410 24.3 278 
 DR02     S    a  0840 17.60      1.7     0.2            122   -0.0710 24.3 278 
 DR03     P    a  0840 14.60                             120    0.1210 26.1 113 
 DR03     S    a  0840 18.30     0.80     0.2            120    0.2210 26.1 113 
 DR08     P    a  0840 14.70                             118   -0.0610 28.1 101 
 DR08     S    a  0840 18.40     0.90     0.2            118   -0.1610 28.1 101 
 DR07     P    a  0840 15.90                             113    0.0410 35.5  84 
 DR07     S    a  0840 20.10                             113   -0.3710 35.5  84 
 DR01     P    a  0840 17.10                             109    0.1310 42.7 284 
 DR01     S    a  0840 22.30      4.5     0.2            109   -0.0810 42.7 284 
 DR04     P    a  0840 18.00                             107    0.1410 48.5  89 
 DR04     S    a  0840 24.10      1.8     0.3            107    0.1710 48.5  89 
 MDGM     P    a  0840 18.70                             106   -0.0810 54.3 190 
 MDGM     S    a  0840 25.40     0.70     0.2            106   -0.1210 54.3 190 
                                                                                
 2016  927 2059 20.7 R  46.201 106.564  1.8  mon  9 0.2 0.0Lmon                1
 GAP= 86        0.53       1.2     1.0 13.0 -0.1555E+00  0.5136E+01 -0.5678E+01E
 ACTION:REG 18-10-16 09:42 OP:ngse STATUS:               ID:20160927205920     I
 IDC: ellipse    1.7    1.3   7 MB sd+-                  Event ID      189     3
 * 9 km  W Deren Dundgobi                            ***                       3
 STAT SP IPHASW D HRMM SECON CODA AMPLIT PERI AZIMU VELO AIN AR TRES W  DIS CAZ7
 DR03     P    a  2059 23.70                             100    0.0710 17.9 123 
 DR03     S    a  2059 25.40      2.2     0.2            100   -0.4010 17.9 123 
 DR08     P    a  2059 23.70                              99   -0.1410 19.2 106 
 DR08     S    a  2059 26.20      2.2     0.2             99    0.0410 19.2 106 
 DR07     P    a  2059 25.00                              97   -0.0510 26.6  81 
 DR07     S    a  2059 28.40      6.9     0.2             97    0.1510 26.6  81 
 DR10     P    a  2059 25.10                              97   -0.0410 27.1 251 
 DR10     S    a  2059 28.60      3.4     0.2             97    0.1910 27.1 251 
 DR02     P    a  2059 26.10                              96   -0.0410 33.3 276 
 DR02     S    a  2059 30.20      5.4     0.3             96    0.0610 33.3 276 
 DR04     P    a  2059 27.30                              94    0.1610 39.5  88 
 DR04     S    a  2059 32.30                              94    0.4310 39.5  88 
 DR01     P    a  2059 29.10                              94   -0.0210 51.6 282 
 DR01     S    a  2059 35.40     0.50     0.2             94    0.1010 51.6 282 
 MDGM     P    a  2059 29.80                              93   -0.0710 56.2 199 
 MDGM     S    a  2059 36.50      2.7     0.2             93   -0.1010 56.2 199 
 U05M     S    a  2059 59.20                              91   -0.3510  137   8 
                                                                                
 2016  928 0556 50.3 R  46.195 106.611 16.7  mon  7 0.3-0.3Lmon                1
 GAP=156        0.77       2.7     2.6  5.3  0.1438E+01  0.8633E+01  0.1586E+01E
 ACTION:REG 18-10-16 09:42 OP:ngse STATUS:               ID:20160928055651     I
 IDC: ellipse    4.4    1.9  11 MB sd+-                  Event ID       19     3
 * 8 km  W Deren Dundgobi                            ***                       3
 STAT SP IPHASW D HRMM SECON CODA AMPLIT PERI AZIMU VELO AIN AR TRES W  DIS CAZ7
 DR03     P    a  0556 54.40                             141    0.2810 14.5 129 
 DR03     S    a  0556 57.30      4.1     0.3            141    0.4110 14.5 129 
 DR08     P    a  0556 54.20                             139   -0.0110 15.5 107 
 DR08     S    a  0556 57.10      1.2     0.2            139    0.0410 15.5 107 
 DR07     S    a  0556 58.00                             128   -0.63 9 23.2  78 
 DR10     S    a  0557 00.40      1.8     0.3            121    0.0310 30.4 255 
 DR02     P    a  0556 57.20                             116    0.1310 37.0 277 
 DR02     S    a  0557 01.80                             116   -0.2010 37.0 277 
 DR01     P    a  0557 00.00                             108    0.1510 55.3 282 
 DR01     S    a  0557 06.80     0.20     0.2            108    0.0010 55.3 282 
 MDGM     P    a  0557 00.30                             108    0.2110 56.9 203 
 MDGM     S    a  0557 06.70                             108   -0.52 9 56.9 203 
                                                                                
 2016  929 0318 10.5 R  46.202 106.568  4.8  mon  7 0.0-0.4Lmon                1
 GAP=159        0.26       0.9     0.8  6.5  0.1188E+00  0.3362E+01  0.8829E+00E
 ACTION:REG 18-10-16 09:42 OP:ngse STATUS:               ID:20160929031809     I
 IDC: ellipse    2.7    1.2   5 MB sd+-                  Event ID       19     3
 * 9 km  W Deren Dundgobi                            ***                       3
 STAT SP IPHASW D HRMM SECON CODA AMPLIT PERI AZIMU VELO AIN AR TRES W  DIS CAZ7
 DR03     P    a  0318 13.60                             109    0.0010 17.7 124 
 DR08     P    a  0318 13.80                             108    0.0210 18.9 106 
 DR08     S    a  0318 16.20     0.80     0.2            108    0.0410 18.9 106 
 DR07     P    a  0318 15.00                             103    0.0510 26.3  81 
 DR07     S    a  0318 18.10                             103   -0.0810 26.3  81 
 DR10     P    a  0318 15.10                             103   -0.0510 27.5 251 
 DR02     P    a  0318 16.10                             101   -0.0310 33.6 276 
 DR02     S    a  0318 20.20      1.2     0.2            101   -0.0210 33.6 276 
 DR01     S    a  0318 25.40     0.80     0.3             97    0.0710 51.9 282 
 MDGM     S    a  0318 26.60                              96   -0.0010 56.4 199 
                                                                                
 2016  929 1643 57.7 R  46.181 106.207  6.7  mon  6 0.1-0.2Lmon                1
 GAP=137        0.28       0.8     1.0  1.5  0.4160E+00 -0.5533E+00 -0.1694E+00E
 ACTION:REG 18-10-16 09:42 OP:ngse STATUS:               ID:20160929164357     I
 IDC: ellipse    3.0    1.9  28 MB sd+-                  Event ID      194     3
 * 14 km  W Delgertsogt Dundgobi                     ***                       3
 STAT SP IPHASW D HRMM SECON CODA AMPLIT PERI AZIMU VELO AIN AR TRES W  DIS CAZ7
 DR10     P    a  1643 59.30                             141   -0.0810 6.69 165 
 DR10     S    a  1644 00.70      3.7     0.2            141    0.0610 6.69 165 
 DR02     P    a  1643 59.50                             135   -0.0510 8.16 316 
 DR02     S    a  1644 00.90      6.4     0.2            135   -0.0310 8.16 316 
 DR01     P    a  1644 02.10                             107   -0.0810 26.4 300 
 DR01     S    a  1644 05.60      2.8     0.2            107    0.1210 26.4 300 
 DR03     P    a  1644 04.90                             100    0.0510 43.2 100 
 DR03     S    a  1644 10.10                             100    0.0010 43.2 100 
 DR08     S    a  1644 10.90                             100    0.0010 46.1  93 
 MDGM     S    a  1644 12.50                              99   -0.0110 51.8 169 
                                                                                
