 2017  318 2136 10.9 R  43.659 105.494  0.1  mon  5 0.3                        1
 GAP=161        0.74       2.0     2.1  8.0  0.1984E+01 -0.3367E+01 -0.3664E+01E
 ACTION:REG 18-10-16 09:43 OP:ngse STATUS:               ID:20170318213610     I
 IDC: ellipse    3.1    1.5  19 MB sd+-                  Event ID    70470     3
 * 5 km NE Tavan_Tolgoi coal mine                    ***                       3
 STAT SP IPHASW D HRMM SECON CODA AMPLIT PERI AZIMU VELO AIN AR TRES W  DIS CAZ7
 TT3M     P    a  2136 11.60                             109   -0.1410 4.87 292 
 TT3M     S    a  2136 12.50                             109    0.1210 4.87 292 
 TT1M     P    a  2136 11.40                             107   -0.4010 5.25 165 
 TT1M     S    a  2136 12.20                             107   -0.2910 5.25 165 
 TT2M     P    a  2136 13.10                              97   -0.1710 13.9 183 
 TT2M     S    a  2136 15.70                              97    0.67 9 13.9 183 
 TT4M     P    a  2136 14.40                              95   -0.0010 20.5  93 
 TT4M     S    a  2136 17.20                              95    0.2110 20.5  93 
 DZBM     P    a  2136 25.10                              91    0.1410 81.8 282 
 DZBM     S    a  2136 35.20                              91   -0.0610 81.8 282 
                                                                                
 2017  319 0835 13.2 R  43.670 105.503  0.3  mon  6 0.5                        1
 GAP= 94        1.08       3.1     3.1  9.4  0.4307E+01 -0.1020E+02 -0.1324E+02E
 ACTION:REG 18-10-16 09:43 OP:ngse STATUS:               ID:20170319083513     I
 IDC: ellipse    1.8    1.2   8 MB sd+-                  Event ID    69282     3
 * 5 km NE Tavan_Tolgoi coal mine                    ***                       3
 STAT SP IPHASW D HRMM SECON CODA AMPLIT PERI AZIMU VELO AIN AR TRES W  DIS CAZ7
 TT3M     P    a  0835 13.70                             109   -0.4310 5.31 276 
 TT3M     S    a  0835 14.80                             109   -0.0410 5.31 276 
 TT1M     P    a  0835 13.60                             106   -0.70 9 6.34 174 
 TT1M     S    a  0835 14.80                             106   -0.3310 6.34 174 
 TT2M     P    a  0835 15.80                              97   -0.0110 15.2 186 
 TT2M     S    a  0835 18.00                              97    0.2610 15.2 186 
 TT4M     P    a  0835 16.50                              95   -0.1110 19.9  97 
 TT4M     S    a  0835 19.70                              95    0.58 9 19.9  97 
 DZBM     P    a  0835 27.30                              91   -0.0610 82.3 282 
 DZBM     S    a  0835 38.30                              91    0.58 9 82.3 282 
 MDGM     P    a  0835 49.30                              46   -2.24 0  237  16 
 MDGM     S    a  0836 21.30                              46    1.74 4  237  16 
                                                                                
 2017  320 1642  3.6 R  43.660 105.512  0.0  mon  5 0.3                        1
 GAP=168        0.75       2.1     2.0 10.0  0.1607E+01 -0.4760E+01 -0.8457E+01E
 ACTION:REG 18-10-16 09:43 OP:ngse STATUS:               ID:20170320164203     I
 IDC: ellipse    4.4    2.2  19 MB sd+-                  Event ID    70470     3
 * 6 km NE Tavan_Tolgoi coal mine                    ***                       3
 STAT SP IPHASW D HRMM SECON CODA AMPLIT PERI AZIMU VELO AIN AR TRES W  DIS CAZ7
 TT1M     P    a  1642 04.10                             107   -0.4610 5.12 181 
 TT1M     S    a  1642 05.10                             107   -0.1410 5.12 181 
 TT3M     P    a  1642 04.50                             104   -0.2610 6.30 286 
 TT3M     S    a  1642 05.60                             104    0.0210 6.30 286 
 TT2M     P    a  1642 05.90                              96   -0.1910 14.1 189 
 TT2M     S    a  1642 08.40                              96    0.52 9 14.1 189 
 TT4M     P    a  1642 06.90                              95   -0.0310 19.0  94 
 TT4M     S    a  1642 09.50                              95    0.1710 19.0  94 
 DZBM     P    a  1642 18.40                              91    0.4010 83.3 282 
 DZBM     S    a  1642 28.50                              91    0.0110 83.3 282 
                                                                                
 2017  323 1800 34.6 R  43.657 105.479  3.2  mon  6 0.4                        1
 GAP=105        1.05       2.5     3.0  4.9  0.3608E+01 -0.4267E+01 -0.5958E+01E
 ACTION:REG 18-10-16 09:43 OP:ngse STATUS:               ID:20170323180034     I
 IDC: ellipse    2.8    1.8  12 MB sd+-                  Event ID    70470     3
 * 3 km NE Tavan_Tolgoi coal mine                    ***                       3
 STAT SP IPHASW D HRMM SECON CODA AMPLIT PERI AZIMU VELO AIN AR TRES W  DIS CAZ7
 TT3M     P    a  1800 35.70                             141   -0.0110 3.88 301 
 TT3M     S    a  1800 36.60                             141    0.1210 3.88 301 
 TT1M     P    a  1800 35.30                             131   -0.60 9 5.52 152 
 TT1M     S    a  1800 36.30                             131   -0.52 9 5.52 152 
 TT2M     P    a  1800 37.10                             109   -0.0510 13.7 178 
 TT2M     S    a  1800 39.10                             109    0.1210 13.7 178 
 TT4M     P    a  1800 38.60                             102    0.1210 21.7  93 
 TT4M     S    a  1800 41.80                             102    0.5210 21.7  93 
 DZBM     P    a  1800 48.20                              93   -0.3810 80.7 283 
 DZBM     S    a  1800 59.80                              93    1.05 8 80.7 283 
 MDGM     P    a  1801 12.80                              46   -0.1110  239  16 
 MDGM     S    a  1801 43.10                              46    2.26 0  239  16 
                                                                                
 2017  325 1827  8.0 R  43.672 105.492  2.2  mon  5 0.2                        1
 GAP=176        0.67       2.1     1.9  3.9  0.1715E+01 -0.1637E+01 -0.2180E+01E
 ACTION:REG 18-10-16 09:43 OP:ngse STATUS:               ID:20170325182708     I
 IDC: ellipse    4.4    2.0  23 MB sd+-                  Event ID    69426     3
 * 6 km NE Tavan_Tolgoi coal mine                    ***                       3
 STAT SP IPHASW D HRMM SECON CODA AMPLIT PERI AZIMU VELO AIN AR TRES W  DIS CAZ7
 TT3M     P    a  1827 09.20                             131    0.1610 4.44 275 
 TT3M     S    a  1827 09.90                             131    0.1310 4.44 275 
 TT1M     P    a  1827 08.90                             119   -0.4510 6.68 167 
 TT1M     S    a  1827 10.00                             119   -0.3210 6.68 167 
 TT2M     P    a  1827 10.80                             104    0.0410 15.3 182 
 TT2M     S    a  1827 13.20                             104    0.4510 15.3 182 
 TT4M     P    a  1827 11.80                             100    0.1310 20.7  97 
 TT4M     S    a  1827 14.40                             100    0.0710 20.7  97 
 DZBM     P    a  1827 21.90                              93   -0.1810 81.4 281 
 DZBM     S    a  1827 32.30                              93   -0.0410 81.4 281 
                                                                                
 2017  326 1058 41.4 R  43.672 105.472  1.3  mon  6 0.6                        1
 GAP=102        1.25       3.6     3.7  6.6  0.7234E+01 -0.1091E+02 -0.1110E+02E
 ACTION:REG 18-10-16 09:43 OP:ngse STATUS:               ID:20170326105841     I
 IDC: ellipse    2.8    1.6   8 MB sd+-                  Event ID    69440     3
 * 3 km NE Tavan_Tolgoi coal mine                    ***                       3
 STAT SP IPHASW D HRMM SECON CODA AMPLIT PERI AZIMU VELO AIN AR TRES W  DIS CAZ7
 TT3M     P    a  1058 41.80                             136   -0.2810 2.79 279 
 TT3M     S    a  1058 42.70                             136    0.1210 2.79 279 
 TT1M     P    a  1058 42.00                             112   -0.72 9 7.20 154 
 TT1M     S    a  1058 43.50                             112   -0.1910 7.20 154 
 TT2M     P    a  1058 43.70                             101   -0.3710 15.3 176 
 TT2M     S    a  1058 46.90                             101    0.87 9 15.3 176 
 TT4M     P    a  1058 45.00                              97   -0.2710 22.4  97 
 TT4M     S    a  1058 48.30                              97    0.1810 22.4  97 
 DZBM     P    a  1058 54.70                              92   -0.45 9 79.8 282 
 DZBM     S    a  1059 05.50                              92    0.3010 79.8 282 
 MDGM     P    a  1059 21.00                              46    1.31 7  238  16 
 MDGM     S    a  1059 49.70                              46    2.04 2  238  16 
                                                                                
 2017  327 2009 16.5 R  43.634 105.490  0.0  mon  6 0.6                        1
 GAP=102        1.39       3.5     3.8  6.0  0.5087E+01 -0.4128E+01 -0.1156E+02E
 ACTION:REG 18-10-16 09:43 OP:ngse STATUS:               ID:20170327200916     I
 IDC: ellipse    2.5    1.5  16 MB sd+-                  Event ID    70471     3
 * 4 km NE Tavan_Tolgoi coal mine                    ***                       3
 STAT SP IPHASW D HRMM SECON CODA AMPLIT PERI AZIMU VELO AIN AR TRES W  DIS CAZ7
 TT1M     P    a  2009 16.50                             120   -0.50 9 2.79 143 
 TT1M     S    a  2009 17.10                             120   -0.3110 2.79 143 
 TT3M     P    a  2009 16.90                             104   -0.67 9 6.30 318 
 TT3M     S    a  2009 18.10                             104   -0.2910 6.30 318 
 TT2M     P    a  2009 18.40                              98    0.0210 11.1 182 
 TT2M     S    a  2009 20.70                              98    0.91 9 11.1 182 
 TT4M     P    a  2009 19.50                              95   -0.56 9 20.8  86 
 TT4M     S    a  2009 22.70                              95    0.0110 20.8  86 
 DZBM     P    a  2009 31.10                              91    0.4810 82.2 284 
 DZBM     S    a  2009 40.70                              91   -0.2710 82.2 284 
 MDGM     P    a  2009 56.80                              46    1.42 6  242  16 
 MDGM     S    a  2010 24.50                              46    0.71 9  242  16 
                                                                                
 2017  4 5 1913 34.7 R  43.656 105.485  0.0  mon  6 0.4                        1
 GAP=103        1.10       2.9     3.2  5.2  0.4642E+01 -0.6846E+01 -0.8947E+01E
 ACTION:REG 18-10-16 09:43 OP:ngse STATUS:               ID:20170405191334     I
 IDC: ellipse    2.9    1.9  11 MB sd+-                  Event ID    70475     3
 * 5 km NE Tavan_Tolgoi coal mine                    ***                       3
 STAT SP IPHASW D HRMM SECON CODA AMPLIT PERI AZIMU VELO AIN AR TRES W  DIS CAZ7
 TT3M     P    a  1913 35.20                             110   -0.3210 4.39 300 
 TT3M     S    a  1913 36.20                             110    0.0910 4.39 300 
 TT1M     P    a  1913 35.00                             107   -0.64 9 5.15 156 
 TT1M     S    a  1913 36.50                             107    0.1810 5.15 156 
 TT2M     P    a  1913 37.00                              97   -0.0610 13.5 180 
 TT2M     S    a  1913 39.60                              97    0.82 9 13.5 180 
 TT4M     P    a  1913 38.00                              94   -0.3810 21.2  92 
 TT4M     S    a  1913 40.90                              94   -0.1610 21.2  92 
 DZBM     P    a  1913 48.20                              91   -0.52 9 81.2 283 
 DZBM     S    a  1913 59.00                              91    0.0610 81.2 283 
 MDGM     P    a  1914 13.70                              46    0.3410  239  16 
 MDGM     S    a  1914 42.40                              46    0.82 9  239  16 
                                                                                
 2017  410 1748 36.1 R  43.660 105.495  0.0  mon  6 0.3                        1
 GAP= 99        0.90       2.4     2.5  4.5  0.2878E+01 -0.5056E+01 -0.7388E+01E
 ACTION:REG 18-10-16 09:43 OP:ngse STATUS:               ID:20170410174835     I
 IDC: ellipse    2.8    1.9  13 MB sd+-                  Event ID    70475     3
 * 6 km NE Tavan_Tolgoi coal mine                    ***                       3
 STAT SP IPHASW D HRMM SECON CODA AMPLIT PERI AZIMU VELO AIN AR TRES W  DIS CAZ7
 TT3M     P    a  1748 36.50                             108   -0.5010 4.98 290 
 TT3M     S    a  1748 37.40                             108   -0.2510 4.98 290 
 TT1M     P    a  1748 36.60                             106   -0.4510 5.33 167 
 TT1M     S    a  1748 37.60                             106   -0.1510 5.33 167 
 TT2M     P    a  1748 38.50                              96   -0.0310 14.0 184 
 TT2M     S    a  1748 41.00                              96    0.69 9 14.0 184 
 TT4M     P    a  1748 39.30                              95   -0.3210 20.4  94 
 TT4M     S    a  1748 42.30                              95    0.1110 20.4  94 
 DZBM     P    a  1748 50.60                              91    0.3810 81.9 282 
 DZBM     S    a  1749 00.70                              91    0.1610 81.9 282 
 MDGM     P    a  1749 14.70                              46    0.0410  239  16 
 MDGM     S    a  1749 43.20                              46    0.3910  239  16 
                                                                                
 2017  411 1258 31.7 R  43.707 105.514  0.0  mon  6 0.7                        1
 GAP=191        4.59      17.1    13.9 99.3  0.9202E+02 -0.4800E+03 -0.9168E+03E
 ACTION:REG 18-10-16 09:43 OP:ngse STATUS:               ID:20170411125832     I
 IDC: ellipse    3.4    1.6  20 MB sd+-                  Event ID    69799     3
 * 7 km NE Tavan_Tolgoi coal mine                    ***                       3
 STAT SP IPHASW D HRMM SECON CODA AMPLIT PERI AZIMU VELO AIN AR TRES W  DIS CAZ7
 TT3M     P    a  1258 32.90                             103   -0.0910 7.10 241 
 TT3M     S    a  1258 33.80                             103   -0.1010 7.10 241 
 TT1M     P    a  1258 32.80                              99   -0.74 9 10.4 181 
 TT1M     S    a  1258 33.90                              99   -0.96 8 10.4 181 
 TT2M     P    a  1258 34.70                              95   -0.3810 19.3 187 
 TT2M     S    a  1258 37.30                              95   -0.2310 19.3 187 
 TT4M     P    a  1258 35.50                              95    0.3210 19.9 109 
 TT4M     S    a  1258 38.50                              95    0.80 9 19.9 109 
 DZBM     P    a  1258 46.50                   42.3       91-55 0.5410 82.5 279 
 DZBM     S    a  1258 56.90                              91    0.5610 82.5 279 
 MDGM     S    a  1259 41.20                              46    3.91 0  233  16 
                                                                                
 2017  411 1301 35.0 R  43.664 105.505  0.0  mon  6 0.4                        1
 GAP=172        0.96       2.8     2.6 12.6  0.3167E+01 -0.8639E+01 -0.1128E+02E
 ACTION:REG 18-10-16 09:43 OP:ngse STATUS:               ID:20170411130135     I
 IDC: ellipse    2.8    1.4   9 MB sd+-                  Event ID    69799     3
 * 4 km  E Tavan_Tolgoi coal mine                    ***                       3
 STAT SP IPHASW D HRMM SECON CODA AMPLIT PERI AZIMU VELO AIN AR TRES W  DIS CAZ7
 TT3M     P    a  1301 35.80                             106   -0.1710 5.58 283 
 TT3M     S    a  1301 37.00                             106    0.3010 5.58 283 
 TT1M     P    a  1301 35.60                             105   -0.3810 5.65 175 
 TT1M     S    a  1301 36.00                             105   -0.72 9 5.65 175 
 TT2M     P    a  1301 37.50                              96    0.0110 14.5 187 
 TT2M     S    a  1301 40.20                              96    0.86 9 14.5 187 
 TT4M     P    a  1301 38.50                              95    0.1310 19.6  95 
 TT4M     S    a  1301 41.00                              95    0.1510 19.6  95 
 DZBM     P    a  1301 49.10                              91   -0.1110 82.6 282 
 DZBM     S    a  1301 59.60                              91   -0.0110 82.6 282 
 MDGM     S    a  1302 43.80                              46    2.25 0  238  16 
                                                                                
 2017  411 1432 10.0 R  43.658 105.497  0.1  mon  5 0.3                        1
 GAP=161        0.83       2.2     2.3  9.2  0.2255E+01 -0.4557E+01 -0.4571E+01E
 ACTION:REG 18-10-16 09:43 OP:ngse STATUS:               ID:20170411143209     I
 IDC: ellipse    3.6    1.7  20 MB sd+-                  Event ID    70475     3
 * 6 km NE Tavan_Tolgoi coal mine                    ***                       3
 STAT SP IPHASW D HRMM SECON CODA AMPLIT PERI AZIMU VELO AIN AR TRES W  DIS CAZ7
 TT1M     S    a  1432 11.20                             108   -0.4210 5.11 167 
 TT3M     P    a  1432 10.80                             108   -0.1510 5.13 292 
 TT3M     S    a  1432 11.60                             108   -0.0310 5.13 292 
 TT2M     P    a  1432 12.30                              97   -0.1310 13.8 184 
 TT2M     S    a  1432 14.60                              97    0.4210 13.8 184 
 TT4M     P    a  1432 13.30                              95   -0.2310 20.3  93 
 TT4M     S    a  1432 16.30                              95    0.2110 20.3  93 
 DZBM     P    a  1432 24.80                              91    0.63 9 82.1 282 
 DZBM     S    a  1432 34.30                              91   -0.2110 82.1 282 
                                                                                
 2017  417 1151 14.9 R  43.674 105.492  5.7  mon  4 0.2                        1
 GAP=177        0.67       2.5     2.0  3.3  0.1639E+01 -0.4373E+00 -0.1073E+01E
 ACTION:REG 18-10-16 09:43 OP:ngse STATUS:               ID:20170417115114     I
 IDC: ellipse    4.8    1.8  14 MB sd+-                  Event ID    70475     3
 * 5 km  E Tavan_Tolgoi coal mine                    ***                       3
 STAT SP IPHASW D HRMM SECON CODA AMPLIT PERI AZIMU VELO AIN AR TRES W  DIS CAZ7
 TT3M     P    a  1151 16.20                             149   -0.1410 4.38 272 
 TT3M     S    a  1151 17.40                             149   -0.0110 4.38 272 
 TT2M     P    a  1151 17.70                             115   -0.1410 15.6 182 
 TT2M     S    a  1151 20.10                             115    0.1010 15.6 182 
 TT4M     P    a  1151 18.70                             109    0.0210 20.8  98 
 TT4M     S    a  1151 21.60                             109    0.1410 20.8  98 
 DZBM     P    a  1151 28.50                              95   -0.4510 81.3 281 
 DZBM     S    a  1151 39.70                              95    0.4810 81.3 281 
                                                                                
