 2013 1215 0248 15.9 R  47.461 100.576  9.0  mon 28 0.4 0.6Lmon                1
 GAP=227        1.06       2.0     6.9  5.0 -0.7287E+01  0.2864E+02 -0.5439E+01E
 ACTION:REG 17-04-05 21:52 OP:ngse STATUS:               ID:20131215024815     I
 IDC: ellipse    1.7    1.1  95 MB sd+-                  Event ID   457321     3
 * 34 km  E Chuluut Arhangai                         ***                       3
 STAT SP IPHASW D HRMM SECON CODA AMPLIT PERI AZIMU VELO AIN AR TRES W  DIS CAZ7
 HD65     P    a  0248 25.10                              46    0.81 9 41.1 323 
 HD65     S    a  0248 31.20      11.     0.1             46    0.76 9 41.1 323 
 HD64     P    a  0248 28.80                              46    0.3310 66.8 342 
 HD64     S    a  0248 37.50     0.60     0.2             46   -0.1710 66.8 342 
 HD46     P    a  0248 30.40                              46   -0.3210 80.5 209 
 HD46     S    a  0248 40.50      13.     0.2             46   -1.06 8 80.5 209 
 HD63     P    a  0248 31.50                              46    0.3010 83.4 312 
 HD63     S    a  0248 42.00      2.7     0.2             46   -0.4010 83.4 312 
 HD62     P    a  0248 33.80                              46    0.2210 98.0 325 
 HD62     S    a  0248 45.90     0.70     0.2             46   -0.62 9 98.0 325 
 HD45     P    a  0248 35.90                              46    0.2310  111 283 
 HD45     S    a  0248 49.90      4.7     0.3             46   -0.2310  111 283 
 HD41     P    a  0248 37.80                              45    0.0410  124 315 
 HD41     S    a  0248 53.40      1.4     0.2             45   -0.3510  124 315 
 HD42     P    a  0248 38.80                              45   -0.2010  132 321 
 HD42     S    a  0248 55.30      1.2     0.2             45   -0.59 9  132 321 
 HD39     P    a  0248 38.80                              45   -0.2610  132 300 
 HD39     S    a  0248 55.50     0.30     0.2             45   -0.50 9  132 300 
 HD40     P    a  0248 39.40                              45   -0.0310  134 309 
 HD40     S    a  0248 56.10     0.70     0.2             45   -0.53 9  134 309 
 HD56     P    a  0248 41.20                              45   -0.0810  145 268 
 HD56     S    a  0248 59.40     0.40     0.3             45   -0.4310  145 268 
 HD38     P    a  0248 41.30                              45   -0.0110  146 299 
 HD38     S    a  0248 59.60     0.80     0.2             45   -0.2910  146 299 
 HD43     P    a  0248 41.30                              45   -0.2010  148 323 
 HD43     S    a  0249 00.00     0.70     0.2             45   -0.2210  148 323 
 HD47     S    a  0248 58.60     0.80     0.2             45   -2.30 0  150 193 
 HD37     P    a  0248 43.50                              45    0.1610  159 294 
 HD37     S    a  0249 03.20      1.1     0.3             45   -0.2010  159 294 
 HD57     S    a  0249 04.50      2.2     0.3             45    0.3510  162 328 
 HD27     P    a  0248 44.30                              45   -0.0810  165 265 
 HD27     S    a  0249 04.70     0.40     0.2             45   -0.4910  165 265 
 HD36     P    a  0248 44.30                              45   -0.3210  167 287 
 HD36     S    a  0249 05.30     0.60     0.2             45   -0.3110  167 287 
 HD34     P    a  0248 45.50                              45    0.1510  171 281 
 HD34     S    a  0249 07.30     0.60     0.2             45    0.4310  171 281 
 HD35     P    a  0248 45.60                              45   -0.0810  173 285 
 HD35     S    a  0249 07.40      1.4     0.2             45   -0.0510  173 285 
 HD33     S    a  0249 13.00     0.80     0.2             41    0.3810  193 275 
 HD28     P    a  0248 49.20                              41   -0.0710  197 266 
 HD28     S    a  0249 13.90     0.40     0.2             41    0.2510  197 266 
 HD32     P    a  0248 50.00                              41    0.0710  202 274 
 HD32     S    a  0249 15.30     0.40     0.2             41    0.51 9  202 274 
 HD61     P    a  0248 50.20                              41    0.0310  204 304 
 HD61     S    a  0249 15.80      1.2     0.4             41    0.59 9  204 304 
 HD31     P    a  0248 52.10                              41    0.2810  214 271 
 HD31     S    a  0249 18.60     0.90     0.2             41    0.54 9  214 271 
 HD30     P    a  0248 52.40                              41    0.2210  217 267 
 HD30     S    a  0249 19.70     0.70     0.2             41    1.01 8  217 267 
 HD60     S    a  0249 26.10     0.30     0.2             41    1.28 7  241 297 
 HD59     S    a  0249 37.90     0.20     0.3             34    3.35 0  284 289 
                                                                                
 2013 1228 2022 10.9 R  45.824  99.396 15.0  mon 28 0.9 0.8Lmon                1
 GAP=145        2.04       4.7     5.7 10.0  0.6851E+01 -0.3385E-01 -0.2452E+02E
 ACTION:REG 17-04-05 21:52 OP:ngse STATUS:               ID:20131228202211     I
 IDC: ellipse    1.6    1.2  44 MB sd+-                  Event ID   457719     3
 * 29 km  N Baatsagaan Baynhongor                    ***                       3
 STAT SP IPHASW D HRMM SECON CODA AMPLIT PERI AZIMU VELO AIN AR TRES W  DIS CAZ7
 HD67     P    a  2022 22.60                              79   -0.5710 64.3 336 
 HD67     S    a  2022 30.40      2.9     0.2             79   -1.70 7 64.3 336 
 HD47     P    a  2022 22.20                              79   -1.55 8 68.1  58 
 HD47     S    a  2022 29.50      7.3     0.2             79   -3.61 0 68.1  58 
 HD46     P    a  2022 31.20                              77   -1.27 8  123  24 
 HD46     S    a  2022 45.10      1.1     0.2             77   -3.09 1  123  24 
 HD69     P    a  2022 35.20                              77   -0.4210  143 146 
 HD69     S    a  2022 52.20      1.5     0.2             77   -1.43 8  143 146 
 HD66     P    a  2022 36.30                              77   -0.3810  149 318 
 HD66     S    a  2022 54.50      2.0     0.3             77   -0.97 9  149 318 
 HD49     S    a  2022 59.30      2.6     0.3             70   -0.84 9  167 291 
 HD50     P    a  2022 42.00                              66    0.3710  182 298 
 HD50     S    a  2023 03.40      1.7     0.3             66   -0.6510  182 298 
 HD27     P    a  2022 42.20                              66    0.3510  183 336 
 HD27     S    a  2023 02.80     0.60     0.3             66   -1.63 7  183 336 
 HD56     P    a  2022 42.40                              66    0.3010  185 342 
 HD56     S    a  2023 03.90     0.60     0.3             66   -0.95 9  185 342 
 HD28     P    a  2022 45.00                              66    0.88 9  198 327 
 HD28     S    a  2023 07.50     0.60     0.2             66   -0.84 9  198 327 
 HD51     P    a  2022 46.00                              66    1.45 8  202 303 
 HD51     S    a  2023 09.50      1.8     0.2             66    0.4110  202 303 
 HD29     P    a  2022 45.40                              66    0.1510  206 319 
 HD29     S    a  2023 09.90     0.80     0.2             66   -0.4010  206 319 
 HD45     P    a  2022 45.70                              66    0.3610  207 355 
 HD45     S    a  2023 09.90      1.1     0.3             66   -0.5610  207 355 
 HD30     P    a  2022 46.30                              66    0.5610  209 323 
 HD30     S    a  2023 11.50     0.60     0.2             66    0.3610  209 323 
 HD31     P    a  2022 47.60                              66    0.1110  221 325 
 HD31     S    a  2023 14.10     0.50     0.3             66   -0.0710  221 325 
 HD32     P    a  2022 48.90                              66    1.12 9  223 330 
 HD32     S    a  2023 14.60     0.70     0.2             66   -0.0810  223 330 
 HD33     P    a  2022 48.90                              66    1.09 9  223 332 
 HD33     S    a  2023 14.90     0.50     0.2             66    0.1710  223 332 
 HD65     P    a  2022 47.60                              66   -0.2910  224  16 
 HD65     S    a  2023 14.20     0.50     0.2             66   -0.6710  224  16 
 HD34     S    a  2023 15.30      1.4     0.3             66   -0.3410  227 339 
 HD35     S    a  2023 17.90      1.2     0.2             66   -0.79 9  239 341 
 HD63     P    a  2022 50.30                              66    0.2310  239   6 
 HD63     S    a  2023 18.80     0.50     0.2             66    0.1610  239   6 
 HD36     P    a  2022 55.00                              50    4.61 0  241 343 
 HD36     S    a  2023 19.80     0.50     0.2             50    0.6010  241 343 
 HD39     P    a  2022 52.10                              50    0.72 9  249 354 
 HD39     S    a  2023 20.90     0.60     0.2             50   -0.0010  249 354 
 HD38     S    a  2023 23.60     0.40     0.2             50    1.33 8  255 351 
 HD40     P    a  2022 54.80                              50    1.28 8  266 356 
 HD40     S    a  2023 26.30     0.40     0.2             50    1.70 7  266 356 
 HD41     S    a  2023 27.30     0.70     0.2             50    2.10 6  269   0 
 HD42     S    a  2023 30.70      1.1     0.2             50    2.31 5  284   1 
 HD43     P    a  2023 00.00                              50    2.36 5  300 360 
 HD43     S    a  2023 35.30     0.20     0.2             50    3.57 0  300 360 
                                                                                
 2013 1229 1449 27.7 R  46.029  97.506  0.6  mon 28 0.9 0.9Lmon                1
 GAP=257        2.03       6.0     8.9  5.4  0.2995E+02 -0.2610E+02 -0.1695E+02E
 ACTION:REG 17-04-05 21:52 OP:ngse STATUS:               ID:20131229144926     I
 IDC: ellipse    2.1    1.7  28 MB sd+-                  Event ID   457732     3
 * 24 km NE Biger GobiAltai                          ***                       3
 STAT SP IPHASW D HRMM SECON CODA AMPLIT PERI AZIMU VELO AIN AR TRES W  DIS CAZ7
 HD49     P    a  1449 36.20                              94   -0.0410 37.6 344 
 HD49     S    a  1449 43.50      22.     0.2             94    1.06 9 37.6 344 
 HD50     S    a  1449 50.20      7.2     0.2             46   -0.3610 62.5 345 
 HD51     P    a  1449 44.40                              46   -0.86 9 88.7 344 
 HD51     S    a  1449 57.60      8.8     0.2             46   -0.4510 88.7 344 
 HD66     P    a  1449 46.10                              46   -0.6810 97.9  27 
 HD66     S    a  1450 00.50      2.6     0.2             46   -0.1810 97.9  27 
 HD67     P    a  1449 48.60                              46   -2.50 4  124  73 
 HD67     S    a  1450 04.70     0.60     0.2             46   -3.45 0  124  73 
 HD29     P    a  1449 51.50                              45   -0.6710  131   3 
 HD29     S    a  1450 09.40      1.1     0.2             45   -0.6110  131   3 
 HD30     P    a  1449 53.30                              45   -0.77 9  143   6 
 HD30     S    a  1450 12.70      1.5     0.2             45   -0.5910  143   6 
 HD28     P    a  1449 54.10                              45   -0.70 9  147  14 
 HD28     S    a  1450 13.90     0.80     0.3             45   -0.6410  147  14 
 HD31     P    a  1449 56.00                              45   -0.6110  159   6 
 HD31     S    a  1450 17.10      1.4     0.2             45   -0.5810  159   6 
 HD27     P    a  1449 57.00                              45    0.3510  159  25 
 HD27     S    a  1450 17.10     0.60     0.3             45   -0.6410  159  25 
 HD32     P    a  1449 58.00                              45   -0.6110  172  10 
 HD32     S    a  1450 21.00                              45   -0.1410  172  10 
 HD54     S    a  1450 20.30      1.2     0.2             45   -0.86 9  172 342 
 HD56     P    a  1449 59.70                              45    0.3510  176  29 
 HD56     S    a  1450 21.60      1.3     0.2             45   -0.82 9  176  29 
 HD33     P    a  1449 59.50                              45   -0.2310  178  13 
 HD33     S    a  1450 22.60                              45   -0.4810  178  13 
 HD47     P    a  1450 03.00                              41   -0.5910  204  85 
 HD47     S    a  1450 26.30     0.30     0.2             41   -3.46 0  204  85 
 HD35     P    a  1450 05.10                              41    0.3810  212  17 
 HD35     S    a  1450 32.40     0.80     0.2             41    0.6810  212  17 
 HD46     S    a  1450 31.80      1.6     0.3             41   -0.79 9  215  65 
 HD36     P    a  1450 06.60                              41    0.7910  219  19 
 HD36     S    a  1450 34.30     0.60     0.3             41    0.7010  219  19 
 HD45     P    a  1450 06.50                              41    0.3510  221  34 
 HD45     S    a  1450 35.50      1.9     0.3             41    1.31 9  221  34 
 HD59     P    a  1450 10.00                              41   -0.4610  250 351 
 HD59     S    a  1450 42.60     0.30     0.2             41    0.96 9  250 351 
 HD39     P    a  1450 11.80                              41    0.8910  254  27 
 HD39     S    a  1450 43.30     0.50     0.2             41    0.8810  254  27 
 HD60     P    a  1450 12.90                              34    0.5610  265   3 
 HD60     S    a  1450 47.10      1.1     0.3             34    2.20 6  265   3 
 HD40     S    a  1450 50.00     0.30     0.2             34    3.13 2  274  27 
 HD61     P    a  1450 15.40                              34    1.50 8  278  12 
 HD61     S    a  1450 51.30      1.6     0.3             34    3.70 0  278  12 
 HD65     P    a  1450 16.10                              34    1.44 9  283  46 
 HD65     S    a  1450 52.10      1.2     0.2             34    3.18 2  283  46 
 HD41     S    a  1450 52.90      1.2     0.2             34    3.61 0  285  30 
 HD42     P    a  1450 19.40                              34    2.66 5  300  29 
 HD42     S    a  1450 57.20      1.8     0.2             34    4.69 0  300  29 
 HD43     P    a  1450 21.00                              34    2.92 3  311  26 
 HD43     S    a  1451 00.70     0.50     0.3             34    5.88 0  311  26 
                                                                                
 2014  1 7 0200 37.7 R  45.745  99.005 15.0  mon 28 1.0 0.6Lmon                1
 GAP=108        2.20       5.0     7.1 10.1  0.1673E+02 -0.2258E+02 -0.2767E+02E
 ACTION:REG 17-04-05 21:52 OP:ngse STATUS:               ID:20140107020039     I
 IDC: ellipse    1.6    1.2  59 MB sd+-                  Event ID   457907     3
 * 36 km NW Baatsagaan Baynhongor                    ***                       3
 STAT SP IPHASW D HRMM SECON CODA AMPLIT PERI AZIMU VELO AIN AR TRES W  DIS CAZ7
 HD67     P    a  0200 49.30                              79   -1.17 9 67.3   3 
 HD67     S    a  0200 56.40      5.2     0.2             79   -3.36 1 67.3   3 
 HD70     P    a  0200 55.20                              79    1.77 8 85.7 243 
 HD70     S    a  0201 07.40      1.9     0.3             79    2.52 5 85.7 243 
 HD47     P    a  0200 53.90                              79   -1.58 8 99.0  63 
 HD47     S    a  0201 03.80      1.5     0.2             79   -4.63 0 99.0  63 
 HD66     P    a  0201 02.00                              77    0.2510  138 330 
 HD66     S    a  0201 18.30     0.60     0.2             77   -0.98 9  138 330 
 HD46     P    a  0201 01.40                              77   -1.44 8  145  34 
 HD46     S    a  0201 17.60      1.0     0.2             77   -3.57 0  145  34 
 HD69     P    a  0201 04.90                              70    0.4810  156 135 
 HD69     S    a  0201 22.90      3.3     0.3             70   -0.99 9  156 135 
 HD50     S    a  0201 24.80      2.7     0.3             70   -0.5110  161 305 
 HD27     P    a  0201 08.20                              66   -0.1910  181 345 
 HD27     S    a  0201 28.40     0.40     0.2             66   -2.36 6  181 345 
 HD51     S    a  0201 31.20     0.50     0.2             66    0.2010  182 311 
 HD56     P    a  0201 08.90                              66   -0.2710  186 352 
 HD56     S    a  0201 30.40     0.20     0.2             66   -1.70 8  186 352 
 HD28     P    a  0201 10.00                              66    0.0810  191 336 
 HD28     S    a  0201 32.30     0.30     0.2             66   -1.11 9  191 336 
 HD29     P    a  0201 10.70                              66    0.3310  195 327 
 HD29     S    a  0201 34.70      1.2     0.2             66    0.5110  195 327 
 HD30     P    a  0201 11.40                              66    0.2510  200 331 
 HD30     S    a  0201 34.80     0.30     0.2             66   -0.7410  200 331 
 HD31     P    a  0201 14.00                              66    0.89 9  213 333 
 HD31     S    a  0201 38.70     0.50     0.2             66   -0.2310  213 333 
 HD45     S    a  0201 38.60     0.90     0.3             66   -0.7510  215   3 
 HD32     P    a  0201 14.90                              66    1.15 9  217 338 
 HD32     S    a  0201 40.10     0.30     0.2             66    0.0610  217 338 
 HD33     P    a  0201 15.00                              66    1.00 9  219 340 
 HD33     S    a  0201 40.10     0.30     0.2             66   -0.3710  219 340 
 HD34     P    a  0201 15.50                              66    0.4010  226 347 
 HD34     S    a  0201 41.70     0.40     0.2             66   -0.6710  226 347 
 HD35     S    a  0201 45.90     0.60     0.3             66    0.3410  239 348 
 HD36     S    a  0201 46.50     0.30     0.2             50    0.1810  242 350 
 HD65     S    a  0201 45.10     0.70     0.2             50   -1.20 9  243  23 
 HD63     P    a  0201 19.40                              50    0.7810  252  13 
 HD63     S    a  0201 49.00     0.50     0.3             50    0.5410  252  13 
 HD37     S    a  0201 49.60     0.30     0.2             50    0.7310  254 354 
 HD39     S    a  0201 50.10     0.20     0.2             50    0.7810  256   1 
 HD62     S    a  0201 55.20     0.60     0.2             50    1.18 9  278  13 
 HD41     S    a  0201 56.60     0.30     0.2             50    2.33 6  279   6 
 HD42     S    a  0202 00.90     0.70     0.2             50    3.37 1  295   7 
 HD43     P    a  0201 28.30                              50    2.59 5  310   5 
 HD43     S    a  0202 04.30     0.20     0.3             50    3.57 0  310   5 
                                                                                
