 2017  427 1115 48.9 R  43.567 105.458  0.0  mon 29 4.7                        1
 GAP=121       12.33      26.7    28.1 31.2 -0.2411E+02  0.9733E+02 -0.3438E+03E
 ACTION:REG 18-10-16 09:43 OP:ngse STATUS:               ID:20170427111543     I
 IDC: ellipse    1.2    0.7  11 MB sd+-                  Event ID    70188     3
 * 7 km SE Tavan_Tolgoi coal mine                    ***                       3
 STAT SP IPHASW D HRMM SECON CODA AMPLIT PERI AZIMU VELO AIN AR TRES W  DIS CAZ7
 ERM3     P    a  1116 45.10                                                    
 TT2M     P    a  1115 46.50                             110   -3.1510 4.24 150 
 TT2M     S    a  1115 49.50                             110   -0.7210 4.24 150 
 TT1M     P    a  1115 45.00                             103   -5.0610 6.70  40 
 TT1M     S    a  1115 46.50                             103   -4.4210 6.70  40 
 TT3M     P    a  1115 45.60                              97   -5.39 9 12.2 352 
 TT3M     S    a  1115 47.00                              97   -5.53 9 12.2 352 
 TT4M     P    a  1115 48.90                              94   -4.3010 25.0  69 
 TT4M     S    a  1115 52.60                              94   -3.7510 25.0  69 
 DZBM     P    a  1115 58.20                              91   -4.7910 81.9 290 
 DZBM     S    a  1116 08.90                              91   -4.4010 81.9 290 
 DZDM     S    a  1116 12.40                              91   -1.6310 84.3 271 
 MDGM     P    a  1116 24.80                              46   -3.9610  249  16 
 MDGM     S    a  1116 54.90                              46   -2.9910  249  16 
 U07M     P    a  1116 42.40                              46   -5.48 9  404   9 
 BGDM     P    a  1116 51.10                              46    1.9410  415 298 
 U10M     P    a  1116 45.60                              46   -5.47 9  430   2 
 U08M     P    a  1116 46.40                              46   -5.30 9  435   6 
 U05M     P    a  1116 57.20                              46    4.6510  442  13 
 U12M     P    a  1116 49.00                              46   -5.36 9  457 359 
 U06M     P    a  1117 00.40                              46    5.52 9  461  10 
 U09M     P    a  1116 59.60                              46    4.3610  464   6 
 U11M     P    a  1116 49.90                              46   -5.88 9  468   2 
 UGDM     P    a  1117 02.80                              46    5.85 9  477  18 
 SB4M     P    a  1117 02.20                              46    5.0310  479   8 
 SB3M     P    a  1117 02.30                              46    5.0310  480   9 
 SA0M     P    a  1117 02.50                              46    5.27 9  480   8 
 SA4M     P    a  1117 02.90                              46    5.57 9  481   8 
 SA1M     P    a  1117 02.70                              46    5.28 9  481   8 
 SA3M     P    a  1117 03.00                              46    5.54 9  482   9 
 SA2M     P    a  1117 02.70                              46    5.23 9  482   8 
 SB2M     P    a  1117 02.30                              46    4.8110  482   9 
 SB5M     P    a  1117 02.50                              46    5.0410  482   8 
 SB1M     P    a  1117 02.90                              46    5.25 9  483   8 
 U14M     P    a  1117 04.90                              46    4.0110  510 357 
                                                                                
 2017  427 1117 32.1 R  43.544 105.417  0.0  mon 39 5.0                        1
 GAP=171       12.72      39.3    26.2 32.5 -0.1426E+03  0.1762E+03 -0.4764E+03E
 ACTION:REG 18-10-16 09:43 OP:ngse STATUS:               ID:20170427111726     I
 IDC: ellipse    1.1    0.7  10 MB sd+-                  Event ID    70188     3
 * 7 km  W Tavan_Tolgoi coal mine                    ***                       3
 STAT SP IPHASW D HRMM SECON CODA AMPLIT PERI AZIMU VELO AIN AR TRES W  DIS CAZ7
 ERM3     P    a  1118 28.60                                                    
 TT2M     P    a  1117 29.40                             106   -3.7110 5.59 102 
 TT2M     S    a  1117 32.80                             106   -1.0410 5.59 102 
 TT1M     P    a  1117 27.90                              98   -6.09 9 10.8  45 
 TT1M     S    a  1117 30.10                              98   -5.27 9 10.8  45 
 TT3M     P    a  1117 28.40                              96   -6.25 9 14.7   7 
 TT3M     S    a  1117 29.60                              96   -6.91 9 14.7   7 
 TT4M     P    a  1117 31.80                              93   -5.33 9 29.1  67 
 TT4M     S    a  1117 35.80                              93   -5.00 9 29.1  67 
 DZBM     P    a  1117 41.00                              91   -4.85 9 79.7 292 
 DZBM     S    a  1117 52.00                              91   -3.8810 79.7 292 
 DZDM     P    a  1117 41.50                              91   -4.5810 81.1 272 
 DZDM     S    a  1117 52.40                              91   -3.8910 81.1 272 
 MDGM     P    a  1118 08.10                              46   -4.3210  253  16 
 MDGM     S    a  1118 38.80                              46   -3.0410  253  16 
 U07M     P    a  1118 25.10                              46   -6.39 9  407  10 
 BGDM     P    a  1118 32.70                              46    0.5310  413 298 
 U10M     P    a  1118 28.50                              46   -6.13 9  433   2 
 U08M     P    a  1118 28.90                              46   -6.40 9  438   7 
 U05M     P    a  1118 37.90                              46    1.7110  445  14 
 U12M     P    a  1118 31.90                              46   -6.01 9  459 360 
 SEMM     P    a  1118 41.80                              46    3.3910  463  15 
 U06M     P    a  1118 41.60                              46    3.1010  464  10 
 U09M     P    a  1118 31.70                              46   -7.14 9  467   6 
 U11M     P    a  1118 33.00                              46   -6.34 9  471   2 
 UGDM     P    a  1118 44.10                              46    3.4910  481  18 
 SB4M     P    a  1118 45.20                              46    4.4210  482   8 
 SA0M     P    a  1118 45.90                              46    5.06 9  483   9 
 SB3M     P    a  1118 45.40                              46    4.5210  483   9 
 SA4M     P    a  1118 45.20                              46    4.2710  484   9 
 SA1M     P    a  1118 45.30                              46    4.2710  484   9 
 SB2M     P    a  1118 46.10                              46    5.00 9  485   9 
 SA2M     P    a  1118 44.60                              46    3.5210  485   9 
 SB5M     P    a  1118 45.30                              46    4.2410  485   8 
 SA3M     P    a  1118 44.60                              46    3.5310  485   9 
 SB1M     P    a  1118 45.10                              46    3.8410  486   9 
 UB5M     P    a  1118 46.20                              46    4.87 9  487  12 
 UB0M     P    a  1118 46.20                              46    4.1910  492   5 
 U13M     P    a  1118 46.30                              46    4.1010  494 360 
 UB2M     P    a  1118 47.80                              46    4.3910  504   9 
 ALFM     P    a  1118 51.10                              46    7.30 9  507  12 
 ARTM     P    a  1118 51.20                              46    7.20 9  508  16 
 U14M     P    a  1118 38.30                              46   -6.12 9  512 357 
 CCBM     P    a  1118 50.90                              46    4.67 9  526 326 
 U04M     P    a  1118 54.40                              46    6.04 9  544  27 
 BULM     P    a  1119 03.00                              46    8.57 8  593 347 
                                                                                
 2017  5 2 1008 38.7 R  43.675 105.483  0.0  mon  6 0.3                        1
 GAP= 95        0.74       2.2     2.1  4.0  0.2461E+01 -0.4345E+01 -0.5951E+01E
 ACTION:REG 18-10-16 09:43 OP:ngse STATUS:               ID:20170502100838     I
 IDC: ellipse    3.6    1.9  23 MB sd+-                  Event ID    70476     3
 * 6 km NE Tavan_Tolgoi coal mine                    ***                       3
 STAT SP IPHASW D HRMM SECON CODA AMPLIT PERI AZIMU VELO AIN AR TRES W  DIS CAZ7
 TT3M     P    a  1008 39.10                             113   -0.2910 3.64 272 
 TT3M     S    a  1008 39.90                             113    0.0110 3.64 272 
 TT1M     P    a  1008 39.50                             102   -0.4710 7.15 161 
 TT1M     S    a  1008 40.90                             102    0.0110 7.15 161 
 TT2M     P    a  1008 41.20                              96   -0.2110 15.6 180 
 TT2M     S    a  1008 44.00                              96    0.61 9 15.6 180 
 TT4M     P    a  1008 42.60                              94    0.1610 21.6  98 
 TT4M     S    a  1008 45.00                              94   -0.1610 21.6  98 
 DZBM     P    a  1008 52.80                              91    0.1910 80.6 281 
 DZBM     S    a  1009 02.70                              91   -0.0510 80.6 281 
 MDGM     S    a  1009 45.40                              46    0.2510  237  16 
                                                                                
 2017  5 2 1111 28.4 R  43.652 105.473  4.4  mon  5 0.4                        1
 GAP=139        1.06       3.2     3.2  4.5  0.3970E+01  0.1097E+01 -0.5604E+00E
 ACTION:REG 18-10-16 09:43 OP:ngse STATUS:               ID:20170502111128     I
 IDC: ellipse    4.1    1.8  21 MB sd+-                  Event ID    70477     3
 * 2 km  N Tavan_Tolgoi coal mine                    ***                       3
 STAT SP IPHASW D HRMM SECON CODA AMPLIT PERI AZIMU VELO AIN AR TRES W  DIS CAZ7
 TT3M     P    a  1111 29.40                             147   -0.2310 3.87 312 
 TT3M     S    a  1111 30.50                             147   -0.0210 3.87 312 
 TT1M     P    a  1111 29.10                             138   -0.67 9 5.26 145 
 TT1M     S    a  1111 31.20                             138    0.4310 5.26 145 
 TT2M     P    a  1111 30.50                             114   -0.4010 13.2 176 
 TT2M     S    a  1111 32.90                             114    0.1810 13.2 176 
 TT4M     P    a  1111 32.90                             105    0.54 9 22.1  91 
 TT4M     S    a  1111 35.20                             105   -0.0510 22.1  91 
 DZBM     P    a  1111 41.90                              94   -0.4110 80.4 283 
 DZBM     S    a  1111 53.10                              94    0.65 9 80.4 283 
                                                                                
 2017  5 2 1112 10.4 R  43.601 105.429  8.0  mon  6 0.8                        1
 GAP=119        1.76       6.8     5.9  9.0  0.3362E+01  0.2361E+02  0.1059E+02E
 ACTION:REG 18-10-16 09:43 OP:ngse STATUS:               ID:20170502111211     I
 IDC: ellipse    3.8    1.7  14 MB sd+-                  Event ID    70477     3
 * 4 km SE Tavan_Tolgoi coal mine                    ***                       3
 STAT SP IPHASW D HRMM SECON CODA AMPLIT PERI AZIMU VELO AIN AR TRES W  DIS CAZ7
 TT1M     S    a  1112 13.80                             145   -0.0510 6.72  78 
 TT3M     P    a  1112 11.60                             139   -0.95 9 8.33   4 
 TT3M     S    a  1112 14.20                             139    0.0510 8.33   4 
 TT2M     P    a  1112 12.50                             138   -0.0910 8.64 149 
 TT2M     S    a  1112 16.20                             138    1.99 7 8.64 149 
 TT4M     P    a  1112 15.00                             110   -0.1810 26.2  78 
 TT4M     S    a  1112 19.00                             110    0.3110 26.2  78 
 DZBM     P    a  1112 24.80                              97    0.80 9 78.5 288 
 DZBM     S    a  1112 36.60                              97    2.64 0 78.5 288 
 DZDM     S    a  1112 33.90                              97   -1.11 9 82.1 268 
                                                                                
 2017  5 9 0020 51.3 R  43.539 105.396  9.4  mon  3 0.3                        1
 GAP=199        0.58       3.4    12.3 10.3  0.2388E+02  0.1243E+03  0.1862E+02E
 ACTION:REG 18-10-16 09:43 OP:ngse STATUS:               ID:20170509002052     I
 IDC: ellipse   15.8    1.4  31 MB sd+-                  Event ID    70367     3
 * 4 km SW Tavan_Tolgoi coal mine                    ***                       3
 STAT SP IPHASW D HRMM SECON CODA AMPLIT PERI AZIMU VELO AIN AR TRES W  DIS CAZ7
 TT2M     P    a  0020 53.20                             147   -0.3110 7.12  94 
 TT2M     S    a  0020 55.30                             147    0.1410 7.12  94 
 TT3M     P    a  0020 52.30                             125   -2.24 0 15.5  12 
 TT3M     S    a  0020 56.90                             125   -0.0310 15.5  12 
 DZBM     P    a  0021 05.20                              75    0.3310 78.4 293 
 DZBM     S    a  0021 14.70                              75   -0.1110 78.4 293 
                                                                                
