 2013  325 0859  4.3 R  46.321  99.819  9.4  mon 30 0.8 0.6Lmon                1
 GAP=146        1.69       2.9     2.7  6.5  0.2740E+01  0.1151E+01 -0.4811E+01E
 ACTION:REG 17-04-05 21:52 OP:ngse STATUS:               ID:20130325085905     I
 IDC: ellipse    1.5    0.8  24 MB sd+-                  Event ID   450995     3
 * 18 km NE Bumbugur Baynhongor                      ***                       3
 STAT SP IPHASW D HRMM SECON CODA AMPLIT PERI AZIMU VELO AIN AR TRES W  DIS CAZ7
 HD47     P    a  0859 11.50                              91    0.2810 31.8 128 
 HD47     S    a  0859 15.40      4.4     0.2             91   -0.85 9 31.8 128 
 HD67     P    a  0859 15.70                              91   -0.0210 59.2 273 
 HD67     S    a  0859 23.10      1.7     0.2             91   -0.94 9 59.2 273 
 HD46     P    a  0859 15.90                              91    0.1610 59.4  18 
 HD46     S    a  0859 23.40      3.9     0.2             91   -0.66 9 59.4  18 
 HD06     P    a  0859 17.80                              90   -0.0110 72.2  97 
 HD06     S    a  0859 26.00      4.9     0.3             90   -1.65 6 72.2  97 
 HD25     P    a  0859 19.60                              90    0.1410 82.2 338 
 HD25     S    a  0859 29.30     0.70     0.2             90   -1.20 8 82.2 338 
 HD11     P    a  0859 20.70                              90    0.1110 89.0  70 
 HD11     S    a  0859 31.00      3.3     0.3             90   -1.47 7 89.0  70 
 HD07     P    a  0859 20.60                              90   -0.4910 92.5 116 
 HD07     S    a  0859 31.60     0.90     0.2             90   -1.72 5 92.5 116 
 HD12     S    a  0859 33.10      8.6     0.2             90   -1.26 8 95.6  64 
 HD13     S    a  0859 34.50      1.9     0.1             90   -0.82 9 98.8  57 
 HD24     P    a  0859 24.30                              90    0.1010  111  10 
 HD24     S    a  0859 37.80     0.90     0.2             90   -0.91 9  111  10 
 HD15     P    a  0859 26.00                              78    0.3310  120  46 
 HD15     S    a  0859 40.10      1.3     0.2             78   -1.16 8  120  46 
 HD26     P    a  0859 26.50                              78   -0.2010  126 319 
 HD26     S    a  0859 41.10     0.90     0.2             78   -1.93 4  126 319 
 HD16     P    a  0859 28.20                              76    0.55 9  133  43 
 HD05     P    a  0859 28.60                              76    0.0210  139  98 
 HD05     S    a  0859 46.30      1.3     0.2             76    0.0210  139  98 
 HD17     P    a  0859 30.60                              76    0.55 9  148  43 
 HD17     S    a  0859 48.40     0.80     0.2             76   -0.4310  148  43 
 HD27     P    a  0859 31.70                              76    0.4610  155 316 
 HD27     S    a  0859 49.40     0.30     0.2             76   -1.49 7  155 316 
 HD45     P    a  0859 32.40                              76    0.54 9  159 341 
 HD45     S    a  0859 51.40     0.60     0.2             76   -0.5710  159 341 
 HD18     P    a  0859 33.10                              76    0.72 9  163  43 
 HD18     S    a  0859 52.70      2.2     0.3             76   -0.1510  163  43 
 HD22     P    a  0859 34.90                              69    0.87 9  173  58 
 HD22     S    a  0859 56.10     0.30     0.1             69    0.3910  173  58 
 HD04     P    a  0859 34.80                              69    0.4210  175  88 
 HD04     S    a  0859 56.70      2.3     0.2             69    0.3810  175  88 
 HD28     S    a  0859 57.30     0.20     0.2             69   -0.0410  179 309 
 HD34     S    a  0900 01.50      1.7     0.3             65    0.4910  193 325 
 HD30     P    a  0859 37.40                              65    0.0910  195 305 
 HD30     S    a  0900 03.50      1.4     0.3             65    2.12 3  195 305 
 HD33     P    a  0859 38.20                              65    0.5110  197 317 
 HD33     S    a  0900 03.00     0.80     0.3             65    0.96 8  197 317 
 HD31     P    a  0859 38.10                              65   -0.4010  203 309 
 HD31     S    a  0900 02.90      1.0     0.3             65   -0.5510  203 309 
 HD03     P    a  0859 40.50                              65    0.85 9  211  83 
 HD03     S    a  0900 06.30     0.40     0.2             65    0.86 9  211  83 
 HD41     S    a  0900 07.40     0.40     0.2             65    0.57 9  216 352 
 HD42     S    a  0900 11.90      1.5     0.2             65    1.46 6  230 353 
 HD01     S    a  0900 14.60                              65    1.46 6  241  74 
 HD43     S    a  0900 16.10     0.40     0.3             65    1.52 6  247 352 
                                                                                
 2013 1229 0228 17.3 R  46.078  97.619  2.5  mon 30 0.9 0.8Lmon                1
 GAP=241        2.04       6.7     8.8  6.5  0.4085E+02 -0.3879E+02 -0.2885E+02E
 ACTION:REG 17-04-05 21:52 OP:ngse STATUS:               ID:20131229022816     I
 IDC: ellipse    1.5    1.3 116 MB sd+-                  Event ID   457725     3
 * 36 km NE Biger GobiAltai                          ***                       3
 STAT SP IPHASW D HRMM SECON CODA AMPLIT PERI AZIMU VELO AIN AR TRES W  DIS CAZ7
 HD49     S    a  0228 31.10      61.     0.2             97   -0.4010 36.1 328 
 HD50     P    a  0228 29.70                              46   -0.1510 60.3 336 
 HD50     S    a  0228 37.90      11.     0.2             46   -1.10 9 60.3 336 
 HD70     S    a  0228 37.80      4.1     0.2             46   -7.73 0 82.9 157 
 HD66     P    a  0228 34.70                              46    0.0610 89.2  24 
 HD66     S    a  0228 47.40      8.3     0.3             46    0.1110 89.2  24 
 HD67     P    a  0228 37.80                              46   -0.96 9  115  74 
 HD67     S    a  0228 52.60      2.6     0.2             46   -1.81 7  115  74 
 HD29     P    a  0228 39.90                              46   -0.6310  125 359 
 HD29     S    a  0228 56.70      2.8     0.2             46   -0.78 9  125 359 
 HD30     P    a  0228 41.80                              45   -0.5710  137   3 
 HD30     S    a  0228 59.70      1.5     0.2             45   -0.95 9  137   3 
 HD28     P    a  0228 42.50                              45   -0.4210  140  11 
 HD28     S    a  0229 01.10     0.30     0.2             45   -0.5010  140  11 
 HD27     P    a  0228 44.50                              45   -0.0610  150  23 
 HD27     S    a  0229 05.20     0.40     0.2             45    0.76 9  150  23 
 HD31     P    a  0228 44.50                              45   -0.4010  153   3 
 HD31     S    a  0229 04.10     0.80     0.2             45   -0.93 9  153   3 
 HD32     P    a  0228 46.40                              45   -0.4210  165   7 
 HD32     S    a  0229 08.30     0.50     0.2             45   -0.0410  165   7 
 HD56     P    a  0228 46.90                              45   -0.3010  167  28 
 HD56     S    a  0229 09.20      1.0     0.3             45    0.2010  167  28 
 HD54     S    a  0229 08.10      1.4     0.2             45   -1.49 8  170 339 
 HD33     P    a  0228 47.90                              45    0.0210  171  10 
 HD33     S    a  0229 10.40     0.70     0.2             45    0.2110  171  10 
 HD71     P    a  0228 45.80                              43   -4.65 0  188 253 
 HD71     S    a  0229 06.80      1.0     0.2             43   -7.84 0  188 253 
 HD34     P    a  0228 51.80                              43    0.80 9  191  16 
 HD34     S    a  0229 14.80     0.30     0.2             43   -0.78 9  191  16 
 HD47     P    a  0228 50.50                              41   -1.00 9  195  87 
 HD47     S    a  0229 14.30      1.8     0.2             41   -2.14 6  195  87 
 HD35     P    a  0228 53.50                              41    0.6610  204  15 
 HD35     S    a  0229 19.20     0.50     0.2             41    0.4410  204  15 
 HD46     S    a  0229 18.70      3.5     0.3             41   -0.2810  205  65 
 HD36     P    a  0228 54.80                              41    0.91 9  211  17 
 HD36     S    a  0229 21.30      1.2     0.3             41    0.7110  211  17 
 HD45     P    a  0228 54.70                              41    0.6810  212  33 
 HD45     S    a  0229 21.80      1.2     0.3             41    1.00 9  212  33 
 HD37     P    a  0228 57.60                              41    1.12 9  229  19 
 HD37     S    a  0229 24.70     0.50     0.2             41   -0.3610  229  19 
 HD38     P    a  0228 59.90                              41    1.31 9  243  23 
 HD38     S    a  0229 31.00     0.50     0.2             41    2.28 6  243  23 
 HD59     P    a  0228 59.00                              41   -0.1510  247 349 
 HD59     S    a  0229 30.70     0.50     0.3             41    1.03 9  247 349 
 HD60     P    a  0229 01.50                              34    0.6510  259   1 
 HD60     S    a  0229 33.30     0.60     0.2             34    0.6810  259   1 
 HD40     P    a  0229 03.20                              34    1.60 8  265  26 
 HD40     S    a  0229 37.40     0.60     0.3             34    3.47 0  265  26 
 HD61     P    a  0229 03.90                              34    1.66 8  271  11 
 HD61     S    a  0229 38.10     0.90     0.3             34    3.08 2  271  11 
 HD41     S    a  0229 40.40     0.50     0.2             34    4.11 0  276  29 
 HD42     S    a  0229 44.30      1.2     0.2             34    4.78 0  291  28 
 HD43     P    a  0229 09.20                              34    3.00 2  302  26 
 HD43     S    a  0229 47.70     0.60     0.3             34    5.82 0  302  26 
                                                                                
 2014  1 7 0520 38.8 R  45.852  98.942  6.8  mon 30 1.0 0.9Lmon                1
 GAP=115        2.18       4.0     6.9  6.1 -0.2171E+01 -0.5480E+00 -0.9736E+01E
 ACTION:REG 17-04-05 21:52 OP:ngse STATUS:               ID:20140107052038     I
 IDC: ellipse    1.7    1.6 123 MB sd+-                  Event ID   457915     3
 * 36 km NW Baatsagaan Baynhongor                    ***                       3
 STAT SP IPHASW D HRMM SECON CODA AMPLIT PERI AZIMU VELO AIN AR TRES W  DIS CAZ7
 HD67     P    a  0520 48.90                              46   -1.07 9 55.9   9 
 HD67     S    a  0520 55.80      11.     0.2             46   -2.35 6 55.9   9 
 HD70     P    a  0520 54.80                              46   -0.3910 87.8 235 
 HD70     S    a  0521 07.00      3.5     0.3             46   -0.1910 87.8 235 
 HD47     P    a  0520 53.30                              46   -3.61 0 98.6  70 
 HD47     S    a  0521 03.10      3.2     0.2             46   -7.05 0 98.6  70 
 HD66     P    a  0521 01.50                              45    0.1810  126 329 
 HD66     S    a  0521 17.50      1.4     0.2             45   -0.2910  126 329 
 HD46     P    a  0521 00.60                              45   -2.75 4  138  38 
 HD46     S    a  0521 17.20      2.6     0.2             45   -4.10 0  138  38 
 HD27     P    a  0521 07.70                              45   -0.4510  168 346 
 HD27     S    a  0521 28.10     0.70     0.2             45   -1.51 8  168 346 
 HD56     P    a  0521 08.20                              45   -0.83 9  174 353 
 HD56     S    a  0521 28.40     0.40     0.2             45   -2.72 4  174 353 
 HD28     P    a  0521 09.50                              43   -0.2710  179 336 
 HD28     S    a  0521 31.70     0.40     0.2             43   -0.7010  179 336 
 HD29     P    a  0521 09.60                              43   -0.6710  182 326 
 HD29     S    a  0521 33.60      1.0     0.2             43    0.3310  182 326 
 HD30     P    a  0521 11.00                              43   -0.0510  187 330 
 HD30     S    a  0521 34.10     0.70     0.2             43   -0.5210  187 330 
 HD31     P    a  0521 13.20                              41    0.2010  200 333 
 HD31     S    a  0521 37.80      1.3     0.2             41   -0.2010  200 333 
 HD45     P    a  0521 13.40                              41   -0.0310  203   4 
 HD45     S    a  0521 37.20      2.4     0.2             41   -1.53 8  203   4 
 HD32     P    a  0521 13.90                              41    0.2610  205 338 
 HD32     S    a  0521 38.70     0.80     0.2             41   -0.3910  205 338 
 HD33     P    a  0521 15.00                              41    1.11 9  206 340 
 HD33     S    a  0521 39.10     0.70     0.2             41   -0.4310  206 340 
 HD34     P    a  0521 15.40                              41    0.3910  214 348 
 HD34     S    a  0521 41.00      1.1     0.2             41   -0.4710  214 348 
 HD35     S    a  0521 45.20                              41    0.5310  226 348 
 HD36     S    a  0521 46.30     0.70     0.3             41    0.7610  230 351 
 HD65     S    a  0521 44.50      1.5     0.2             41   -1.96 7  234  25 
 HD63     S    a  0521 48.00     0.60     0.3             41   -0.6310  242  14 
 HD39     P    a  0521 19.80                              41    0.2710  244   2 
 HD39     S    a  0521 49.80     0.50     0.3             41    0.5010  244   2 
 HD38     P    a  0521 20.70                              41    0.5110  249 359 
 HD38     S    a  0521 50.70     0.80     0.2             41    0.2710  249 359 
 HD40     P    a  0521 22.90                              34    0.91 9  263   4 
 HD40     S    a  0521 54.60     0.80     0.2             34    1.05 9  263   4 
 HD41     P    a  0521 23.30                              34    0.6810  268   7 
 HD41     S    a  0521 56.20      1.0     0.2             34    1.57 8  268   7 
 HD42     P    a  0521 25.40                              34    0.89 9  284   8 
 HD42     S    a  0521 59.90      1.6     0.2             34    1.99 7  284   8 
 HD61     P    a  0521 28.80                              34    2.88 4  295 351 
 HD61     S    a  0522 04.60     0.40     0.3             34    4.26 0  295 351 
 HD43     P    a  0521 28.00                              34    1.66 8  299   6 
 HD43     S    a  0522 02.90     0.50     0.2             34    1.83 7  299   6 
 HD60     P    a  0521 29.40                              34    2.80 4  300 342 
 HD60     S    a  0522 06.00     0.50     0.2             34    4.47 0  300 342 
 HD59     P    a  0521 31.20                              34    3.79 0  306 331 
 HD59     S    a  0522 06.40     0.30     0.3             34    3.49 1  306 331 
 HD57     S    a  0522 09.80      4.2     0.2             34    4.64 0  318   6 
 HD68     S    a  0522 04.50     0.70     0.2             34   -1.02 9  319 119 
                                                                                
 2014  113 1034 41.2 R  45.759  96.557  0.0  mon 28 2.0 1.0Lmon                1
 GAP=148        4.56      11.1    15.1 13.2  0.1363E+02 -0.7293E+02 -0.7503E+02E
 ACTION:REG 17-04-05 21:52 OP:ngse STATUS:               ID:20140113103442     I
 IDC: ellipse    2.0    1.5 132 MB sd+-                  Event ID   458291     3
 * 45 km  N Tsogt GobiAltai                          ***                       3
 STAT SP IPHASW D HRMM SECON CODA AMPLIT PERI AZIMU VELO AIN AR TRES W  DIS CAZ7
 HD71     P    a  1034 59.00                              46   -1.49 9 99.5 257 
 HD71     S    a  1035 10.40      3.4     0.2             46   -4.21 6 99.5 257 
 HD70     P    a  1035 03.40                              46   -0.8310  122 109 
 HD70     S    a  1035 18.30      1.0     0.2             46   -2.77 8  122 109 
 HD66     P    a  1035 10.30                              45   -0.9710  166  45 
 HD66     S    a  1035 30.50     0.90     0.3             45   -2.75 8  166  45 
 HD29     P    a  1035 12.10                              45   -1.3210  180  26 
 HD29     S    a  1035 34.50      1.6     0.3             45   -2.47 9  180  26 
 HD30     P    a  1035 14.40                              43   -1.1410  194  27 
 HD30     S    a  1035 38.10      1.4     0.2             43   -2.53 9  194  27 
 HD28     P    a  1035 16.50                              41   -0.6610  204  32 
 HD28     S    a  1035 41.60     0.60     0.2             41   -1.85 9  204  32 
 HD67     P    a  1035 16.10                              41   -0.9510  204  70 
 HD67     S    a  1035 40.30     0.70     0.2             41   -2.96 8  204  70 
 HD31     P    a  1035 17.10                              41   -0.6510  208  25 
 HD31     S    a  1035 42.30     0.90     0.2             41   -2.16 9  208  25 
 HD32     P    a  1035 19.50                              41   -0.5510  224  27 
 HD32     S    a  1035 47.20     0.80     0.2             41   -1.2510  224  27 
 HD27     P    a  1035 19.40                              41   -0.6610  224  39 
 HD27     S    a  1035 46.00     0.50     0.3             41   -2.46 9  224  39 
 HD33     P    a  1035 20.90                              41   -0.5010  233  28 
 HD33     S    a  1035 49.30      1.0     0.2             41   -1.4810  233  28 
 HD56     P    a  1035 23.20                              41    0.2710  243  41 
 HD56     S    a  1035 52.40      1.1     0.3             41   -1.0310  243  41 
 HD34     P    a  1035 25.20                              34    0.1410  258  31 
 HD34     S    a  1035 55.80     0.80     0.2             34   -1.3210  258  31 
 HD35     P    a  1035 27.40                              34    0.9610  269  30 
 HD35     S    a  1035 59.70      1.2     0.3             34    0.2010  269  30 
 HD36     P    a  1035 28.80                              34    1.3110  277  31 
 HD36     S    a  1036 00.90      1.3     0.3             34   -0.4210  277  31 
 HD59     P    a  1035 28.00                              34    0.3510  279   6 
 HD59     S    a  1036 01.00     0.20     0.3             34   -0.6010  279   6 
 HD47     P    a  1035 29.00                              34    1.0810  281  80 
 HD47     S    a  1036 02.70      1.3     0.3             34    0.6310  281  80 
 HD45     S    a  1036 05.40      2.0     0.3             34    1.2810  290  42 
 HD46     P    a  1035 31.40                              34    1.78 9  295  65 
 HD46     S    a  1036 07.40     0.80     0.3             34    2.40 9  295  65 
 HD37     P    a  1035 31.90                              34    2.04 9  296  31 
 HD37     S    a  1036 07.50     0.90     0.3             34    2.09 9  296  31 
 HD60     P    a  1035 33.40                              34    2.33 9  307  16 
 HD60     S    a  1036 09.70      1.4     0.3             34    2.19 9  307  16 
 HD38     P    a  1035 34.30                              34    2.34 9  313  33 
 HD38     S    a  1036 11.70     0.80     0.3             34    2.66 8  313  33 
 HD39     S    a  1036 12.90     0.40     0.2             34    2.88 8  318  36 
 HD61     P    a  1035 37.00                              34    3.18 8  329  23 
 HD61     S    a  1036 16.60      1.3     0.3             34    4.34 6  329  23 
 HD40     S    a  1036 17.40     0.70     0.2             34    3.10 8  338  35 
 HD63     S    a  1036 20.80     0.20     0.2             34    4.99 4  345  44 
 HD41     S    a  1036 21.50     0.40     0.3             34    4.40 6  351  37 
 HD65     P    a  1035 41.90                              34    4.33 6  358  50 
                                                                                
