 2016  917 1225 30.9 R  46.275 106.167  8.5  mon  9 0.1-0.5Lmon                1
 GAP=175        0.43       1.5     1.1  2.4  0.1246E+00 -0.1325E+01 -0.1155E+01E
 ACTION:REG 18-10-16 09:42 OP:ngse STATUS:               ID:20160917122531     I
 IDC: ellipse    2.8    1.3 177 MB sd+-                  Event ID       11     3
 * 22 km NW Delgertsogt Dundgobi                     ***                       3
 STAT SP IPHASW D HRMM SECON CODA AMPLIT PERI AZIMU VELO AIN AR TRES W  DIS CAZ7
 DR02     P    a  1225 32.70                             153   -0.0310 5.14 209 
 DR02     S    a  1225 34.20      1.9     0.2            153    0.1210 5.14 209 
 DR10     P    a  1225 34.10                             120   -0.0910 17.5 164 
 DR10     S    a  1225 36.60                             120   -0.0010 17.5 164 
 DR01     P    a  1225 34.60                             117    0.0610 20.0 278 
 DR01     S    a  1225 37.20      1.2     0.2            117   -0.0110 20.0 278 
 DR09     P    a  1225 35.10                             113   -0.0210 23.9 217 
 DR09     S    a  1225 38.20                             113   -0.0110 23.9 217 
 DR05     P    a  1225 35.90                             108   -0.1610 30.0  93 
 DR05     S    a  1225 39.60     0.60     0.2            108   -0.2510 30.0  93 
 DR03     S    a  1225 45.00                             101   -0.0410 49.0 111 
 DR08     S    a  1225 45.40                             101   -0.1510 50.8 105 
 DR07     S    a  1225 47.40                             100    0.1210 57.1  94 
 DR06     P    a  1225 43.00                              98    0.0810 72.9 102 
 DR06     S    a  1225 52.10     0.50     0.3             98    0.4010 72.9 102 
                                                                                
 2016  917 1544 50.6 R  46.209 106.511  7.1  mon 10 0.2-0.3Lmon                1
 GAP=127        0.48       1.8     0.8  2.7  0.1472E+00  0.3110E+00  0.1939E+01E
 ACTION:REG 18-10-16 09:42 OP:ngse STATUS:               ID:20160917154450     I
 IDC: ellipse    1.9    0.6   1 MB sd+-                  Event ID      118     3
 * 14 km  W Deren Dundgobi                           ***                       3
 STAT SP IPHASW D HRMM SECON CODA AMPLIT PERI AZIMU VELO AIN AR TRES W  DIS CAZ7
 DR05     P    a  1544 52.20                             142   -0.1610 6.61  32 
 DR05     S    a  1544 53.80                             142    0.1410 6.61  32 
 DR03     P    a  1544 54.20                             111   -0.2210 21.8 119 
 DR03     S    a  1544 57.30                             111    0.0810 21.8 119 
 DR08     P    a  1544 54.40                             110   -0.2510 23.3 105 
 DR08     S    a  1544 57.40      1.7     0.2            110   -0.2110 23.3 105 
 DR10     P    a  1544 54.70                             110   -0.0110 23.7 246 
 DR10     S    a  1544 57.80      3.4     0.3            110    0.0710 23.7 246 
 DR02     P    a  1544 55.40                             106   -0.1710 29.2 276 
 DR02     S    a  1544 59.20     0.60     0.2            106   -0.0110 29.2 276 
 DR07     P    a  1544 55.80                             105    0.0310 30.5  84 
 DR07     S    a  1544 59.30     0.80     0.2            105   -0.2610 30.5  84 
 DR09     P    a  1544 57.70                             101    0.0010 42.6 254 
 DR09     S    a  1545 03.00      1.4     0.3            101    0.1110 42.6 254 
 DR04     P    a  1544 57.90                             101    0.0610 43.5  89 
 DR04     S    a  1545 03.50      1.3     0.2            101    0.3610 43.5  89 
 DR06     P    a  1544 58.20                             101    0.0510 45.4 100 
 DR06     S    a  1545 04.00                             101    0.3310 45.4 100 
 DR01     P    a  1544 58.50                             100    0.0210 47.4 282 
 DR01     S    a  1545 04.30     0.30     0.2            100    0.0610 47.4 282 
                                                                                
 2016  918 1250 23.3 R  46.202 106.812  8.5  mon  9 0.1-0.2Lmon                1
 GAP=134        0.41       1.5     1.1  2.0 -0.4582E+00  0.1279E+01 -0.1373E+01E
 ACTION:REG 18-10-16 09:42 OP:ngse STATUS:               ID:20160918125023     I
 IDC: ellipse    1.8    1.0   2 MB sd+-                  Event ID      125     3
 * 8 km  E Deren Dundgobi                            ***                       3
 STAT SP IPHASW D HRMM SECON CODA AMPLIT PERI AZIMU VELO AIN AR TRES W  DIS CAZ7
 DR08     P    a  1250 24.90                             152   -0.2110 5.29 187 
 DR08     S    a  1250 26.30      4.0     0.2            152   -0.1410 5.29 187 
 DR07     P    a  1250 25.20                             140   -0.1810 8.16  62 
 DR07     S    a  1250 27.00                             140    0.1010 8.16  62 
 DR03     P    a  1250 25.60                             133   -0.0710 10.7 203 
 DR03     S    a  1250 27.70      2.8     0.3            133    0.3010 10.7 203 
 DR04     P    a  1250 27.10                             116    0.1110 20.3  87 
 DR04     S    a  1250 29.70      2.8     0.3            116    0.0210 20.3  87 
 DR05     P    a  1250 27.00                             116   -0.0610 20.8 288 
 DR05     S    a  1250 29.90      4.7     0.2            116    0.0910 20.8 288 
 DR10     S    a  1250 36.60     0.40     0.2            102    0.0510 45.7 259 
 DR02     P    a  1250 32.00                             101   -0.0210 52.4 274 
 DR02     S    a  1250 38.30     0.90     0.2            101   -0.1010 52.4 274 
 DR09     S    a  1250 41.80                              99   -0.1310 65.1 261 
 DR01     P    a  1250 35.10                              98    0.1710 70.4 279 
 DR01     S    a  1250 43.50     0.70     0.3             98    0.0710 70.4 279 
                                                                                
 2016  918 2124 15.1 R  46.210 106.822  9.1  mon  6 0.3-0.5Lmon                1
 GAP=146        0.80       3.5     2.7  4.8 -0.3715E+01  0.7160E+01 -0.8750E+01E
 ACTION:REG 18-10-16 09:42 OP:ngse STATUS:               ID:20160918212415     I
 IDC: ellipse    5.3    2.8 164 MB sd+-                  Event ID       12     3
 * 11 km  E Deren Dundgobi                           ***                       3
 STAT SP IPHASW D HRMM SECON CODA AMPLIT PERI AZIMU VELO AIN AR TRES W  DIS CAZ7
 DR08     P    a  2124 16.90                             149   -0.1710 6.26 194 
 DR08     S    a  2124 18.50      2.9     0.2            149   -0.0210 6.26 194 
 DR07     P    a  2124 17.10                             146   -0.0410 7.05  65 
 DR07     S    a  2124 18.70      2.6     0.2            146    0.0610 7.05  65 
 DR03     P    a  2124 17.50                             132   -0.1510 11.8 205 
 DR03     S    a  2124 19.70      1.2     0.3            132    0.1610 11.8 205 
 DR04     P    a  2124 18.50                             118   -0.2010 19.5  89 
 DR04     S    a  2124 21.40      2.7     0.2            118    0.0610 19.5  89 
 DR02     P    a  2124 25.10                             101    1.15 7 53.1 273 
 DR02     S    a  2124 30.10     0.30     0.2            101   -0.3210 53.1 273 
 DR01     S    a  2124 35.40     0.30     0.2             98   -0.0310 71.1 278 
                                                                                
 2016  918 2126 18.6 R  46.202 106.502 14.1  mon  8 0.1-0.1Lmon                1
 GAP=159        0.39       1.2     0.8  2.8  0.8205E-01  0.5806E+00  0.1194E+00E
 ACTION:REG 18-10-16 09:42 OP:ngse STATUS:               ID:20160918212619     I
 IDC: ellipse    2.2    0.9   3 MB sd+-                  Event ID      128     3
 * 15 km NE Delgertsogt Dundgobi                     ***                       3
 STAT SP IPHASW D HRMM SECON CODA AMPLIT PERI AZIMU VELO AIN AR TRES W  DIS CAZ7
 DR03     P    a  2126 23.00                             125    0.0410 22.0 116 
 DR03     S    a  2126 26.50                             125    0.3210 22.0 116 
 DR10     P    a  2126 23.10                             124    0.0310 22.8 247 
 DR10     S    a  2126 26.40      3.2     0.3            124    0.0310 22.8 247 
 DR08     P    a  2126 23.10                             123   -0.1010 23.8 103 
 DR08     S    a  2126 26.30      1.6     0.2            123   -0.2810 23.8 103 
 DR02     P    a  2126 23.80                             119   -0.0910 28.6 277 
 DR02     S    a  2126 27.70      2.0     0.2            119   -0.0910 28.6 277 
 DR07     P    a  2126 24.40                             116    0.1310 31.3  83 
 DR07     S    a  2126 28.40                             116   -0.0310 31.3  83 
 DR09     P    a  2126 26.00                             110    0.1510 41.7 255 
 DR09     S    a  2126 31.20     0.90     0.3            110    0.0310 41.7 255 
 DR01     P    a  2126 26.60                             108   -0.0510 46.9 283 
 DR01     S    a  2126 32.60      1.1     0.2            108    0.0410 46.9 283 
 MDGM     P    a  2126 27.90                             106   -0.0010 54.9 194 
 MDGM     S    a  2126 34.60     0.90     0.2            106   -0.1210 54.9 194 
                                                                                
 2016  919 1523 46.3 R  46.303 106.547 21.5  mon 12 0.2 0.9Lmon                1
 GAP=103        0.64       1.4     1.4  3.7 -0.4993E+00  0.9922E+00 -0.3442E+01E
 ACTION:REG 18-10-16 09:42 OP:ngse STATUS:               ID:20160919152345     I
 IDC: ellipse    1.5    1.3 172 MB sd+-                  Event ID      133     3
 * 13 km NW Deren Dundgobi                           ***                       3
 STAT SP IPHASW D HRMM SECON CODA AMPLIT PERI AZIMU VELO AIN AR TRES W  DIS CAZ7
 DR08     P    a  1523 51.90                             131    0.0110 25.8 130 
 DR08     S    a  1523 55.70      87.     0.2            131   -0.3010 25.8 130 
 DR03     P    a  1523 52.20                             131    0.1910 26.6 142 
 DR03     S    a  1523 56.30      0.3E+03 0.2            131    0.1010 26.6 142 
 DR07     P    a  1523 52.40                             129    0.1510 28.6 105 
 DR07     S    a  1523 56.50      95.     0.3            129   -0.1110 28.6 105 
 DR10     P    a  1523 52.60                             126   -0.0510 31.6 231 
 DR10     S    a  1523 57.30      0.2E+03 0.3            126   -0.0110 31.6 231 
 DR02     P    a  1523 53.00                             125    0.2010 32.7 257 
 DR02     S    a  1523 57.60      0.2E+03 0.3            125    0.0210 32.7 257 
 DR04     P    a  1523 54.30                             118    0.2210 42.0 104 
 DR04     S    a  1524 00.10                             118    0.3110 42.0 104 
 DR09     P    a  1523 55.30                             115    0.1810 49.0 243 
 DR09     S    a  1524 01.50      94.     0.2            115   -0.0810 49.0 243 
 DR01     P    a  1523 55.30                             115    0.1710 49.1 270 
 DR01     S    a  1524 01.70      55.     0.2            115    0.1010 49.1 270 
 MDGM     P    a  1523 57.70                             109   -0.1010 66.7 195 
 MDGM     S    a  1524 05.50      47.     0.2            109   -0.73 9 66.7 195 
 SEMM     P    a  1524 10.30                              99    0.2010  144  13 
 SEMM     S    a  1524 27.10                              99   -0.4010  144  13 
 UGDM     P    a  1524 13.10                              98    0.0510  162  23 
 UGDM     S    a  1524 32.30      4.7     0.2             98   -0.3010  162  23 
 BULM     P    a  1524 43.80                              49    4.93 0  348 322 
 BULM     S    a  1525 21.70      4.2     0.3             49    4.42 0  348 322 
                                                                                
 2016  920 1038 50.2 R  46.198 106.593  9.0  mon  5 0.1-0.9Lmon                1
 GAP=163        0.37       2.8     1.1  6.3 -0.7125E+00  0.3232E+01 -0.1131E+02E
 ACTION:REG 18-10-16 09:42 OP:ngse STATUS:               ID:20160920103850     I
 IDC: ellipse    3.2    1.3   2 MB sd+-                  Event ID       13     3
 * 8 km  W Deren Dundgobi                            ***                       3
 STAT SP IPHASW D HRMM SECON CODA AMPLIT PERI AZIMU VELO AIN AR TRES W  DIS CAZ7
 DR03     P    a  1038 53.30                             123   -0.0210 15.8 126 
 DR03     S    a  1038 55.70                             123    0.1210 15.8 126 
 DR08     P    a  1038 53.30                             121   -0.1710 16.9 106 
 DR08     S    a  1038 55.70     0.30     0.2            121   -0.1310 16.9 106 
 DR07     P    a  1038 54.70                             113    0.1310 24.4  80 
 DR07     S    a  1038 57.80     0.60     0.3            113    0.0610 24.4  80 
 DR10     S    a  1038 59.10     0.60     0.3            110    0.0710 29.2 254 
 DR02     S    a  1039 00.70     0.20     0.2            106   -0.0610 35.6 277 
                                                                                
 2016  921 1247  2.3 R  46.204 106.566  5.2  mon  8 0.1-0.4Lmon                1
 GAP=160        0.38       2.1     0.8  6.2 -0.1778E+00  0.2308E+01 -0.7704E+01E
 ACTION:REG 18-10-16 09:42 OP:ngse STATUS:               ID:20160921124702     I
 IDC: ellipse    1.8    0.5   3 MB sd+-                  Event ID      143     3
 * 10 km  W Deren Dundgobi                           ***                       3
 STAT SP IPHASW D HRMM SECON CODA AMPLIT PERI AZIMU VELO AIN AR TRES W  DIS CAZ7
 DR03     P    a  1247 05.40                             110    0.0110 17.9 124 
 DR03     S    a  1247 07.70                             110    0.0410 17.9 124 
 DR08     P    a  1247 05.40                             109   -0.1710 19.1 107 
 DR08     S    a  1247 07.80     0.70     0.2            109   -0.1810 19.1 107 
 DR07     P    a  1247 06.70                             104   -0.0210 26.4  82 
 DR07     S    a  1247 10.10                             104    0.1410 26.4  82 
 DR10     P    a  1247 06.90                             104    0.0110 27.4 251 
 DR10     S    a  1247 10.50                             104    0.2310 27.4 251 
 DR02     P    a  1247 07.70                             101   -0.1610 33.5 276 
 DR02     S    a  1247 11.90      2.5     0.3            101   -0.0410 33.5 276 
 DR04     P    a  1247 09.00                              99    0.2210 39.3  89 
 DR09     P    a  1247 10.00                              98    0.0410 46.5 256 
 DR09     S    a  1247 15.50     0.60     0.2             98   -0.0810 46.5 256 
 DR01     P    a  1247 10.70                              97   -0.1010 51.7 282 
 DR01     S    a  1247 17.10                              97    0.0710 51.7 282 
                                                                                
 2016  922 1006 22.3 R  46.475 106.308  8.6  mon 12 0.3 0.6Lmon                1
 GAP= 85        0.71       1.1     1.7  4.5 -0.5655E+00  0.2389E+01 -0.2137E+01E
 ACTION:REG 18-10-16 09:42 OP:ngse STATUS:               ID:20160922100622     I
 IDC: ellipse    1.0    0.8 117 MB sd+-                  Event ID      153     3
 * 40 km  N Delgertsogt Dundgobi                     ***                       3
 STAT SP IPHASW D HRMM SECON CODA AMPLIT PERI AZIMU VELO AIN AR TRES W  DIS CAZ7
 DR02     P    a  1006 27.50                             109    0.0410 29.9 207 
 DR02     S    a  1006 31.20      9.0     0.2            109   -0.0310 29.9 207 
 DR01     P    a  1006 28.60                             105    0.1210 36.4 238 
 DR01     S    a  1006 32.90      15.     0.2            105   -0.0910 36.4 238 
 DR10     P    a  1006 29.00                             104    0.0210 39.5 189 
 DR10     S    a  1006 33.90      2.4     0.2            104    0.0510 39.5 189 
 DR09     P    a  1006 30.40                             102    0.0110 48.4 211 
 DR09     S    a  1006 36.30      5.7     0.2            102   -0.0010 48.4 211 
 DR08     P    a  1006 31.20                             101    0.2210 52.1 133 
 DR08     S    a  1006 37.10      1.9     0.2            101   -0.2210 52.1 133 
 DR07     P    a  1006 31.20                             101    0.0810 53.0 120 
 DR07     S    a  1006 37.10      1.2     0.2            101   -0.4710 53.0 120 
 DR03     P    a  1006 31.50                             101    0.3710 53.0 139 
 DR03     S    a  1006 37.40      5.3     0.2            101   -0.1810 53.0 139 
 DR04     P    a  1006 33.50                              99    0.3010 65.8 116 
 DR04     S    a  1006 41.70      11.     0.4             99    0.55 9 65.8 116 
 MDGM     P    a  1006 36.10                              97    0.0210 83.6 179 
 MDGM     S    a  1006 45.40                              97   -0.74 9 83.6 179 
 SEMM     P    a  1006 44.00                              95    0.1710  131  23 
 SEMM     S    a  1006 59.10      2.3     0.2             95   -0.4610  131  23 
 UGDM     P    a  1006 47.50                              94   -0.0010  154  32 
 UGDM     S    a  1007 06.00      1.9     0.3             94    0.1010  154  32 
 BULM     S    a  1007 52.30                              49    2.22 0  322 322 
                                                                                
 2016  922 1540 11.2 R  46.189 106.062  2.0  mon  4 0.4-1.3Lmon                1
 GAP=103        0.93       2.4     3.8 16.3  0.1643E+00  0.2903E+02 -0.3977E+00E
 ACTION:REG 18-10-16 09:42 OP:ngse STATUS:               ID:20160922154010     I
 IDC: ellipse    5.8    4.4  25 MB sd+-                  Event ID       15     3
 * 24 km  N Tevshyn gobi coal mine                   ***                       3
 STAT SP IPHASW D HRMM SECON CODA AMPLIT PERI AZIMU VELO AIN AR TRES W  DIS CAZ7
 DR02     P    a  1540 12.00                             115   -0.51 9 7.50  48 
 DR02     S    a  1540 13.50     0.60     0.2            115    0.0010 7.50  48 
 DR09     S    a  1540 14.40                             107   -0.1410 11.4 213 
 DR10     S    a  1540 15.90                             103    0.4110 14.9 119 
 DR01     P    a  1540 13.70                             102   -0.2810 16.9 316 
 DR01     S    a  1540 16.60     0.30     0.2            102    0.55 9 16.9 316 
                                                                                
