 2012  623 1020 35.7 R  46.878 100.011 16.0  mon 28 0.6 1.2Lmon                1
 GAP=117        1.32       2.3     2.6  7.8  0.3738E+00  0.1499E+02 -0.3330E+01E
 ACTION:REG 17-04-05 21:52 OP:ngse STATUS:               ID:20120623102036     I
 IDC: ellipse    1.0    0.5   6 MB sd+-                  Event ID   447754     3
 * 20 km NW Galuut Baynhongor                        ***                       3
 STAT SP IPHASW D HRMM SECON CODA AMPLIT PERI AZIMU VELO AIN AR TRES W  DIS CAZ7
 HD14     P    a  1020 47.30                              93   -0.1410 60.7  90 
 HD14     S    a  1020 55.00      2.8     0.2             93   -1.00 8 60.7  90 
 HD13     P    a  1020 48.60                              92   -0.1010 68.7  97 
 HD13     S    a  1020 57.30      26.     0.2             92   -0.89 8 68.7  97 
 HD12     P    a  1020 49.30                              92   -0.2210 74.0 106 
 HD12     S    a  1020 58.40      27.     0.3             92   -1.20 7 74.0 106 
 HD15     P    a  1020 49.70                              92    0.1110 74.6  73 
 HD15     S    a  1020 59.30      7.5     0.2             92   -0.4310 74.6  73 
 HD11     P    a  1020 49.30                              92   -0.4410 75.5 114 
 HD11     S    a  1020 58.70      28.     0.3             92   -1.28 7 75.5 114 
 HD16     P    a  1020 51.30                              91    0.2910 83.6  65 
 HD16     S    a  1021 01.70      9.7     0.2             91   -0.4710 83.6  65 
 HD67     P    a  1020 52.10                              83   -0.59 9 94.1 232 
 HD67     S    a  1021 02.90      2.3     0.2             83   -2.19 0 94.1 232 
 HD17     P    a  1020 53.70                              83    0.4110 98.1  62 
 HD17     S    a  1021 05.80      8.0     0.2             83   -0.3210 98.1  62 
 HD45     P    a  1020 55.60                              83    0.3010  110 324 
 HD45     S    a  1021 09.10      13.     0.2             83   -0.5010  110 324 
 HD18     P    a  1020 56.10                              83    0.61 9  112  60 
 HD18     S    a  1021 10.20      27.     0.2             83    0.2710  112  60 
 HD44     P    a  1020 56.80                              83    0.55 9  117 338 
 HD44     S    a  1021 11.00      2.1     0.3             83   -0.2410  117 338 
 HD63     P    a  1020 57.90                              83    0.83 9  122 351 
 HD63     S    a  1021 12.50      2.2     0.2             83   -0.1710  122 351 
 HD19     P    a  1020 57.70                              83    0.65 9  122  54 
 HD19     S    a  1021 12.20      6.1     0.2             83   -0.4310  122  54 
 HD22     P    a  1020 59.80                              83    0.61 9  135  77 
 HD22     S    a  1021 16.50      1.4     0.2             83    0.1710  135  77 
 HD66     P    a  1021 01.70                              83    0.63 9  147 268 
 HD66     S    a  1021 19.30                              83   -0.2810  147 268 
 HD39     P    a  1021 01.90                              83    0.50 9  149 331 
 HD39     S    a  1021 19.70      1.8     0.3             83   -0.4610  149 331 
 HD34     P    a  1021 03.20                              73    0.3610  158 307 
 HD34     S    a  1021 21.90      9.8     0.2             73   -0.74 9  158 307 
 HD38     P    a  1021 03.60                              73    0.52 9  160 328 
 HD38     S    a  1021 22.70      3.0     0.2             73   -0.3610  160 328 
 HD40     P    a  1021 04.00                              73    0.75 9  161 337 
 HD40     S    a  1021 23.60      2.6     0.2             73    0.2510  161 337 
 HD28     P    a  1021 03.50                              73    0.0810  162 288 
 HD28     S    a  1021 21.90      2.8     0.2             73   -1.74 4  162 288 
 HD21     P    a  1021 04.40                              73    1.11 7  162  41 
 HD21     S    a  1021 24.00      4.8     0.2             73    0.58 9  162  41 
 HD36     P    a  1021 04.00                              73    0.4310  163 314 
 HD36     S    a  1021 23.40      1.5     0.2             73   -0.5010  163 314 
 HD37     P    a  1021 04.20                              73    0.49 9  164 321 
 HD37     S    a  1021 23.90      3.5     0.2             73   -0.2410  164 321 
 HD35     P    a  1021 04.40                              73    0.4010  166 311 
 HD35     S    a  1021 24.00      4.8     0.2             73   -0.64 9  166 311 
 HD33     P    a  1021 05.10                              68    0.3910  170 299 
 HD33     S    a  1021 25.70      4.8     0.2             68   -0.1810  170 299 
 HD32     P    a  1021 06.00                              68    0.4610  176 296 
 HD32     S    a  1021 27.50      4.2     0.2             68    0.1810  176 296 
 HD30     P    a  1021 06.40                              68    0.1710  181 286 
 HD30     S    a  1021 28.00      2.7     0.2             68   -0.5110  181 286 
 HD31     P    a  1021 07.20                              68    0.49 9  184 291 
 HD31     S    a  1021 28.40      3.5     0.2             68   -0.93 8  184 291 
                                                                                
 2012  928 0855 17.8 R  46.046  97.529  7.3  mon 28 1.3 0.8Lmon                1
 GAP=259        2.88       7.3    11.1  4.8  0.4051E+02 -0.1087E+02 -0.1057E+01E
 ACTION:REG 17-04-05 21:52 OP:ngse STATUS:               ID:20120928085516     I
 IDC: ellipse    2.4    2.0  18 MB sd+-                  Event ID   447560     3
 * 34 km NE Biger GobiAltai                          ***                       3
 STAT SP IPHASW D HRMM SECON CODA AMPLIT PERI AZIMU VELO AIN AR TRES W  DIS CAZ7
 HD48     P    a  0855 22.60                             116    0.0210 19.1  19 
 HD48     S    a  0855 26.60                             116    0.5410 19.1  19 
 HD52     P    a  0855 37.10                              46   -0.8510  111 351 
 HD52     S    a  0855 52.20                              46   -0.4510  111 351 
 HD67     P    a  0855 38.10                              46   -1.64 9  122  73 
 HD67     S    a  0855 53.80      1.8     0.2             46   -1.96 8  122  73 
 HD30     P    a  0855 41.70                              45   -1.03 9  141   6 
 HD30     S    a  0855 59.90                              45   -1.02 9  141   6 
 HD28     S    a  0856 01.10                              45   -1.01 9  145  13 
 HD26     S    a  0856 04.40                              45   -0.8210  156  36 
 HD27     S    a  0856 05.80                              45    0.5510  156  25 
 HD32     P    a  0855 46.60                              45   -0.6510  169  10 
 HD32     S    a  0856 07.60                              45   -1.14 9  169  10 
 HD33     P    a  0855 47.40                              45   -0.9610  176  12 
 HD33     S    a  0856 09.60                              45   -1.06 9  176  12 
 HD25     S    a  0856 10.30                              43   -0.99 9  179  53 
 HD71     P    a  0855 42.10                              43   -6.86 0  181 253 
 HD71     S    a  0856 05.80     0.60     0.2             43   -5.91 0  181 253 
 HD34     P    a  0855 51.70                              41    0.2310  197  18 
 HD34     S    a  0856 16.20                              41    0.1510  197  18 
 HD47     S    a  0856 14.00                              41   -3.34 4  202  86 
 HD35     P    a  0855 53.70                              41    0.4110  209  17 
 HD35     S    a  0856 19.80                              41    0.6010  209  17 
 HD46     P    a  0855 53.20                              41   -0.5810  213  65 
 HD46     S    a  0856 21.00                              41    0.95 9  213  65 
 HD36     P    a  0855 53.00                              41   -1.38 9  217  18 
 HD36     S    a  0856 18.20                              41   -2.87 6  217  18 
 HD45     P    a  0855 55.50                              41    0.8110  219  34 
 HD45     S    a  0856 22.50                              41    0.8910  219  34 
 HD59     S    a  0856 30.00     0.20     0.2             41    0.6810  249 350 
 HD38     P    a  0856 00.00                              41    0.8510  249  24 
 HD38     S    a  0856 31.90                              41    2.57 6  249  24 
 HD06     S    a  0856 28.50                              41   -0.8610  250  84 
 HD39     P    a  0856 00.40                              34    0.95 9  251  27 
 HD39     S    a  0856 31.90                              34    2.05 8  251  27 
 HD07     S    a  0856 31.40                              34   -0.2910  260  91 
 HD60     S    a  0856 35.00      1.2     0.5             34    2.65 6  263   2 
 HD14     S    a  0856 35.90                              34    2.25 7  268  69 
 HD63     S    a  0856 36.40                              34    2.21 7  271  38 
 HD40     P    a  0856 04.20                              34    2.23 7  271  27 
 HD40     S    a  0856 37.90                              34    3.69 3  271  27 
 HD41     P    a  0856 06.10                              34    2.74 6  282  29 
 HD41     S    a  0856 41.00                              34    4.39 0  282  29 
 HD64     P    a  0856 06.80                              34    0.6110  305  43 
 HD64     S    a  0856 46.20     0.90     0.3             34    4.69 0  305  43 
                                                                                
 2013  813 0847 26.5 R  47.311  96.723  3.1  mon 28 1.6 1.0Lmon                1
 GAP=233        3.85      10.2    18.4 14.9  0.1179E+03 -0.2065E+03 -0.9023E+02E
 ACTION:REG 17-04-05 21:52 OP:ngse STATUS:               ID:20130813084725     I
 IDC: ellipse    3.1    1.8  40 MB sd+-                  Event ID   453407     3
 * 18 km NW Tsagaanchuluut Zavhan                    ***                       3
 STAT SP IPHASW D HRMM SECON CODA AMPLIT PERI AZIMU VELO AIN AR TRES W  DIS CAZ7
 HD30     P    a  0847 40.10                              46   -1.29 9 74.8  90 
 HD30     S    a  0847 51.00      3.3     0.2             46   -1.25 9 74.8  90 
 HD31     P    a  0847 40.90                              46   -0.9810 77.8  78 
 HD31     S    a  0847 52.20      3.3     0.3             46   -0.8910 77.8  78 
 HD32     P    a  0847 43.20                              46   -1.1510 92.8  73 
 HD32     S    a  0847 56.30      2.2     0.2             46   -1.0610 92.8  73 
 HD28     P    a  0847 43.20                              46   -1.49 9 94.8  89 
 HD28     S    a  0847 56.50      1.0     0.2             46   -1.45 9 94.8  89 
 HD33     P    a  0847 45.30                              46   -0.7310  103  72 
 HD33     S    a  0847 58.80      1.1     0.2             46   -1.47 9  103  72 
 HD59     P    a  0847 44.70                              46   -1.80 9  106  10 
 HD59     S    a  0847 59.00      3.2     0.4             46   -2.09 9  106  10 
 HD27     P    a  0847 52.30                              46    2.37 8  127  89 
 HD27     S    a  0848 04.90      1.7     0.3             46   -2.11 9  127  89 
 HD34     P    a  0847 53.30                              45    2.86 8  130  69 
 HD34     S    a  0848 07.00     0.90     0.2             45   -0.8910  130  69 
 HD35     P    a  0847 54.00                              45    2.73 8  135  63 
 HD35     S    a  0848 08.40      3.3     0.2             45   -0.9310  135  63 
 HD60     P    a  0847 51.70                              45   -0.4410  141  30 
 HD60     S    a  0848 09.60      1.6     0.3             45   -1.25 9  141  30 
 HD36     P    a  0847 55.00                              45    2.24 9  145  63 
 HD36     S    a  0848 11.00      4.8     0.4             45   -0.9210  145  63 
 HD26     P    a  0847 53.10                              45   -1.0010  153  95 
 HD26     S    a  0848 11.30      1.2     0.3             45   -2.94 7  153  95 
 HD37     P    a  0847 56.80                              45    1.1610  163  61 
 HD37     S    a  0848 16.60      1.9     0.2             45   -0.3010  163  61 
 HD38     P    a  0847 55.90                              43   -2.84 7  183  61 
 HD38     S    a  0848 22.30      1.2     0.2             43    0.0410  183  61 
 HD45     P    a  0847 59.50                              43    0.1810  187  77 
 HD45     S    a  0848 24.20      9.7     0.4             43    0.9410  187  77 
 HD39     P    a  0848 00.20                              41   -0.1210  193  64 
 HD39     S    a  0848 25.60      2.0     0.3             41    0.6110  193  64 
 HD25     P    a  0848 01.90                              41   -0.3310  206  99 
 HD25     S    a  0848 27.30      2.0     0.3             41   -0.9910  206  99 
 HD67     P    a  0848 02.40                              41    0.0110  207 120 
 HD67     S    a  0848 27.00      1.0     0.4             41   -1.58 9  207 120 
 HD40     P    a  0848 03.50                              41    0.8010  209  60 
 HD40     S    a  0848 32.60      1.4     0.2             41    3.49 6  209  60 
 HD75     P    a  0848 03.70                              41   -1.1210  224 353 
 HD75     S    a  0848 31.20     0.70     0.3             41   -1.57 9  224 353 
 HD41     P    a  0848 05.70                              41    0.5610  226  62 
 HD41     S    a  0848 35.30      4.0     0.3             41    1.98 9  226  62 
 HD42     P    a  0848 08.40                              41    1.68 9  237  59 
 HD42     S    a  0848 39.30      3.8     0.2             41    3.24 7  237  59 
 HD63     P    a  0848 06.90                              41   -0.0710  238  71 
 HD63     S    a  0848 38.90      1.4     0.2             41    2.41 8  238  71 
 HD43     P    a  0848 08.20                              41    1.0410  240  55 
 HD43     S    a  0848 40.10      1.3     0.3             41    3.28 7  240  55 
 HD24     P    a  0848 09.60                              41    0.4110  253  89 
 HD24     S    a  0848 41.80      2.0     0.3             41    1.46 9  253  89 
 HD65     P    a  0848 12.90                              34    1.65 9  270  78 
 HD65     S    a  0848 47.00      2.0     0.2             34    3.10 7  270  78 
 HD64     P    a  0848 14.60                              34    1.99 9  281  72 
 HD64     S    a  0848 49.70      1.0     0.2             34    3.45 7  281  72 
 HD21     P    a  0848 28.20                              34    5.54 1  361  77 
                                                                                
 2013 12 1 0038 22.1 R  47.458  99.624 16.8  mon 28 0.5 0.7Lmon                1
 GAP=100        1.26       1.6     2.5  7.9 -0.9846E+00  0.4535E+01  0.3942E+01E
 ACTION:REG 17-04-05 21:52 OP:ngse STATUS:               ID:20131201003823     I
 IDC: ellipse    0.8    0.6 113 MB sd+-                  Event ID   456953     3
 * 26 km NE Jargalant Baynhongor                     ***                       3
 STAT SP IPHASW D HRMM SECON CODA AMPLIT PERI AZIMU VELO AIN AR TRES W  DIS CAZ7
 HD45     P    a  0038 31.60                             100    0.4710 43.7 304 
 HD45     S    a  0038 37.50      20.     0.2            100   -0.2010 43.7 304 
 HD44     P    a  0038 31.80                              99    0.3510 45.9 341 
 HD44     S    a  0038 37.40      5.6     0.2             99   -0.86 9 45.9 341 
 HD63     P    a  0038 33.60                              96    0.49 9 56.4   9 
 HD63     S    a  0038 40.90      8.9     0.2             96   -0.2310 56.4   9 
 HD65     P    a  0038 33.30                              95    0.0910 57.1  54 
 HD65     S    a  0038 40.30      9.0     0.2             95   -0.99 8 57.1  54 
 HD56     P    a  0038 36.00                              83    0.0810 73.7 266 
 HD56     S    a  0038 44.90      3.3     0.3             83   -1.10 8 73.7 266 
 HD46     P    a  0038 35.80                              83   -0.62 9 77.3 155 
 HD46     S    a  0038 44.80      11.     0.2             83   -2.06 2 77.3 155 
 HD39     P    a  0038 37.00                              83    0.3510 78.6 327 
 HD39     S    a  0038 46.80      3.9     0.2             83   -0.4510 78.6 327 
 HD64     P    a  0038 37.40                              83    0.2910 81.8  38 
 HD64     S    a  0038 47.50     0.60     0.2             83   -0.55 9 81.8  38 
 HD62     P    a  0038 37.60                              83    0.4110 82.2  11 
 HD62     S    a  0038 47.10      1.6     0.2             83   -1.08 8 82.2  11 
 HD41     P    a  0038 38.70                              83    0.4410 88.8 349 
 HD41     S    a  0038 49.60      3.8     0.2             83   -0.4310 88.8 349 
 HD38     P    a  0038 39.00                              83    0.49 9 90.3 321 
 HD38     S    a  0038 50.10      1.1     0.2             83   -0.3710 90.3 321 
 HD40     P    a  0038 38.90                              83    0.4010 90.4 338 
 HD40     S    a  0038 50.10      3.3     0.2             83   -0.3610 90.4 338 
 HD27     P    a  0038 39.30                              83    0.2210 93.6 261 
 HD27     S    a  0038 50.50      1.5     0.2             83   -0.96 8 93.6 261 
 HD37     P    a  0038 39.90                              83    0.2910 97.2 310 
 HD37     S    a  0038 53.20      1.0     0.2             83    0.83 9 97.2 310 
 HD36     P    a  0038 40.40                              83    0.2610  101 299 
 HD36     S    a  0038 52.70      1.7     0.3             83   -0.59 9  101 299 
 HD34     P    a  0038 40.60                              83    0.2810  101 288 
 HD42     P    a  0038 41.00                              83    0.53 9  103 353 
 HD42     S    a  0038 53.40      5.7     0.2             83   -0.4610  103 353 
 HD35     P    a  0038 41.10                              83    0.1410  106 294 
 HD35     S    a  0038 54.90     0.90     0.2             83    0.1910  106 294 
 HD43     P    a  0038 43.60                              83    0.56 9  120 351 
 HD43     S    a  0038 59.00      1.5     0.2             83    0.69 9  120 351 
 HD28     P    a  0038 44.40                              83    0.2810  125 263 
 HD28     S    a  0038 59.70      1.5     0.2             83   -0.4710  125 263 
 HD32     P    a  0038 45.20                              83    0.3810  130 275 
 HD32     S    a  0039 01.30      2.0     0.2             83   -0.0910  130 275 
 HD67     P    a  0038 44.80                              83   -0.0910  131 200 
 HD67     S    a  0039 00.20      1.3     0.2             83   -1.31 7  131 200 
 HD66     P    a  0038 46.30                              83    0.4210  137 239 
 HD66     S    a  0039 03.20                              83   -0.0210  137 239 
 HD31     P    a  0038 47.20                              83    0.3910  143 270 
 HD31     S    a  0039 04.50      1.8     0.2             83   -0.3310  143 270 
 HD30     P    a  0038 47.50                              83    0.2710  145 264 
 HD30     S    a  0039 04.90      4.9     0.2             83   -0.65 9  145 264 
 HD47     P    a  0038 47.70                              73   -0.3710  151 165 
 HD47     S    a  0039 04.60      1.3     0.2             73   -2.41 0  151 165 
 HD29     P    a  0038 48.80                              73    0.0910  155 260 
 HD29     S    a  0039 08.00      2.4     0.3             73   -0.1210  155 260 
 HD48     P    a  0038 57.40                              68    1.00 8  207 229 
 HD48     S    a  0039 21.80     0.60     0.2             68    0.3810  207 229 
                                                                                
