 2017  422 1911 32.8 R  43.681 105.498  1.1  mon  8 0.4                        1
 GAP= 95        0.84       2.7     2.1  6.7  0.1916E+01 -0.3425E+01 -0.1230E+02E
 ACTION:REG 18-10-16 09:43 OP:ngse STATUS:               ID:20170422191132     I
 IDC: ellipse    2.1    0.8 179 MB sd+-                  Event ID    70110     3
 * 8 km  S Tsogttsetsii Omnogobi                     ***                       3
 STAT SP IPHASW D HRMM SECON CODA AMPLIT PERI AZIMU VELO AIN AR TRES W  DIS CAZ7
 ERM3     P    a  1912 33.80                                                    
 TT3M     P    a  1911 33.50                             118   -0.2510 4.90 263 
 TT1M     P    a  1911 33.60                             109   -0.57 9 7.55 172 
 TT1M     S    a  1911 35.10                             109   -0.0710 7.55 172 
 TT2M     P    a  1911 35.60                              99   -0.0510 16.3 184 
 TT2M     S    a  1911 37.90                              99    0.1710 16.3 184 
 TT4M     P    a  1911 36.50                              97    0.1510 20.5 100 
 TT4M     S    a  1911 38.70                              97   -0.2510 20.5 100 
 DZBM     P    a  1911 46.70                              92   -0.1810 81.7 281 
 DZBM     S    a  1911 57.40                              92    0.2410 81.7 281 
 DZDM     P    a  1911 47.90                              92   -0.1210 88.3 262 
 DZDM     S    a  1911 59.30                              92    0.1510 88.3 262 
 MDGM     P    a  1912 11.70                              46    0.75 9  236  16 
 MDGM     S    a  1912 40.80                              46    2.00 2  236  16 
                                                                                
 2017  423 0020 29.2 R  43.682 105.496  1.3  mon 27 0.5                        1
 GAP= 83        1.14       3.4     2.7  5.0  0.3335E+01 -0.6108E+01 -0.1456E+02E
 ACTION:REG 18-10-16 09:43 OP:ngse STATUS:               ID:20170423002028     I
 IDC: ellipse    1.1    0.7   5 MB sd+-                  Event ID    70114     3
 * 6 km  E Tavan_Tolgoi coal mine                    ***                       3
 STAT SP IPHASW D HRMM SECON CODA AMPLIT PERI AZIMU VELO AIN AR TRES W  DIS CAZ7
 ERM3     P    a  0021 29.10                                                    
 TT3M     P    a  0020 30.00                             121   -0.1110 4.75 261 
 TT3M     S    a  0020 30.90                             121    0.1010 4.75 261 
 TT1M     P    a  0020 30.20                             110   -0.3610 7.69 171 
 TT1M     S    a  0020 31.40                             110   -0.1910 7.69 171 
 TT2M     P    a  0020 32.10                             100    0.0710 16.4 183 
 TT2M     S    a  0020 34.70                             100    0.57 9 16.4 183 
 TT4M     P    a  0020 33.00                              98    0.2510 20.6 101 
 TT4M     S    a  0020 35.20                              98   -0.1710 20.6 101 
 DZBM     P    a  0020 43.00                              92   -0.2110 81.5 281 
 DZBM     S    a  0020 53.90                              92    0.4310 81.5 281 
 DZDM     P    a  0020 44.00                              92   -0.3610 88.2 262 
 DZDM     S    a  0020 55.50                              92    0.0410 88.2 262 
 MDGM     P    a  0021 08.40                              46    1.13 8  236  16 
 MDGM     S    a  0021 38.10                              46    3.00 0  236  16 
 U07M     P    a  0021 26.00                              46   -0.3910  391   9 
 BGDM     P    a  0021 28.10                              46   -0.81 8  412 296 
 U10M     P    a  0021 30.10                              46    0.4910  417   1 
 U08M     P    a  0021 30.40                              46    0.1810  422   6 
 U05M     P    a  0021 31.40                              46    0.3510  429  13 
 U12M     P    a  0021 32.80                              46   -0.1210  444 359 
 U06M     P    a  0021 34.10                              46    0.71 9  448  10 
 U09M     P    a  0021 34.30                              46    0.5410  451   6 
 U11M     P    a  0021 34.60                              46    0.2810  455   2 
 UGDM     P    a  0021 35.10                              46   -0.3610  464  18 
 UB4M     P    a  0021 36.00                              46    0.1910  468  10 
 UB5M     P    a  0021 36.50                              46    0.2910  471  12 
 UB0M     P    a  0021 35.50                              46   -1.46 5  477   4 
 U13M     P    a  0021 36.90                              46   -0.3110  479 359 
 UB2M     P    a  0021 37.90                              46   -0.4210  488   8 
 ARTM     P    a  0021 38.50                              46   -0.3610  492  16 
 CCBM     P    a  0021 56.80                              46   14.79 0  517 325 
 U16M     P    a  0021 42.30                              46   -0.1310  521  11 
 U15M     P    a  0021 44.90                              46   -1.29 6  552   7 
                                                                                
 2017  423 0024 49.2 R  43.675 105.465  4.4  mon 29 0.6                        1
 GAP= 88        1.24       3.4     2.9  3.4  0.2250E+01 -0.2257E+01 -0.8820E+01E
 ACTION:REG 18-10-16 09:43 OP:ngse STATUS:               ID:20170423002449     I
 IDC: ellipse    1.2    1.1 170 MB sd+-                  Event ID    70114     3
 * 6 km NE Tavan_Tolgoi coal mine                    ***                       3
 STAT SP IPHASW D HRMM SECON CODA AMPLIT PERI AZIMU VELO AIN AR TRES W  DIS CAZ7
 ERM3     P    a  0025 50.00                                                    
 TT3M     P    a  0024 50.00                             159   -0.2810 2.24 271 
 TT3M     S    a  0024 51.00                             159   -0.0810 2.24 271 
 TT1M     P    a  0024 50.20                             127   -0.67 9 7.79 152 
 TT1M     S    a  0024 51.70                             127   -0.4010 7.79 152 
 TT2M     P    a  0024 52.10                             111    0.0110 15.8 174 
 TT2M     S    a  0024 54.70                             111    0.4910 15.8 174 
 TT4M     P    a  0024 53.10                             105   -0.1810 23.0  98 
 TT4M     S    a  0024 56.30                             105    0.0310 23.0  98 
 DZBM     P    a  0025 02.90                              94    0.0210 79.2 282 
 DZBM     S    a  0025 13.50                              94    0.62 9 79.2 282 
 DZDM     P    a  0025 03.50                              94   -0.48 9 85.6 263 
 DZDM     S    a  0025 14.80                              94    0.0110 85.6 263 
 MDGM     P    a  0025 27.60                              46    0.4910  238  16 
 MDGM     S    a  0025 56.70                              46    1.91 3  238  16 
 U07M     P    a  0025 46.00                              46   -0.1910  392   9 
 BGDM     P    a  0025 48.10                              46   -0.2410  410 296 
 U10M     P    a  0025 50.20                              46    0.83 9  418   2 
 U08M     P    a  0025 50.20                              46    0.1910  423   7 
 U05M     P    a  0025 50.60                              46   -0.2710  430  14 
 U12M     P    a  0025 52.80                              46    0.1310  445 359 
 U06M     P    a  0025 53.60                              46    0.40 0  449  10 
 U09M     P    a  0025 54.40                              46    0.85 9  452   6 
 U11M     P    a  0025 54.60                              46    0.52 9  456   2 
 UGDM     P    a  0025 55.50                              46    0.2010  466  18 
 SB3M     P    a  0026 07.90                              46   12.32 0  468   9 
 UB5M     P    a  0025 55.20                              46   -0.82 0  472  12 
 UB0M     P    a  0025 55.70                              46   -1.03 8  478   4 
 U13M     P    a  0025 57.20                              46    0.2410  480 359 
 UB2M     P    a  0025 57.80                              46   -0.3110  489   9 
 ALFM     P    a  0026 09.50                              46   11.01 0  492  11 
 ARTM     P    a  0025 58.50                              46   -0.1910  493  16 
 U14M     P    a  0026 01.20                              46    2.00 2  498 357 
 CCBM     P    a  0026 00.00                              46   -1.57 5  516 325 
 U16M     P    a  0026 03.80                              46    1.57 5  522  11 
 U15M     P    a  0026 05.00                              46   -0.97 8  553   7 
                                                                                
 2017  423 0027  8.3 R  43.673 105.483  0.0  mon  5 0.3                        1
 GAP=176        0.88       2.7     2.6  8.7  0.3453E+01 -0.7785E+01 -0.4561E+01E
 ACTION:REG 18-10-16 09:43 OP:ngse STATUS:               ID:20170423002708     I
 IDC: ellipse    3.4    1.5  23 MB sd+-                  Event ID    70114     3
 * 6 km NE Tavan_Tolgoi coal mine                    ***                       3
 STAT SP IPHASW D HRMM SECON CODA AMPLIT PERI AZIMU VELO AIN AR TRES W  DIS CAZ7
 TT3M     P    a  0027 08.80                             113   -0.2010 3.65 274 
 TT3M     S    a  0027 09.60                             113    0.1010 3.65 274 
 TT1M     P    a  0027 09.00                             102   -0.55 9 7.00 161 
 TT1M     S    a  0027 10.10                             102   -0.3510 7.00 161 
 TT2M     P    a  0027 11.00                              96    0.0110 15.4 180 
 TT2M     S    a  0027 13.60                              96    0.65 9 15.4 180 
 TT4M     P    a  0027 11.90                              94   -0.1410 21.5  97 
 TT4M     S    a  0027 15.20                              94    0.4410 21.5  97 
 DZBM     P    a  0027 22.10                              91   -0.1210 80.6 282 
 DZBM     S    a  0027 32.60                              91    0.2310 80.6 282 
                                                                                
 2017  423 0027 24.4 R  43.677 105.480  0.0  mon  4 0.3                        1
 GAP=191        0.84       2.9     4.2 14.7 -0.9711E+00 -0.4938E+02  0.1010E+02E
 ACTION:REG 18-10-16 09:43 OP:ngse STATUS:               ID:20170423002724     I
 IDC: ellipse    4.1    1.6  24 MB sd+-                  Event ID    70115     3
 * 7 km  N Tavan_Tolgoi coal mine                    ***                       3
 STAT SP IPHASW D HRMM SECON CODA AMPLIT PERI AZIMU VELO AIN AR TRES W  DIS CAZ7
 TT3M     P    a  0027 24.90                             115   -0.1410 3.42 268 
 TT3M     S    a  0027 25.70                             115    0.1910 3.42 268 
 TT1M     P    a  0027 25.30                             102   -0.4010 7.46 160 
 TT1M     S    a  0027 26.30                             102   -0.3610 7.46 160 
 TT2M     P    a  0027 27.10                              96   -0.0410 15.9 179 
 TT2M     S    a  0027 29.70                              96    0.56 9 15.9 179 
 TT4M     P    a  0027 28.00                              94   -0.1610 21.8  98 
 TT4M     S    a  0027 31.30                              94    0.3910 21.8  98 
                                                                                
 2017  423 0027 38.4 R  43.679 105.493  1.6  mon 36 0.5                        1
 GAP= 81        1.14       3.2     2.7  4.6  0.3005E+01 -0.5414E+01 -0.1255E+02E
 ACTION:REG 18-10-16 09:43 OP:ngse STATUS:               ID:20170423002737     I
 IDC: ellipse    1.5    0.9   2 MB sd+-                  Event ID    70115     3
 * 8 km  E Tavan_Tolgoi coal mine                    ***                       3
 STAT SP IPHASW D HRMM SECON CODA AMPLIT PERI AZIMU VELO AIN AR TRES W  DIS CAZ7
 ERM3     P    a  0028 39.00                                                    
 TT3M     P    a  0027 39.10                             125   -0.2710 4.51 265 
 TT3M     S    a  0027 39.80                             125   -0.2710 4.51 265 
 TT1M     P    a  0027 39.40                             113   -0.4010 7.38 169 
 TT1M     S    a  0027 40.70                             113   -0.1110 7.38 169 
 TT2M     P    a  0027 41.40                             101    0.1510 16.1 183 
 TT2M     S    a  0027 43.40                             101    0.0910 16.1 183 
 TT4M     P    a  0027 42.30                              99    0.2610 20.8  99 
 TT4M     S    a  0027 44.60                              99   -0.0910 20.8  99 
 DZBM     P    a  0027 52.30                              92   -0.1510 81.3 281 
 DZBM     S    a  0028 03.40                              92    0.70 9 81.3 281 
 DZDM     P    a  0027 53.10                              92   -0.49 9 87.9 263 
 DZDM     S    a  0028 04.90                              92    0.2410 87.9 263 
 MDGM     P    a  0028 18.00                              46    1.45 6  237  16 
 MDGM     S    a  0028 46.60                              46    2.22 0  237  16 
 U07M     P    a  0028 35.30                              46   -0.3610  391   9 
 BGDM     P    a  0028 37.30                              46   -0.84 9  412 296 
 U10M     P    a  0028 39.10                              46    0.2210  418   1 
 U08M     P    a  0028 38.80                              46   -0.69 9  422   6 
 U05M     P    a  0028 39.10                              46   -1.23 7  429  13 
 U12M     P    a  0028 42.10                              46   -0.0910  444 359 
 U06M     P    a  0028 42.90                              46    0.2310  448  10 
 U09M     P    a  0028 43.00                              46   -0.0310  451   6 
 U11M     P    a  0028 43.00                              46   -0.58 9  456   2 
 UGDM     P    a  0028 44.80                              46    0.0710  464  18 
 SB4M     P    a  0028 45.80                              46    0.84 9  467   8 
 SB3M     P    a  0028 45.80                              46    0.74 9  467   8 
 SA4M     P    a  0028 45.70                              46    0.59 9  468   8 
 SB5M     P    a  0028 45.70                              46    0.4610  469   8 
 SB2M     P    a  0028 57.10                              46   11.83 0  469   9 
 SA2M     P    a  0028 45.40                              46    0.1510  469   8 
 SA3M     P    a  0028 45.60                              46    0.3610  469   8 
 SA1M     P    a  0028 57.00                              46   11.79 0  469   8 
 SB1M     P    a  0028 45.70                              46    0.2610  470   8 
 UB5M     P    a  0028 45.60                              46    0.1210  471  12 
 UB0M     P    a  0028 45.40                              46   -0.83 9  477   4 
 U13M     P    a  0028 46.50                              46    0.0210  479 359 
 UB2M     P    a  0028 47.30                              46   -0.2910  488   8 
 ARTM     P    a  0028 47.80                              46   -0.3310  492  16 
 U14M     P    a  0028 50.50                              46    1.76 4  497 357 
 CCBM     P    a  0028 51.20                              46   -0.0510  517 325 
 U16M     P    a  0028 51.60                              46   -0.1010  521  11 
 U15M     P    a  0028 55.60                              46    0.1410  552   7 
                                                                                
 2017  423 0052 44.7 R  43.682 105.470  2.1  mon  6 0.5                        1
 GAP= 95        1.04       3.3     3.1  4.3  0.4807E+01 -0.4905E+01 -0.7274E+01E
 ACTION:REG 18-10-16 09:43 OP:ngse STATUS:               ID:20170423005244     I
 IDC: ellipse    2.2    1.4  19 MB sd+-                  Event ID    70115     3
 * 6 km SW Tsogttsetsii Omnogobi                     ***                       3
 STAT SP IPHASW D HRMM SECON CODA AMPLIT PERI AZIMU VELO AIN AR TRES W  DIS CAZ7
 TT3M     P    a  0052 45.30                             143   -0.2110 2.69 255 
 TT3M     S    a  0052 46.40                             143    0.3210 2.69 255 
 TT1M     P    a  0052 44.70                             114   -1.58 5 8.26 156 
 TT1M     S    a  0052 46.90                             114   -0.51 9 8.26 156 
 TT2M     P    a  0052 47.50                             102   -0.1310 16.4 176 
 TT2M     S    a  0052 50.40                             102    0.65 9 16.4 176 
 TT4M     P    a  0052 48.50                              99   -0.1910 22.7  99 
 TT4M     S    a  0052 52.00                              99    0.4110 22.7  99 
 DZBM     P    a  0052 58.20                              93   -0.2410 79.4 281 
 DZBM     S    a  0053 08.60                              93    0.1610 79.4 281 
 MDGM     P    a  0053 23.00                              46    0.1710  237  16 
 MDGM     S    a  0053 53.40                              46    2.75 0  237  16 
                                                                                
 2017  423 0904 20.3 R  43.653 105.495  0.0  mon  5 0.5                        1
 GAP=153        0.89       2.4     2.6 10.5  0.2788E+01 -0.6019E+01 -0.6420E+01E
 ACTION:REG 18-10-16 09:43 OP:ngse STATUS:               ID:20170423090420     I
 IDC: ellipse    4.1    1.9  21 MB sd+-                  Event ID    70119     3
 * 4 km NE Tavan_Tolgoi coal mine                    ***                       3
 STAT SP IPHASW D HRMM SECON CODA AMPLIT PERI AZIMU VELO AIN AR TRES W  DIS CAZ7
 TT1M     P    a  0904 20.70                             109   -0.4010 4.54 164 
 TT1M     S    a  0904 21.40                             109   -0.3010 4.54 164 
 TT3M     P    a  0904 21.10                             107   -0.1310 5.29 299 
 TT3M     S    a  0904 22.20                             107    0.2810 5.29 299 
 TT2M     P    a  0904 22.40                              97   -0.1710 13.2 184 
 TT2M     S    a  0904 25.10                              97    0.86 8 13.2 184 
 TT4M     P    a  0904 23.80                              95    0.0010 20.4  91 
 TT4M     S    a  0904 26.60                              95    0.2310 20.4  91 
 DZBM     P    a  0904 32.40                              91   -2.03 2 82.1 283 
 DZBM     S    a  0904 44.70                              91   -0.0610 82.1 283 
                                                                                
 2017  423 0922 57.4 R  43.693 105.470  0.3  mon  4 0.2                        1
 GAP=183        0.63       2.4     1.9  5.5  0.1777E+01 -0.4392E+01 -0.6215E+01E
 ACTION:REG 18-10-16 09:43 OP:ngse STATUS:               ID:20170423092257     I
 IDC: ellipse    3.8    1.6  21 MB sd+-                  Event ID    70123     3
 * 6 km  N Tavan_Tolgoi coal mine                    ***                       3
 STAT SP IPHASW D HRMM SECON CODA AMPLIT PERI AZIMU VELO AIN AR TRES W  DIS CAZ7
 TT3M     P    a  0922 57.80                             120   -0.2910 3.27 233 
 TT3M     S    a  0922 58.70                             120    0.1310 3.27 233 
 TT2M     P    a  0923 00.10                              96   -0.4110 17.7 176 
 TT2M     S    a  0923 03.00                              96    0.2410 17.7 176 
 TT4M     P    a  0923 01.50                              95    0.0910 22.9 103 
 TT4M     S    a  0923 04.40                              95    0.0910 22.9 103 
 DZBM     P    a  0923 11.00                              91   -0.1010 79.2 280 
 DZBM     S    a  0923 21.30                              91    0.2310 79.2 280 
                                                                                
