 2013 10 8 0956 58.1 R  45.844  98.119 15.0  mon 12 0.6 0.7Lmon                1
 GAP=314        1.32      10.7    24.9 20.4  0.2116E+03 -0.4503E+03 -0.1734E+03E
 ACTION:REG 17-04-05 21:52 OP:ngse STATUS:               ID:20131008095656     I
 IDC: ellipse    3.8    3.0  34 MB sd+-                  Event ID   454504     3
 * 51 km NE Chandmani GobiAltai                      ***                       3
 STAT SP IPHASW D HRMM SECON CODA AMPLIT PERI AZIMU VELO AIN AR TRES W  DIS CAZ7
 HD31     S    a  0957 50.10                              66   -0.89 8  181 351 
 HD32     P    a  0957 30.20                              66    0.1810  190 355 
 HD32     S    a  0957 53.60     0.80     0.2             66    0.2610  190 355 
 HD33     P    a  0957 30.80                              66    0.0610  195 358 
 HD33     S    a  0957 55.00     0.60     0.2             66    0.4210  195 358 
 HD34     S    a  0957 58.80     0.50     0.2             66    0.2710  210   4 
 HD36     P    a  0957 35.40                              66   -0.3710  229   6 
 HD36     S    a  0958 02.60     0.30     0.2             66   -0.69 9  229   6 
 HD39     P    a  0957 39.30                              50   -0.0210  255  16 
 HD39     S    a  0958 08.60                              50   -0.83 8  255  16 
 HD38     P    a  0957 39.60                              50    0.1810  256  13 
 HD38     S    a  0958 11.00     0.40     0.3             50    1.39 7  256  13 
 HD63     P    a  0957 40.80                              50    0.2010  266  27 
 HD63     S    a  0958 12.60     0.30     0.2             50    0.96 9  266  27 
 HD65     P    a  0957 40.40                              50   -0.3710  267  37 
 HD65     S    a  0958 11.90     0.70     0.3             50   -0.0410  267  37 
 HD59     S    a  0958 20.40     0.30     0.2             50    5.28 0  282 342 
 HD60     P    a  0957 45.70                              50    2.45 0  287 353 
 HD60     S    a  0958 21.00     0.70     0.3             50    4.77 0  287 353 
 HD62     S    a  0958 16.20     0.50     0.3             50   -0.83 8  291  26 
                                                                                
 2013  7 5 1800 23.8 R  45.748  99.231 13.0  mon 13 0.5 0.5Lmon                1
 GAP=208        1.11       3.5     8.4 14.7  0.1057E+01 -0.6315E+02 -0.1251E+02E
 ACTION:REG 17-04-05 21:52 OP:ngse STATUS:               ID:20130705180022     I
 IDC: ellipse    2.9    1.3 174 MB sd+-                  Event ID   452682     3
 * 36 km NW Baatsagaan Baynhongor                    ***                       3
 STAT SP IPHASW D HRMM SECON CODA AMPLIT PERI AZIMU VELO AIN AR TRES W  DIS CAZ7
 HD67     P    a  1800 34.40                              84   -2.29 3 68.3 348 
 HD67     S    a  1800 42.40      1.1     0.2             84   -3.71 0 68.3 348 
 HD47     P    a  1800 38.90                              78   -0.2210 83.5  58 
 HD47     S    a  1800 50.30     0.90     0.2             78   -0.0110 83.5  58 
 HD70     P    a  1800 37.70                              78   -4.41 0  102 247 
 HD70     S    a  1800 47.80      1.1     0.3             78   -7.69 0  102 247 
 HD06     P    a  1800 48.50                              76    2.11 0  129  65 
 HD06     S    a  1801 02.80      1.6     0.3             76   -0.0910  129  65 
 HD07     P    a  1800 46.20                              76   -0.3510  130  80 
 HD07     S    a  1801 02.40     0.40     0.2             76   -0.7610  130  80 
 HD48     P    a  1800 42.60                              76   -4.80 0  136 293 
 HD48     S    a  1800 57.00     0.60     0.2             76   -7.64 0  136 293 
 HD69     S    a  1801 07.40      3.9     0.3             76    0.52 9  144 140 
 HD10     P    a  1800 48.80                              76    0.0410  144  58 
 HD10     S    a  1801 06.40      2.3     0.3             76   -0.5910  144  58 
 HD11     P    a  1800 51.50                              76    0.19 9  160  53 
 HD11     S    a  1801 11.90     0.30     0.2             76    0.50 9  160  53 
 HD12     P    a  1800 52.80                              69    0.1410  169  51 
 HD12     S    a  1801 13.90      1.1     0.3             69    0.1610  169  51 
 HD13     P    a  1800 53.50                              69   -0.0210  174  47 
 HD13     S    a  1801 15.70      1.5     0.2             69    0.48 9  174  47 
 HD14     P    a  1800 53.30                              69   -0.2910  175  44 
 HD14     S    a  1801 15.30     0.40     0.2             69   -0.0410  175  44 
 HD05     P    a  1800 56.20                              65    0.70 8  188  76 
 HD05     S    a  1801 19.50     0.80     0.3             65    0.85 7  188  76 
                                                                                
 2013  921 0632 39.3 R  46.132 100.357  1.5  mon 16 0.7 0.9Lmon                1
 GAP=276        1.48      10.2     6.9  7.3 -0.4574E+02  0.2407E+02 -0.6692E+02E
 ACTION:REG 17-04-05 21:52 OP:ngse STATUS:               ID:20130921063238     I
 IDC: ellipse    5.2    3.1   6 MB sd+-                  Event ID   454175     3
 * 34 km  S Bayan-Ovoo Baynhongor                    ***                       3
 STAT SP IPHASW D HRMM SECON CODA AMPLIT PERI AZIMU VELO AIN AR TRES W  DIS CAZ7
 HD47     P    a  0632 43.20                             102    0.0810 16.5 275 
 HD47     S    a  0632 46.00      32.     0.3            102    0.1010 16.5 275 
 HD46     P    a  0632 54.70                              46   -0.67 9 80.7 344 
 HD46     S    a  0633 05.50      3.4     0.3             46   -1.59 6 80.7 344 
 HD65     P    a  0633 11.40                              45   -0.0310  181 357 
 HD65     S    a  0633 34.50      1.0     0.2             45   -0.3710  181 357 
 HD66     P    a  0633 14.10                              43    1.19 8  190 294 
 HD66     S    a  0633 33.90      5.1     0.2             43   -3.54 0  190 294 
 HD64     P    a  0633 16.30                              41    0.2610  211 359 
 HD64     S    a  0633 43.30     0.60     0.2             41    0.4610  211 359 
 HD39     P    a  0633 19.70                              41    0.1010  235 336 
 HD39     S    a  0633 50.00     0.50     0.2             41    0.99 9  235 336 
 HD34     P    a  0633 22.20                              41    2.58 1  235 320 
 HD34     S    a  0633 48.40      1.1     0.3             41   -0.63 9  235 320 
 HD30     P    a  0633 21.90                              41    1.46 7  241 304 
 HD30     S    a  0633 50.30     0.80     0.2             41   -0.1510  241 304 
 HD33     P    a  0633 19.80                              41   -0.74 9  241 313 
 HD33     S    a  0633 50.50     0.60     0.2             41   -0.1210  241 313 
 HD36     P    a  0633 22.90                              41    2.05 4  243 324 
 HD36     S    a  0633 51.10     0.80     0.3             41   -0.0710  243 324 
 HD32     P    a  0633 20.50                              41   -0.52 9  245 311 
 HD32     S    a  0633 51.40     0.60     0.2             41   -0.0610  245 311 
 HD38     P    a  0633 25.20                              41    4.09 0  245 333 
 HD38     S    a  0633 51.10     0.60     0.2             41   -0.52 9  245 333 
 HD41     P    a  0633 20.30                              41   -0.84 9  246 343 
 HD41     S    a  0633 52.40      1.2     0.3             41    0.74 9  246 343 
 HD37     P    a  0633 25.90                              41    4.49 0  247 329 
 HD37     S    a  0633 52.30      1.0     0.3             41    0.1710  247 329 
 HD40     P    a  0633 21.50                              41   -0.0010  248 339 
 HD31     P    a  0633 21.20                              41   -0.3610  248 307 
 HD31     S    a  0633 52.20     0.50     0.2             41   -0.1910  248 307 
 HD40     S    a  0633 53.20      1.7     0.3             41    0.91 9  248 339 
                                                                                
 2014  4 4 1410 56.4 R  47.227 100.466  0.5  mon 18 1.5 0.7Lmon                1
 GAP=109        3.66       4.4     7.9  7.0  0.9484E+00  0.4006E+01  0.1084E+02E
 ACTION:REG 17-04-05 21:52 OP:ngse STATUS:               ID:20140404141059     I
 IDC: ellipse    1.5    1.0  91 MB sd+-                  Event ID   460378     3
 * 36 km SE Chuluut Arhangai                         ***                       3
 STAT SP IPHASW D HRMM SECON CODA AMPLIT PERI AZIMU VELO AIN AR TRES W  DIS CAZ7
 HD24     P    a  1411 04.10                              95    0.6310 31.2 286 
 HD24     S    a  1411 07.70      9.9     0.2             95   -0.9210 31.2 286 
 HD23     P    a  1411 03.90                              95    0.2810 31.8   9 
 HD23     S    a  1411 07.40      17.     0.2             95   -1.48 9 31.8   9 
 HD46     P    a  1411 08.50                              46    0.2310 54.0 215 
 HD46     S    a  1411 15.40      6.4     0.2             46   -1.52 9 54.0 215 
 HD65     P    a  1411 08.80                              46   -0.6110 61.0 344 
 HD65     S    a  1411 15.70      5.4     0.2             46   -3.19 8 61.0 344 
 HD25     P    a  1411 13.20                              46    0.0110 84.1 253 
 HD25     S    a  1411 23.90      2.9     0.3             46   -1.52 9 84.1 253 
 HD64     P    a  1411 13.70                              46   -0.5010 90.5 352 
 HD64     S    a  1411 24.10      2.9     0.2             46   -3.08 8 90.5 352 
 HD10     P    a  1411 15.70                              46    0.8710 94.2 163 
 HD10     S    a  1411 26.60      4.4     0.2             46   -1.66 9 94.2 163 
 HD45     P    a  1411 17.30                              46   -0.4210  112 297 
 HD45     S    a  1411 30.80      3.9     0.3             46   -2.47 9  112 297 
 HD06     P    a  1411 18.20                              46    0.4110  113 169 
 HD06     S    a  1411 31.90      6.7     0.3             46   -1.49 9  113 169 
 HD47     P    a  1411 19.90                              46    0.4410  123 192 
 HD47     S    a  1411 34.40     0.30     0.2             46   -1.87 9  123 192 
 HD67     P    a  1411 23.70                              45    0.5510  146 228 
 HD67     S    a  1411 41.60     0.40     0.2             45   -1.0710  146 228 
 HD60     P    a  1411 39.40                              41    0.8110  247 303 
 HD60     S    a  1412 09.60     0.80     0.3             41    0.2310  247 303 
 HD50     S    a  1412 11.20                              41    0.5310  252 254 
 HD51     P    a  1411 42.50                              41    2.88 8  254 260 
 HD51     S    a  1412 13.30                              41    2.15 9  254 260 
 HD54     P    a  1411 44.20                              34    1.53 9  278 278 
 HD54     S    a  1412 18.20     0.50     0.2             34    1.76 9  278 278 
 HD59     P    a  1411 45.30                              34    1.55 9  286 295 
 HD59     S    a  1412 20.10     0.30     0.2             34    1.80 9  286 295 
 HD72     P    a  1411 45.50                              34    1.48 9  290  54 
 HD72     S    a  1412 20.70     0.90     0.2             34    1.93 9  290  54 
 HD75     P    a  1412 01.60                              34    5.84 2  383 309 
                                                                                
 2013  5 4 1212 25.9 R  45.771  99.046  8.0  mon 23 1.4 0.7Lmon                1
 GAP=150        3.13       6.2     5.8  9.6  0.3635E+01 -0.9428E+01 -0.2699E+02E
 ACTION:REG 17-04-05 21:52 OP:ngse STATUS:               ID:20130504121227     I
 IDC: ellipse    1.4    0.9 167 MB sd+-                  Event ID   451733     3
 * 35 km NW Baatsagaan Baynhongor                    ***                       3
 STAT SP IPHASW D HRMM SECON CODA AMPLIT PERI AZIMU VELO AIN AR TRES W  DIS CAZ7
 HD67     P    a  1212 38.30                              46   -0.0210 64.3   0 
 HD67     S    a  1212 46.30      2.2     0.2             46   -1.07 9 64.3   0 
 HD70     P    a  1212 42.40                              46   -0.1210 89.9 242 
 HD70     S    a  1212 53.60      1.3     0.2             46   -1.04 9 89.9 242 
 HD48     P    a  1212 47.40                              45   -0.2010  122 294 
 HD48     S    a  1213 02.10     0.50     0.2             45   -1.32 9  122 294 
 HD08     P    a  1212 49.70                              45    0.6010  131  92 
 HD08     S    a  1213 03.30      2.6     0.2             45   -2.71 7  131  92 
 HD25     P    a  1212 50.50                              45   -0.0410  140  11 
 HD25     S    a  1213 07.50     0.40     0.2             45   -1.0010  140  11 
 HD46     P    a  1212 48.90                              45   -1.85 8  141  33 
 HD46     S    a  1213 07.30                              45   -1.57 9  141  33 
 HD07     P    a  1212 50.20                              45   -0.9810  144  82 
 HD07     S    a  1213 06.80     0.60     0.2             45   -2.82 6  144  82 
 HD10     P    a  1212 54.40                              45    1.41 9  155  62 
 HD10     S    a  1213 11.10      1.6     0.2             45   -1.65 9  155  62 
 HD11     P    a  1212 56.40                              45    0.9910  170  57 
 HD11     S    a  1213 15.60     0.70     0.2             45   -1.33 9  170  57 
 HD12     P    a  1212 57.70                              43    1.0010  179  54 
 HD12     S    a  1213 17.80      1.4     0.2             43   -1.37 9  179  54 
 HD13     P    a  1212 59.20                              43    1.75 9  183  51 
 HD13     S    a  1213 20.40      1.8     0.3             43   -0.0710  183  51 
 HD56     S    a  1213 20.20                              43   -0.4510  184 351 
 HD30     P    a  1213 01.80                              41    2.03 8  199 330 
 HD30     S    a  1213 24.20                              41   -0.2810  199 330 
 HD05     P    a  1213 00.70                              41    0.6310  201  78 
 HD05     S    a  1213 23.00     0.40     0.2             41   -2.00 8  201  78 
 HD45     P    a  1213 03.10                              41    1.44 9  212   2 
 HD45     S    a  1213 27.80                              41    0.0510  212   2 
 HD65     S    a  1213 35.00                              41    0.4110  239  22 
 HD36     P    a  1213 08.80                              41    2.95 6  240 349 
 HD36     S    a  1213 34.20     0.30     0.2             41   -0.8010  240 349 
 HD04     P    a  1213 07.40                              41    0.9210  244  74 
 HD04     S    a  1213 35.70      1.2     0.2             41   -0.3810  244  74 
 HD63     S    a  1213 38.30                              41    1.0710  249  12 
 HD19     P    a  1213 09.80                              34    1.23 9  261  41 
 HD19     S    a  1213 40.70                              34    1.0010  261  41 
 HD03     P    a  1213 15.20                              34    3.84 4  283  72 
 HD03     S    a  1213 46.70     0.10     0.2             34    2.17 8  283  72 
 HD02     S    a  1213 48.20      2.4     0.2             34    2.87 6  287  63 
 HD01     S    a  1213 56.20     0.50     0.2             34    4.06 3  318  66 
                                                                                
 2013  8 9 0302 26.8 R  46.139 100.358  9.1  mon 24 0.6 0.6Lmon                1
 GAP=155        1.43       2.9     3.4  7.4  0.1260E+01  0.1259E+02 -0.5485E+01E
 ACTION:REG 17-04-05 21:52 OP:ngse STATUS:               ID:20130809030227     I
 IDC: ellipse    1.5    0.9  11 MB sd+-                  Event ID   453336     3
 * 25 km SW Bayan-Ovoo Baynhongor                    ***                       3
 STAT SP IPHASW D HRMM SECON CODA AMPLIT PERI AZIMU VELO AIN AR TRES W  DIS CAZ7
 HD06     P    a  0302 34.00                              90    0.3210 31.8  71 
 HD06     S    a  0302 38.70      8.3     0.2             90   -0.0110 31.8  71 
 HD07     P    a  0302 35.70                              90   -0.3010 46.3 118 
 HD07     S    a  0302 41.40      2.7     0.3             90   -1.33 7 46.3 118 
 HD10     P    a  0302 36.60                              90    0.3410 47.5  49 
 HD10     S    a  0302 43.00      6.6     0.2             90   -0.1810 47.5  49 
 HD11     P    a  0302 39.10                              90   -0.1910 65.9  40 
 HD11     S    a  0302 48.10      3.8     0.3             90   -0.3210 65.9  40 
 HD12     P    a  0302 40.90                              90   -0.0810 76.1  36 
 HD12     S    a  0302 50.80      2.0     0.2             90   -0.54 9 76.1  36 
 HD14     P    a  0302 43.20                              90    0.1110 88.9  23 
 HD14     S    a  0302 54.50      2.5     0.4             90   -0.4810 88.9  23 
 HD05     P    a  0302 44.10                              90    0.0110 95.5  90 
 HD05     S    a  0302 56.00      1.5     0.2             90   -0.71 9 95.5  90 
 HD15     P    a  0302 47.20                              90    0.1910  113  23 
 HD15     S    a  0303 01.00      1.7     0.2             90   -0.77 9  113  23 
 HD25     P    a  0302 46.60                              78   -1.60 5  121 323 
 HD25     S    a  0303 04.20     0.90     0.2             78    0.3810  121 323 
 HD16     P    a  0302 48.30                              78   -0.91 8  127  23 
 HD16     S    a  0303 05.20      2.7     0.2             78   -0.3710  127  23 
 HD04     P    a  0302 51.70                              76    1.06 8  136  79 
 HD04     S    a  0303 08.10      1.6     0.2             76    0.0510  136  79 
 HD17     P    a  0302 51.60                              76    0.1510  141  25 
 HD17     S    a  0303 09.10      3.3     0.3             76   -0.3610  141  25 
 HD22     P    a  0302 54.20                              76    0.79 9  154  43 
 HD22     S    a  0303 13.20     0.70     0.3             76    0.3510  154  43 
 HD18     P    a  0302 54.60                              76    0.91 8  156  27 
 HD18     S    a  0303 13.00      7.0     0.3             76   -0.3210  156  27 
 HD26     P    a  0302 54.70                              76   -1.35 6  170 314 
 HD26     S    a  0303 14.90     0.30     0.3             76   -2.51 0  170 314 
 HD19     P    a  0302 56.60                              76    0.66 9  170  25 
 HD19     S    a  0303 17.40     0.80     0.3             76    0.1910  170  25 
 HD03     P    a  0302 57.10                              76    0.52 9  174  75 
 HD03     S    a  0303 18.70     0.80     0.2             76    0.3810  174  75 
 HD27     P    a  0303 00.30                              65   -0.1910  199 312 
 HD27     S    a  0303 23.60     0.40     0.2             65   -1.50 6  199 312 
 HD63     P    a  0303 02.00                              65    0.3010  208 347 
 HD63     S    a  0303 26.60     0.90     0.3             65   -0.59 9  208 347 
 HD64     P    a  0303 02.90                              65    0.78 9  211 359 
 HD64     S    a  0303 27.80     0.70     0.3             65   -0.1110  211 359 
 HD48     P    a  0303 01.00                              65   -1.36 6  212 273 
 HD48     S    a  0303 25.60     0.40     0.2             65   -2.73 0  212 273 
 HD21     P    a  0303 04.40                              65    1.06 8  219  21 
 HD21     S    a  0303 31.40      1.1     0.2             65    1.38 6  219  21 
 HD36     P    a  0303 07.20                              65    0.2310  243 324 
 HD36     S    a  0303 36.50     0.30     0.3             65    0.2110  243 324 
 HD37     P    a  0303 09.40                              65    1.88 3  247 328 
 HD37     S    a  0303 38.10     0.30     0.3             65    0.86 8  247 328 
                                                                                
