 2016 1019 0335 15.6 R  46.264 106.155 10.1  mon  9 0.2 0.0Lmon                1
 GAP=169        0.46       1.3     1.3  2.1  0.1483E+00 -0.1426E+01 -0.2869E+00E
 ACTION:REG 18-10-16 09:42 OP:ngse STATUS:               ID:20161019033516     I
 IDC: ellipse    5.6    2.8   0 MB sd+-                  Event ID      236     3
 * 23 km NW Delgertsogt Dundgobi                     ***                       3
 STAT SP IPHASW D HRMM SECON CODA AMPLIT PERI AZIMU VELO AIN AR TRES W  DIS CAZ7
 DR02     P    a  0335 17.60                             163   -0.0010 3.62 206 
 DR02     S    a  0335 19.20      7.5     0.3            163    0.1510 3.62 206 
 DR10     P    a  0335 18.90                             125   -0.0410 16.7 159 
 DR10     S    a  0335 21.40      6.8     0.2            125    0.0410 16.7 159 
 DR01     P    a  0335 19.30                             121    0.0110 19.3 282 
 DR01     S    a  0335 21.90      5.4     0.2            121   -0.0810 19.3 282 
 DR05     P    a  0335 20.80                             110   -0.2210 30.9  91 
 DR05     S    a  0335 24.60      1.1     0.1            110   -0.3610 30.9  91 
 DR03     P    a  0335 23.90                             103   -0.0210 49.5 109 
 DR03     S    a  0335 29.80                             103   -0.1910 49.5 109 
 DR07     P    a  0335 25.30                             101    0.0210 57.9  93 
 DR07     S    a  0335 32.70                             101    0.3710 57.9  93 
 MDGM     P    a  0335 25.90                             101    0.0310 61.6 167 
 MDGM     S    a  0335 33.30                             101   -0.0610 61.6 167 
 DR04     P    a  0335 27.50                              99    0.0810 71.2  94 
 DR04     S    a  0335 36.10                              99    0.0710 71.2  94 
 DR06     P    a  0335 28.00                              99    0.2010 73.5 101 
                                                                                
 2016 1020 0757 31.3 R  46.202 106.691  8.6  mon  6 0.1-0.1Lmon                1
 GAP=135        0.33       1.2     0.8  2.3  0.2631E+00  0.1046E+00 -0.7424E-01E
 ACTION:REG 18-10-16 09:42 OP:ngse STATUS:               ID:20161020075731     I
 IDC: ellipse    2.3    1.2  14 MB sd+-                  Event ID      242     3
 * 1 km  S Deren Dundgobi                            ***                       3
 STAT SP IPHASW D HRMM SECON CODA AMPLIT PERI AZIMU VELO AIN AR TRES W  DIS CAZ7
 DR03     P    a  0757 33.50                             132   -0.1910 11.1 152 
 DR03     S    a  0757 35.50                             132    0.0310 11.1 152 
 DR05     P    a  0757 33.80                             129   -0.0610 12.3 302 
 DR05     S    a  0757 35.80      5.0     0.2            129    0.0510 12.3 302 
 DR07     P    a  0757 34.40                             120   -0.0710 16.9  77 
 DR07     S    a  0757 36.80                             120   -0.0110 16.9  77 
 DR06     P    a  0757 36.70                             108    0.0210 31.6 103 
 DR06     S    a  0757 40.80                             108    0.1610 31.6 103 
 DR10     S    a  0757 42.10                             105    0.0810 36.7 256 
 DR02     S    a  0757 43.80                             103    0.0010 43.1 275 
                                                                                
 2016 1020 1636  7.7 R  46.189 106.696  9.5  mon  4 0.2-0.6Lmon                1
 GAP=156        0.51       2.9     2.7  4.8  0.5500E+01 -0.8948E+01 -0.8090E+01E
 ACTION:REG 18-10-16 09:42 OP:ngse STATUS:               ID:20161020163608     I
 IDC: ellipse    3.8    2.1  20 MB sd+-                  Event ID       24     3
 * 2 km SE Deren Dundgobi                            ***                       3
 STAT SP IPHASW D HRMM SECON CODA AMPLIT PERI AZIMU VELO AIN AR TRES W  DIS CAZ7
 DR03     P    a  1636 09.90                             138   -0.1810 9.64 150 
 DR03     S    a  1636 11.90                             138    0.0910 9.64 150 
 DR05     P    a  1636 10.90                             129    0.3710 13.3 306 
 DR05     S    a  1636 12.40      1.2     0.2            129   -0.2010 13.3 306 
 DR04     P    a  1636 12.70                             110   -0.1310 29.4  85 
 DR04     S    a  1636 16.60                             110    0.0310 29.4  85 
 DR06     P    a  1636 13.00                             109   -0.0810 31.0 101 
 DR06     S    a  1636 17.10                             109    0.1010 31.0 101 
                                                                                
 2016 1021 0737 20.9 R  46.204 106.527 15.8  mon 11 0.3 0.1Lmon                1
 GAP= 77        0.67       1.3     1.3  2.7  0.4256E-01  0.2458E+00 -0.5828E+00E
 ACTION:REG 18-10-16 09:42 OP:ngse STATUS:               ID:20161021073720     I
 IDC: ellipse    0.9    0.7   2 MB sd+-                  Event ID      621     3
 * 13 km  W Deren Dundgobi                           ***                       3
 STAT SP IPHASW D HRMM SECON CODA AMPLIT PERI AZIMU VELO AIN AR TRES W  DIS CAZ7
 DR05     P    a  0737 24.00                             159    0.0410 6.64  20 
 DR05     S    a  0737 26.00      7.3     0.2            159   -0.1710 6.64  20 
 DR03     P    a  0737 25.40                             130    0.1010 20.5 119 
 DR03     S    a  0737 28.60      3.8     0.2            130    0.1010 20.5 119 
 DR10     P    a  0737 25.90                             125    0.0510 24.5 249 
 DR10     S    a  0737 29.50      2.5     0.3            125    0.0610 24.5 249 
 DR07     P    a  0737 26.80                             120    0.3010 29.4  83 
 DR07     S    a  0737 30.40      2.4     0.3            120   -0.1710 29.4  83 
 DR02     P    a  0737 26.70                             120    0.0410 30.4 277 
 DR02     S    a  0737 30.90                             120    0.0510 30.4 277 
 DR04     P    a  0737 28.60                             112    0.1910 42.3  89 
 DR04     S    a  0737 34.10      4.8     0.4            112    0.2410 42.3  89 
 DR06     P    a  0737 28.90                             111    0.2210 44.1  99 
 DR06     S    a  0737 34.10      4.0     0.2            111   -0.2410 44.1  99 
 DR01     P    a  0737 29.50                             109    0.1110 48.7 283 
 DR01     S    a  0737 35.70     0.70     0.2            109    0.1310 48.7 283 
 MDGM     P    a  0737 30.20                             107   -0.2610 55.6 196 
 MDGM     S    a  0737 37.00                             107   -0.4110 55.6 196 
 U07M     P    a  0737 38.70                              99    0.0710  107 351 
 U07M     S    a  0737 51.70                              99    0.1610  107 351 
 U05M     S    a  0737 59.30                              97   -0.87 8  137   9 
                                                                                
 2016 1022 1334 11.0 R  46.220 106.415 11.4  mon  5 0.0-0.5Lmon                1
 GAP=145        0.28       1.4     0.8  2.3  0.1468E+00  0.2038E+00  0.3516E+00E
 ACTION:REG 18-10-16 09:42 OP:ngse STATUS:               ID:20161022133410     I
 IDC: ellipse    4.4    1.9   7 MB sd+-                  Event ID       62     3
 * 10 km NE Delgertsogt Dundgobi                     ***                       3
 STAT SP IPHASW D HRMM SECON CODA AMPLIT PERI AZIMU VELO AIN AR TRES W  DIS CAZ7
 DR05     P    a  1334 13.80                             137   -0.0110 11.7  68 
 DR05     S    a  1334 15.90      3.9     0.2            137    0.0110 11.7  68 
 DR10     S    a  1334 17.20     0.40     0.2            126    0.0110 17.8 233 
 DR02     P    a  1334 15.00                             121   -0.0910 21.7 274 
 DR02     S    a  1334 18.10                             121   -0.0110 21.7 274 
 DR03     P    a  1334 16.20                             114    0.0610 29.0 114 
 DR03     S    a  1334 19.90      1.1     0.3            114   -0.0310 29.0 114 
 DR01     S    a  1334 22.90                             108    0.0610 39.9 283 
                                                                                
 2016 1024 0758 44.0 R  46.081 106.078  6.6  mon  6 0.1-0.0Lmon                1
 GAP=178        0.40       1.0     1.5  3.6  0.4736E+00  0.9014E+00  0.1503E+01E
 ACTION:REG 18-10-16 09:42 OP:ngse STATUS:               ID:20161024075844     I
 IDC: ellipse    1.5    1.0  64 MB sd+-                  Event ID      631     3
 * 12 km  N Tevshyn gobi coal mine                   ***                       3
 STAT SP IPHASW D HRMM SECON CODA AMPLIT PERI AZIMU VELO AIN AR TRES W  DIS CAZ7
 DR10     P    a  0758 46.40                             122   -0.1010 12.7  68 
 DR10     S    a  0758 48.30      6.7     0.3            122   -0.0110 12.7  68 
 DR02     P    a  0758 47.20                             115   -0.0110 17.6  14 
 DR02     S    a  0758 49.60      4.9     0.3            115    0.0710 17.6  14 
 DR01     P    a  0758 48.70                             106   -0.0210 27.4 332 
 DR01     S    a  0758 52.20      4.1     0.2            106    0.0610 27.4 332 
 DR05     P    a  0758 51.00                             101   -0.0310 42.0  62 
 DR05     S    a  0758 55.90     0.80     0.2            101   -0.2410 42.0  62 
 MDGM     P    a  0758 51.30                             100   -0.1110 44.3 154 
 MDGM     S    a  0758 56.90                             100    0.1110 44.3 154 
 DR07     S    a  0759 03.20                              97    0.2810 66.2  75 
                                                                                
 2016 1024 0916 54.5 R  46.200 106.561  4.2  mon  8 0.1-0.1Lmon                1
 GAP= 84        0.43       1.1     0.8  3.2  0.8874E-01  0.4180E+00  0.1954E+01E
 ACTION:REG 18-10-16 09:42 OP:ngse STATUS:               ID:20161024091654     I
 IDC: ellipse    1.1    0.6   0 MB sd+-                  Event ID      632     3
 * 10 km  W Deren Dundgobi                           ***                       3
 STAT SP IPHASW D HRMM SECON CODA AMPLIT PERI AZIMU VELO AIN AR TRES W  DIS CAZ7
 DR05     P    a  0916 55.80                             130   -0.1410 6.71 357 
 DR05     S    a  0916 57.00      9.5     0.2            130    0.0110 6.71 357 
 DR03     P    a  0916 57.60                             107    0.0110 18.0 122 
 DR03     S    a  0916 59.90                             107    0.0710 18.0 122 
 DR10     P    a  0916 59.00                             102    0.0010 26.9 252 
 DR10     S    a  0917 02.50      2.2     0.3            102    0.2210 26.9 252 
 DR07     P    a  0916 58.80                             102   -0.2010 26.9  81 
 DR07     S    a  0917 02.10                             102   -0.1810 26.9  81 
 DR02     P    a  0916 59.90                             100   -0.1010 33.1 277 
 DR02     S    a  0917 04.00      2.2     0.3            100   -0.0210 33.1 277 
 DR04     P    a  0917 01.20                              98    0.1310 39.7  88 
 DR04     S    a  0917 06.20      2.2     0.3             98    0.3410 39.7  88 
 DR01     P    a  0917 02.90                              96   -0.0710 51.4 283 
 DR01     S    a  0917 09.30     0.40     0.2             96    0.1610 51.4 283 
 MDGM     P    a  0917 03.60                              96   -0.1010 55.9 199 
 MDGM     S    a  0917 10.30                              96   -0.1210 55.9 199 
                                                                                
 2016 1024 1307 47.1 R  46.236 106.397  3.5  mon  5 0.2-0.8Lmon                1
 GAP=157        0.47       1.9     1.2  8.3 -0.1051E+00  0.3560E+01  0.1421E+01E
 ACTION:REG 18-10-16 09:42 OP:ngse STATUS:               ID:20161024130747     I
 IDC: ellipse    5.5    3.2 162 MB sd+-                  Event ID       63     3
 * 9 km NE Delgertsogt Dundgobi                      ***                       3
 STAT SP IPHASW D HRMM SECON CODA AMPLIT PERI AZIMU VELO AIN AR TRES W  DIS CAZ7
 DR05     P    a  1307 49.20                             112   -0.1210 12.5  78 
 DR05     S    a  1307 50.90     0.40     0.2            112   -0.0410 12.5  78 
 DR10     P    a  1307 50.00                             105   -0.1710 18.0 226 
 DR10     S    a  1307 52.30                             105   -0.0910 18.0 226 
 DR02     P    a  1307 50.60                             104    0.0710 20.2 269 
 DR02     S    a  1307 53.30      1.3     0.4            104    0.2810 20.2 269 
 DR03     S    a  1307 56.20                              99    0.1910 31.0 116 
 DR01     S    a  1307 57.90     0.40     0.3             97   -0.1210 38.2 281 
                                                                                
 2016 1024 1450 52.6 R  46.206 106.568  6.7  mon  3 0.0-1.1Lmon                1
 GAP=152        0.34       2.5     2.4  6.4  0.2755E+01  0.7115E+01  0.1462E+02E
 ACTION:REG 18-10-16 09:42 OP:ngse STATUS:               ID:20161024145052     I
 IDC: ellipse    3.7    2.1  77 MB sd+-                  Event ID       63     3
 * 10 km  W Deren Dundgobi                           ***                       3
 STAT SP IPHASW D HRMM SECON CODA AMPLIT PERI AZIMU VELO AIN AR TRES W  DIS CAZ7
 DR05     P    a  1450 54.30                             144    0.0010 6.01 351 
 DR05     S    a  1450 55.50     0.60     0.3            144   -0.0110 6.01 351 
 DR03     S    a  1450 58.20     0.50     0.2            114   -0.0010 17.9 125 
 MDGM     S    a  1451 08.90                              98    0.0010 56.8 199 
                                                                                
 2016 1024 1453 35.5 R  46.184 106.476  2.7  mon  7 0.2-0.5Lmon                1
 GAP=110        0.66       1.9     1.5 10.9  0.2096E+00  0.4013E+01  0.1322E+02E
 ACTION:REG 18-10-16 09:42 OP:ngse STATUS:               ID:20161024145335     I
 IDC: ellipse    2.4    1.6 171 MB sd+-                  Event ID       63     3
 * 12 km NE Delgertsogt Dundgobi                     ***                       3
 STAT SP IPHASW D HRMM SECON CODA AMPLIT PERI AZIMU VELO AIN AR TRES W  DIS CAZ7
 DR05     P    a  1453 37.10                             111   -0.2110 10.5  36 
 DR05     S    a  1453 38.60      1.4     0.2            111   -0.0610 10.5  36 
 DR10     P    a  1453 39.30                             102    0.4810 20.1 251 
 DR10     S    a  1453 41.40      2.7     0.3            102    0.1310 20.1 251 
 DR03     P    a  1453 39.10                             100   -0.2110 23.1 110 
 DR03     S    a  1453 42.20     0.40     0.2            100    0.0910 23.1 110 
 DR02     P    a  1453 39.50                              99   -0.4210 26.9 282 
 DR02     S    a  1453 43.10     0.60     0.2             99   -0.0810 26.9 282 
 DR07     S    a  1453 45.40                              97    0.3410 33.6  80 
 DR01     S    a  1453 48.60      1.1     0.3             95    0.2010 45.5 287 
 MDGM     P    a  1453 44.00                              94   -0.0710 52.4 193 
 MDGM     S    a  1453 50.20                              94   -0.1610 52.4 193 
                                                                                
 2016 1024 1725  9.5 R  46.196 106.738  8.5  mon  6 0.1-0.6Lmon                1
 GAP=134        0.33       1.3     1.0  2.8  0.3988E-01  0.1242E+01 -0.1419E+01E
 ACTION:REG 18-10-16 09:42 OP:ngse STATUS:               ID:20161024172509     I
 IDC: ellipse    1.9    1.1  23 MB sd+-                  Event ID       63     3
 * 3 km  E Deren Dundgobi                            ***                       3
 STAT SP IPHASW D HRMM SECON CODA AMPLIT PERI AZIMU VELO AIN AR TRES W  DIS CAZ7
 DR03     P    a  1725 11.70                             137    0.0110 9.29 170 
 DR03     S    a  1725 13.30      3.0     0.3            137    0.0010 9.29 170 
 DR07     S    a  1725 14.20     0.70     0.3            126   -0.0310 13.7  71 
 DR05     P    a  1725 12.40                             122   -0.1210 15.7 297 
 DR05     S    a  1725 14.80      2.5     0.2            122    0.0610 15.7 297 
 DR04     S    a  1725 17.40     0.60     0.2            111    0.0410 26.1  86 
 DR02     S    a  1725 22.90     0.30     0.2            102   -0.1110 46.8 275 
 DR01     S    a  1725 28.20     0.30     0.2             99    0.1410 64.9 280 
                                                                                
 2016 1024 2043 32.7 R  46.185 106.487 15.0  mon  6 0.6-0.5Lmon                1
 GAP=171        1.02       8.5    10.2 12.9  0.4505E+02 -0.3340E+02  0.2208E+02E
 ACTION:REG 18-10-16 09:42 OP:ngse STATUS:               ID:20161024204333     I
 IDC: ellipse   29.7    8.6  10 MB sd+-                  Event ID       64     3
 * 7 km NW Deren Dundgobi                            ***                       3
 STAT SP IPHASW D HRMM SECON CODA AMPLIT PERI AZIMU VELO AIN AR TRES W  DIS CAZ7
 DR05     P    a  2043 36.60                             149    0.7310 9.93  33 
 DR05     S    a  2043 37.70      2.1     0.2            149   -0.4610 9.93  33 
 DR03     S    a  2043 40.60     0.60     0.2            126    0.0310 22.4 111 
 DR02     S    a  2043 44.60                             121    2.74 1 27.7 282 
 DR07     S    a  2043 42.80                             116   -0.2910 32.8  80 
 DR04     S    a  2043 42.00                             110   -4.41 0 45.5  86 
 DR01     S    a  2043 50.10                             110    3.47 0 46.3 286 
                                                                                
 2016 1025 0526 35.5 R  46.180 106.866  4.6  mon  5 0.2-0.3Lmon                1
 GAP=123        0.54       1.9     1.9  4.3 -0.9569E+00  0.2694E+00  0.1714E+01E
 ACTION:REG 18-10-16 09:42 OP:ngse STATUS:               ID:20161025052635     I
 IDC: ellipse    2.7    1.6 168 MB sd+-                  Event ID      641     3
 * 13 km  E Deren Dundgobi                           ***                       3
 STAT SP IPHASW D HRMM SECON CODA AMPLIT PERI AZIMU VELO AIN AR TRES W  DIS CAZ7
 DR07     P    a  0526 37.00                             130    0.0010 6.97  26 
 DR07     S    a  0526 38.00                             130   -0.0910 6.97  26 
 DR03     P    a  0526 37.30                             118   -0.2710 11.1 228 
 DR03     S    a  0526 39.20      3.1     0.2            118    0.1210 11.1 228 
 DR04     P    a  0526 38.50                             110    0.1210 16.5  78 
 DR06     P    a  0526 38.70                             108    0.1010 18.0 105 
 DR05     P    a  0526 39.50                             103   -0.2810 25.5 290 
 DR05     S    a  0526 43.20      1.9     0.2            103    0.2910 25.5 290 
                                                                                
