 2016 1025 1700 48.2 R  46.253 106.281  7.2  mon  6 0.2-0.2Lmon                1
 GAP=168        0.47       1.3     1.3  3.5  0.3902E-02 -0.1440E+01  0.1961E+00E
 ACTION:REG 18-10-16 09:42 OP:ngse STATUS:               ID:20161025170048     I
 IDC: ellipse    1.9    1.6   8 MB sd+-                  Event ID      647     3
 * 16 km NW Delgertsogt Dundgobi                     ***                       3
 STAT SP IPHASW D HRMM SECON CODA AMPLIT PERI AZIMU VELO AIN AR TRES W  DIS CAZ7
 DR02     P    a  1700 50.50                             127   -0.0410 11.5 260 
 DR02     S    a  1700 52.30      3.4     0.2            127    0.0410 11.5 260 
 DR10     P    a  1700 51.00                             120   -0.0010 14.9 195 
 DR10     S    a  1700 53.20      4.8     0.2            120    0.1310 14.9 195 
 DR05     P    a  1700 51.80                             112   -0.1210 21.2  88 
 DR05     S    a  1700 54.40      2.0     0.2            112   -0.2610 21.2  88 
 DR01     P    a  1700 53.10                             107   -0.0410 29.1 280 
 DR01     S    a  1700 56.80     0.90     0.2            107    0.0310 29.1 280 
 DR07     S    a  1701 02.40                             100    0.3810 48.1  92 
 MDGM     P    a  1700 58.00                              98    0.0610 59.0 176 
 MDGM     S    a  1701 04.90                              98   -0.1710 59.0 176 
                                                                                
 2016 1027 0325 55.6 R  46.171 106.321 20.7  mon  7 0.2-0.0Lmon                1
 GAP=140        0.56       3.4     1.6  3.1  0.1140E+01 -0.2056E+01 -0.9897E+00E
 ACTION:REG 18-10-16 09:42 OP:ngse STATUS:               ID:20161027032555     I
 IDC: ellipse    5.0    1.6   4 MB sd+-                  Event ID      653     3
 * 5 km NW Delgertsogt Dundgobi                      ***                       3
 STAT SP IPHASW D HRMM SECON CODA AMPLIT PERI AZIMU VELO AIN AR TRES W  DIS CAZ7
 DR10     P    a  0325 59.40                             158   -0.1010 8.74 233 
 DR10     S    a  0326 02.40                             158    0.0510 8.74 233 
 DR02     P    a  0326 00.10                             144    0.0210 16.0 296 
 DR02     S    a  0326 03.40      1.5     0.2            144    0.0510 16.0 296 
 DR05     P    a  0326 01.10                             137    0.54 9 20.7  61 
 DR05     S    a  0326 04.00      2.5     0.3            137   -0.1810 20.7  61 
 DR01     P    a  0326 02.30                             122   -0.0510 34.8 294 
 DR01     S    a  0326 07.20      1.0     0.2            122   -0.0710 34.8 294 
 DR07     S    a  0326 09.70                             116   -0.2610 45.7  81 
 DR04     S    a  0326 13.50      1.2     0.3            111    0.2310 58.4  85 
 DR06     P    a  0326 05.80                             110   -0.1910 59.5  93 
 DR06     S    a  0326 13.60      1.6     0.3            110    0.0210 59.5  93 
                                                                                
 2016 1028 0626 27.9 R  46.198 106.321 10.9  mon  4 0.0-1.1Lmon                1
 GAP=151        0.29       1.5     1.0  3.0 -0.1665E+00 -0.1714E+00 -0.2269E+01E
 ACTION:REG 18-10-16 09:42 OP:ngse STATUS:               ID:20161028062628     I
 IDC: ellipse    3.5    1.8 167 MB sd+-                  Event ID       65     3
 * 10 km  N Delgertsogt Dundgobi                     ***                       3
 STAT SP IPHASW D HRMM SECON CODA AMPLIT PERI AZIMU VELO AIN AR TRES W  DIS CAZ7
 DR10     P    a  0626 30.60                             139   -0.0110 10.9 220 
 DR10     S    a  0626 32.60     0.60     0.2            139    0.0210 10.9 220 
 DR02     P    a  0626 31.00                             130   -0.0810 14.9 286 
 DR02     S    a  0626 33.40     0.20     0.2            130   -0.0110 14.9 286 
 DR05     P    a  0626 31.70                             123    0.0410 19.3  69 
 DR05     S    a  0626 34.40     0.40     0.2            123   -0.0110 19.3  69 
 DR01     S    a  0626 38.10                             110    0.0510 33.6 289 
                                                                                
 2016 1028 0627 21.6 R  46.200 106.318 11.2  mon  6 0.1 0.5Lmon                1
 GAP=141        0.30       0.8     0.8  1.8  0.7455E-01 -0.2066E+00  0.2466E+00E
 ACTION:REG 18-10-16 09:42 OP:ngse STATUS:               ID:20161028062721     I
 IDC: ellipse    2.5    2.1   8 MB sd+-                  Event ID      659     3
 * 10 km  N Delgertsogt Dundgobi                     ***                       3
 STAT SP IPHASW D HRMM SECON CODA AMPLIT PERI AZIMU VELO AIN AR TRES W  DIS CAZ7
 DR10     P    a  0627 24.40                             139    0.0810 10.9 218 
 DR10     S    a  0627 26.40                             139    0.0810 10.9 218 
 DR02     P    a  0627 24.70                             131   -0.0610 14.6 285 
 DR02     S    a  0627 27.00      16.     0.3            131   -0.0810 14.6 285 
 DR05     P    a  0627 25.40                             123    0.0010 19.5  70 
 DR05     S    a  0627 28.10                             123   -0.0810 19.5  70 
 DR01     P    a  0627 27.50                             111    0.0810 33.3 289 
 DR01     S    a  0627 31.70      6.2     0.2            111    0.0210 33.3 289 
 DR03     S    a  0627 32.30                             110    0.1010 35.3 106 
 MDGM     P    a  0627 30.50                             103   -0.0110 53.0 179 
 MDGM     S    a  0627 36.90                             103   -0.1210 53.0 179 
                                                                                
 2016 1029 0108 45.9 R  46.167 106.725 13.1  mon  7 0.1-0.4Lmon                1
 GAP=131        0.40       1.2     1.0  2.1 -0.1407E-01  0.2747E+00  0.4504E+00E
 ACTION:REG 18-10-16 09:42 OP:ngse STATUS:               ID:20161029010845     I
 IDC: ellipse    1.4    0.8 175 MB sd+-                  Event ID       66     3
 * 5 km SE Deren Dundgobi                            ***                       3
 STAT SP IPHASW D HRMM SECON CODA AMPLIT PERI AZIMU VELO AIN AR TRES W  DIS CAZ7
 DR03     P    a  0108 48.60                             156    0.0810 6.45 157 
 DR03     S    a  0108 50.40      1.6     0.3            156   -0.0210 6.45 157 
 DR05     P    a  0108 49.50                             131   -0.0510 16.6 308 
 DR05     S    a  0108 52.00      2.2     0.2            131   -0.2010 16.6 308 
 DR04     P    a  0108 50.90                             118   -0.1110 27.5  79 
 DR04     S    a  0108 54.80     0.90     0.2            118    0.0810 27.5  79 
 DR06     P    a  0108 51.20                             117    0.0610 28.4  97 
 DR06     S    a  0108 55.00                             117    0.0510 28.4  97 
 DR10     S    a  0108 57.90                             111    0.3010 38.5 263 
 DR02     S    a  0108 59.70     0.40     0.3            108    0.0510 46.2 280 
 MDGM     P    a  0108 55.60                             104   -0.1410 58.1 212 
 MDGM     S    a  0109 02.80                             104   -0.1010 58.1 212 
                                                                                
 2016 1029 0927 38.4 R  46.154 106.078 14.5  mon  6 0.1 0.2Lmon                1
 GAP=163        0.31       1.0     1.3  1.7  0.4737E+00 -0.3379E+00  0.4229E+00E
 ACTION:REG 18-10-16 09:42 OP:ngse STATUS:               ID:20161029092738     I
 IDC: ellipse    3.2    1.8  32 MB sd+-                  Event ID      666     3
 * 19 km  N Tevshyn gobi coal mine                   ***                       3
 STAT SP IPHASW D HRMM SECON CODA AMPLIT PERI AZIMU VELO AIN AR TRES W  DIS CAZ7
 DR02     P    a  0927 41.50                             148   -0.0210 9.89  26 
 DR02     S    a  0927 43.80                             148    0.0410 9.89  26 
 DR10     P    a  0927 41.70                             142   -0.0310 12.3 106 
 DR10     S    a  0927 44.20      10.     0.2            142    0.0610 12.3 106 
 DR01     P    a  0927 42.70                             128   -0.0010 20.6 321 
 DR01     S    a  0927 45.80      11.     0.2            128   -0.0110 20.6 321 
 DR05     P    a  0927 45.30                             112    0.0110 38.7  72 
 DR05     S    a  0927 50.10      1.8     0.2            112   -0.1910 38.7  72 
 MDGM     S    a  0927 53.70                             107   -0.0710 51.8 158 
 DR03     P    a  0927 47.60                             107    0.1510 52.7  95 
 DR03     S    a  0927 54.10      1.0     0.3            107    0.0710 52.7  95 
                                                                                
 2016 1030 0518 55.1 R  46.156 106.083 14.9  mon  5 0.1-0.3Lmon                1
 GAP=162        0.35       1.1     1.6  2.1  0.7180E+00  0.1756E-01  0.6493E+00E
 ACTION:REG 18-10-16 09:42 OP:ngse STATUS:               ID:20161030051855     I
 IDC: ellipse    1.4    0.8  38 MB sd+-                  Event ID       67     3
 * 20 km  N Tevshyn gobi coal mine                   ***                       3
 STAT SP IPHASW D HRMM SECON CODA AMPLIT PERI AZIMU VELO AIN AR TRES W  DIS CAZ7
 DR02     P    a  0518 58.20                             150    0.0110 9.59  25 
 DR02     S    a  0519 00.50      1.1     0.2            150    0.0310 9.59  25 
 DR10     P    a  0518 58.40                             144   -0.0110 12.0 108 
 DR10     S    a  0519 00.90      3.1     0.2            144    0.0710 12.0 108 
 DR01     P    a  0518 59.40                             128   -0.0010 20.7 320 
 DR01     S    a  0519 02.50      3.5     0.2            128   -0.0610 20.7 320 
 DR05     P    a  0519 02.10                             113    0.2010 38.3  72 
 DR05     S    a  0519 06.70     0.50     0.2            113   -0.1810 38.3  72 
 MDGM     S    a  0519 10.40                             108   -0.0610 51.8 158 
                                                                                
 2016 1030 0524 39.7 R  46.239 106.877  6.0  mon  9 0.1 0.3Lmon                1
 GAP=180        0.40       1.3     1.0  1.9  0.3026E+00  0.9579E+00  0.6697E+00E
 ACTION:REG 18-10-16 09:42 OP:ngse STATUS:               ID:20161030052439     I
 IDC: ellipse    2.0    0.9   1 MB sd+-                  Event ID      675     3
 * 14 km  E Deren Dundgobi                           ***                       3
 STAT SP IPHASW D HRMM SECON CODA AMPLIT PERI AZIMU VELO AIN AR TRES W  DIS CAZ7
 DR07     P    a  0524 40.80                             163   -0.1810 2.17  96 
 DR07     S    a  0524 41.80      26.     0.2            163   -0.0910 2.17  96 
 DR04     P    a  0524 42.50                             115   -0.0510 15.6 101 
 DR04     S    a  0524 44.80      15.     0.3            115    0.2010 15.6 101 
 DR03     P    a  0524 42.70                             114   -0.0210 16.7 213 
 DR03     S    a  0524 45.10                             114    0.2110 16.7 213 
 DR06     P    a  0524 43.20                             110   -0.0210 19.9 124 
 DR06     S    a  0524 45.80                             110    0.0410 19.9 124 
 DR05     P    a  0524 44.10                             107    0.1210 24.9 275 
 DR05     S    a  0524 47.20      10.     0.2            107    0.1210 24.9 275 
 DR10     S    a  0524 54.60     0.90     0.2             98    0.1210 51.5 256 
 DR02     S    a  0524 55.90                              97   -0.1910 57.3 270 
 MDGM     P    a  0524 51.30                              96   -0.1710 71.3 217 
 MDGM     S    a  0524 59.90                              96   -0.1410 71.3 217 
 DR01     S    a  0525 01.10      1.1     0.3             96    0.0610 74.9 275 
                                                                                
 2016 1030 0527 50.6 R  46.167 106.067 13.6  mon 12 0.2 0.8Lmon                1
 GAP=163        0.59       1.1     1.9  2.1  0.6260E+00 -0.1263E+01 -0.3431E+00E
 ACTION:REG 18-10-16 09:42 OP:ngse STATUS:               ID:20161030052750     I
 IDC: ellipse    1.4    1.1 126 MB sd+-                  Event ID      676     3
 * 21 km  N Tevshyn gobi coal mine                   ***                       3
 STAT SP IPHASW D HRMM SECON CODA AMPLIT PERI AZIMU VELO AIN AR TRES W  DIS CAZ7
 DR02     P    a  0527 53.40                             149   -0.0810 9.15  35 
 DR02     S    a  0527 55.80                             149    0.2010 9.15  35 
 DR10     P    a  0527 53.80                             138   -0.1110 13.5 111 
 DR10     S    a  0527 56.10      0.2E+03 0.2            138   -0.2310 13.5 111 
 DR01     P    a  0527 54.60                             128    0.0410 19.0 320 
 DR01     S    a  0527 57.70      0.1E+03 0.2            128    0.2410 19.0 320 
 DR05     P    a  0527 57.30                             111   -0.1510 39.1  74 
 DR05     S    a  0528 02.10      51.     0.3            111   -0.3610 39.1  74 
 MDGM     P    a  0527 59.60                             106   -0.0610 53.3 158 
 MDGM     S    a  0528 06.10                             106   -0.1910 53.3 158 
 DR03     P    a  0527 59.70                             106   -0.0210 53.7  96 
 DR03     S    a  0528 06.30      20.     0.2            106   -0.0810 53.7  96 
 DR07     P    a  0528 01.50                             103   -0.0310 65.1  83 
 DR07     S    a  0528 09.70      36.     0.3            103    0.1910 65.1  83 
 DR04     P    a  0528 03.80                             101    0.2210 78.0  86 
 DR04     S    a  0528 13.50      17.     0.2            101    0.4310 78.0  86 
 DR06     P    a  0528 03.90                             101    0.1310 79.1  92 
 DR06     S    a  0528 13.70      15.     0.2            101    0.3210 79.1  92 
 SEMM     P    a  0528 18.70                              95    0.1710  170  24 
 SEMM     S    a  0528 38.70      7.9     0.3             95   -0.2210  170  24 
 UGDM     P    a  0528 22.20                              95   -0.0110  193  31 
 UGDM     S    a  0528 44.90      2.6     0.2             95   -0.3910  193  31 
 BULM     S    a  0529 24.80                              49    3.59 0  339 328 
                                                                                
 2016 1030 0759 39.3 R  46.218 106.456 11.3  mon  4 0.1-0.8Lmon                1
 GAP=145        0.32       1.9     1.0  2.7  0.2949E+00  0.5410E+00  0.2221E+01E
 ACTION:REG 18-10-16 09:42 OP:ngse STATUS:               ID:20161030075939     I
 IDC: ellipse    7.1    2.8   4 MB sd+-                  Event ID       67     3
 * 11 km NE Delgertsogt Dundgobi                     ***                       3
 STAT SP IPHASW D HRMM SECON CODA AMPLIT PERI AZIMU VELO AIN AR TRES W  DIS CAZ7
 DR05     S    a  0759 43.70     0.90     0.2            145    0.0110 9.00  59 
 DR10     S    a  0759 46.10     0.60     0.3            122    0.0210 20.4 239 
 DR02     P    a  0759 43.80                             117   -0.0510 24.9 274 
 DR02     S    a  0759 47.20     0.20     0.2            117    0.0010 24.9 274 
 DR03     P    a  0759 44.10                             116    0.0910 26.0 116 
 DR03     S    a  0759 47.40     0.70     0.2            116   -0.0710 26.0 116 
                                                                                
 2016 1030 0939  5.6 R  45.858 106.975 18.7  mon 14 0.3 0.9Lmon                1
 GAP=224        0.86       2.6     3.2  2.9 -0.4951E+01 -0.4280E+01  0.2463E+01E
 ACTION:REG 18-10-16 09:42 OP:ngse STATUS:               ID:20161030093905     I
 IDC: ellipse    1.6    1.5  66 MB sd+-                  Event ID      678     3
 * 34 km  N Gurvansaikhan Dundgobi                   ***                       3
 STAT SP IPHASW D HRMM SECON CODA AMPLIT PERI AZIMU VELO AIN AR TRES W  DIS CAZ7
 DR06     P    a  0939 11.30                             122   -0.4810 32.3  16 
 DR06     S    a  0939 16.00      0.1E+03 0.3            122   -0.3210 32.3  16 
 DR03     P    a  0939 11.80                             121   -0.0810 33.0 329 
 DR03     S    a  0939 16.60      0.1E+03 0.3            121    0.1110 33.0 329 
 DR04     P    a  0939 12.60                             116   -0.3010 40.1  11 
 DR04     S    a  0939 18.30      88.     0.3            116    0.0510 40.1  11 
 DR07     P    a  0939 13.10                             115   -0.1410 42.5 353 
 DR07     S    a  0939 19.00      0.1E+03 0.3            115    0.1510 42.5 353 
 MDGM     P    a  0939 14.70                             111   -0.0410 52.4 254 
 MDGM     S    a  0939 21.60                             111    0.1610 52.4 254 
 DR05     P    a  0939 15.10                             110   -0.0710 55.2 324 
 DR05     S    a  0939 22.40      44.     0.2            110    0.2110 55.2 324 
 DR10     P    a  0939 16.80                             107    0.1410 64.8 297 
 DR10     S    a  0939 24.80      19.     0.2            107    0.0410 64.8 297 
 DR02     P    a  0939 18.70                             105    0.0610 77.3 303 
 DR02     S    a  0939 27.50      9.7     0.2            105   -0.69 9 77.3 303 
 DR01     P    a  0939 21.80                             102    0.2110 95.9 301 
 DR01     S    a  0939 32.70      11.     0.2            102   -0.59 9 95.9 301 
 U07M     P    a  0939 31.50                              98    0.75 9  153 341 
 U05M     P    a  0939 34.90                              97    0.58 9  175 356 
 U05M     S    a  0939 57.80                              97    2.49 0  175 356 
 SEMM     P    a  0939 37.00                              96    0.2410  190   0 
 SEMM     S    a  0939 59.80      16.     0.3             96    0.2610  190   0 
 UGDM     P    a  0939 38.50                              96   -0.0510  201   9 
 UGDM     S    a  0940 02.70      9.1     0.3             96    0.0610  201   9 
 U04M     P    a  0939 47.70                              49    0.2310  259  30 
 U04M     S    a  0940 17.50      12.     0.3             49   -0.57 9  259  30 
                                                                                
 2016 1030 1630 49.5 R  46.210 106.930 11.2  mon  4 0.1-0.6Lmon                1
 GAP=168        0.42       2.4     1.5  4.0 -0.1209E+00  0.3248E+01 -0.3126E+01E
 ACTION:REG 18-10-16 09:42 OP:ngse STATUS:               ID:20161030163050     I
 IDC: ellipse    4.6    1.8   4 MB sd+-                  Event ID       67     3
 * 17 km  E Deren Dundgobi                           ***                       3
 STAT SP IPHASW D HRMM SECON CODA AMPLIT PERI AZIMU VELO AIN AR TRES W  DIS CAZ7
 DR04     P    a  1630 52.20                             138   -0.0610 11.1  89 
 DR04     S    a  1630 54.20      1.0     0.2            138   -0.0710 11.1  89 
 DR06     P    a  1630 52.80                             130    0.1110 14.7 123 
 DR06     S    a  1630 55.10      1.8     0.3            130    0.0910 14.7 123 
 DR03     P    a  1630 52.70                             126   -0.2910 17.1 231 
 DR03     S    a  1630 55.60      1.9     0.3            126    0.0710 17.1 231 
 DR05     P    a  1630 54.90                             113    0.1410 29.4 281 
 DR05     S    a  1630 58.60     0.30     0.2            113    0.0110 29.4 281 
                                                                                
