 2016 1014 1857 37.0 R  46.190 107.030  8.9  mon  5 0.3-0.8Lmon                1
 GAP=117        0.80       3.7     4.0  6.0  0.5555E+01  0.1633E+02  0.7266E+01E
 ACTION:REG 18-10-16 09:42 OP:ngse STATUS:               ID:20161014185737     I
 IDC: ellipse    3.7    2.1  10 MB sd+-                  Event ID      100     3
 * 25 km  E Deren Dundgobi                           ***                       3
 STAT SP IPHASW D HRMM SECON CODA AMPLIT PERI AZIMU VELO AIN AR TRES W  DIS CAZ7
 DR04     P    a  1857 38.80                             158    0.0110 4.20  55 
 DR04     S    a  1857 40.40      1.4     0.2            158    0.2910 4.20  55 
 DR06     P    a  1857 39.10                             144    0.0310 7.50 142 
 DR06     S    a  1857 40.10                             144   -0.4810 7.50 142 
 DR07     P    a  1857 39.50                             133    0.0610 11.0 298 
 DR07     S    a  1857 41.20     0.50     0.2            133   -0.0210 11.0 298 
 DR03     P    a  1857 41.30                             114    0.2410 22.7 248 
 DR03     S    a  1857 44.40      1.0     0.3            114    0.3610 22.7 248 
 DR05     S    a  1857 47.40                             105   -0.58 9 37.4 282 
                                                                                
 2016 1014 2218 28.4 R  46.158 106.819  9.1  mon  6 0.1-0.6Lmon                1
 GAP=122        0.32       0.9     0.9  1.7 -0.2326E+00  0.1835E+00  0.3815E+00E
 ACTION:REG 18-10-16 09:42 OP:ngse STATUS:               ID:20161014221828     I
 IDC: ellipse    2.3    1.5 155 MB sd+-                  Event ID      101     3
 * 12 km SE Deren Dundgobi                           ***                       3
 STAT SP IPHASW D HRMM SECON CODA AMPLIT PERI AZIMU VELO AIN AR TRES W  DIS CAZ7
 DR03     P    a  2218 30.50                             147    0.0110 6.80 223 
 DR03     S    a  2218 32.00     0.70     0.2            147    0.0310 6.80 223 
 DR07     P    a  2218 30.80                             133   -0.1310 11.0  37 
 DR07     S    a  2218 32.60      3.4     0.2            133   -0.1310 11.0  37 
 DR04     S    a  2218 35.10      1.0     0.3            117    0.0910 20.7  73 
 DR06     P    a  2218 32.30                             116   -0.0010 21.1  96 
 DR06     S    a  2218 35.20                             116    0.0810 21.1  96 
 DR05     P    a  2218 32.60                             114   -0.0210 23.2 299 
 DR05     S    a  2218 35.80     0.80     0.3            114    0.1310 23.2 299 
 MDGM     P    a  2218 38.70                             100    0.0410 61.5 218 
 MDGM     S    a  2218 46.00                             100   -0.1110 61.5 218 
                                                                                
 2016 1015 2142 28.5 R  46.201 106.838  6.5  mon  4 0.3-0.6Lmon                1
 GAP=127        0.85       3.6     3.2  7.9 -0.3607E+01  0.1121E+02 -0.5842E+01E
 ACTION:REG 18-10-16 09:42 OP:ngse STATUS:               ID:20161015214228     I
 IDC: ellipse    8.4    4.1 170 MB sd+-                  Event ID      101     3
 * 12 km  E Deren Dundgobi                           ***                       3
 STAT SP IPHASW D HRMM SECON CODA AMPLIT PERI AZIMU VELO AIN AR TRES W  DIS CAZ7
 DR07     P    a  2142 29.80                             140   -0.3310 6.55  52 
 DR07     S    a  2142 31.60      1.5     0.2            140    0.2610 6.55  52 
 DR03     S    a  2142 32.40                             124    0.0110 11.5 213 
 DR04     S    a  2142 34.00      1.4     0.2            113   -0.1010 18.3  86 
 DR05     P    a  2142 33.00                             109    0.59 9 22.7 287 
 DR05     S    a  2142 34.90     0.90     0.3            109   -0.3810 22.7 287 
                                                                                
 2016 1016 1314 43.2 R  46.288 106.116  9.4  mon  9 0.3 0.7Lmon                1
 GAP=181        0.68       2.1     2.0  3.3  0.4127E+00 -0.3506E+01 -0.1287E+01E
 ACTION:REG 18-10-16 09:42 OP:ngse STATUS:               ID:20161016131443     I
 IDC: ellipse    2.6    1.6 176 MB sd+-                  Event ID      198     3
 * 26 km NW Delgertsogt Dundgobi                     ***                       3
 STAT SP IPHASW D HRMM SECON CODA AMPLIT PERI AZIMU VELO AIN AR TRES W  DIS CAZ7
 DR02     P    a  1314 45.30                             151    0.0610 6.08 167 
 DR02     S    a  1314 46.80      55.     0.3            151    0.0710 6.08 167 
 DR01     P    a  1314 46.40                             124    0.0410 16.0 274 
 DR01     S    a  1314 48.70      46.     0.2            124    0.0410 16.0 274 
 DR10     P    a  1314 46.90                             118   -0.0710 20.3 154 
 DR10     S    a  1314 49.80                             118    0.0810 20.3 154 
 DR05     P    a  1314 48.60                             108   -0.4510 34.0  95 
 DR05     S    a  1314 52.70      4.0     0.2            108   -0.62 9 34.0  95 
 DR03     P    a  1314 52.00                             101   -0.0810 53.2 111 
 DR03     S    a  1314 58.40      1.7     0.2            101   -0.1610 53.2 111 
 DR07     P    a  1314 53.30                             100   -0.0510 61.1  95 
 DR07     S    a  1315 00.90                             100    0.1410 61.1  95 
 MDGM     P    a  1314 54.00                              99    0.0310 64.9 165 
 MDGM     S    a  1315 01.70                              99   -0.1310 64.9 165 
 DR04     P    a  1314 55.70                              98    0.2010 74.4  96 
 DR04     S    a  1315 04.70      6.6     0.2             98    0.2110 74.4  96 
 DR06     P    a  1314 55.90                              98   -0.0210 77.0 102 
 DR06     S    a  1315 05.90                              98    0.69 9 77.0 102 
                                                                                
 2016 1016 1639 10.4 R  46.165 106.876  8.1  mon  4 0.4                        1
 GAP=137        0.99       3.9     4.3  7.9 -0.3998E+01  0.3342E+00  0.4768E+01E
 ACTION:REG 18-10-16 09:42 OP:ngse STATUS:               ID:20161016163910     I
 IDC: ellipse    6.7    4.6 170 MB sd+-                  Event ID      201     3
 * 17 km SE Deren Dundgobi                           ***                       3
 STAT SP IPHASW D HRMM SECON CODA AMPLIT PERI AZIMU VELO AIN AR TRES W  DIS CAZ7
 DR07     P    a  1639 12.30                             139   -0.1910 8.25  16 
 DR07     S    a  1639 14.10                             139    0.1210 8.25  16 
 DR03     P    a  1639 12.60                             131   -0.1810 10.8 238 
 DR03     S    a  1639 14.60                             131    0.1110 10.8 238 
 DR06     P    a  1639 13.50                             119   -0.1010 16.8 101 
 DR05     P    a  1639 16.30                             110    1.20 7 26.8 293 
 DR05     S    a  1639 18.10                             110   -0.4010 26.8 293 
                                                                                
 2016 1016 1757 26.5 R  46.206 106.321  6.1  mon  5 0.1-0.7Lmon                1
 GAP=144        0.37       1.5     0.9  4.0  0.2005E+00 -0.8757E+00 -0.2805E+01E
 ACTION:REG 18-10-16 09:42 OP:ngse STATUS:               ID:20161016175725     I
 IDC: ellipse    4.9    2.2   1 MB sd+-                  Event ID       20     3
 * 8 km  N Delgertsogt Dundgobi                      ***                       3
 STAT SP IPHASW D HRMM SECON CODA AMPLIT PERI AZIMU VELO AIN AR TRES W  DIS CAZ7
 DR10     P    a  1757 28.70                             123   -0.0710 11.6 217 
 DR10     S    a  1757 30.40                             123   -0.0310 11.6 217 
 DR02     P    a  1757 29.10                             117   -0.1210 14.7 282 
 DR02     S    a  1757 31.30      1.0     0.2            117    0.1010 14.7 282 
 DR05     P    a  1757 29.70                             112   -0.1610 19.0  72 
 DR05     S    a  1757 32.30                             112   -0.0110 19.0  72 
 DR01     P    a  1757 32.10                             103   -0.0110 33.4 288 
 DR01     S    a  1757 36.30                             103    0.1110 33.4 288 
 DR03     S    a  1757 36.90                             102    0.1910 35.3 107 
                                                                                
 2016 1016 2328 56.3 R  46.222 106.487 10.9  mon  4 0.1                        1
 GAP=153        0.37       3.7     2.0  4.5  0.5967E+01  0.6781E+01  0.1296E+02E
 ACTION:REG 18-10-16 09:42 OP:ngse STATUS:               ID:20161016232856     I
 IDC: ellipse    4.0    2.2  13 MB sd+-                  Event ID      204     3
 * 12 km NE Delgertsogt Dundgobi                     ***                       3
 STAT SP IPHASW D HRMM SECON CODA AMPLIT PERI AZIMU VELO AIN AR TRES W  DIS CAZ7
 DR05     P    a  2328 58.50                             151   -0.1310 6.82  52 
 DR05     S    a  2329 00.40                             151    0.0810 6.82  52 
 DR03     P    a  2329 00.90                             117    0.1510 24.1 120 
 DR03     S    a  2329 03.90                             117   -0.0910 24.1 120 
 DR02     S    a  2329 04.80                             115    0.0110 27.2 273 
 DR01     S    a  2329 09.60                             105   -0.0210 45.3 281 
                                                                                
 2016 1017 0638 44.8 R  46.198 106.743  9.5  mon  8 0.2-0.1Lmon                1
 GAP=135        0.46       1.7     1.0  2.5  0.1937E+00  0.7268E+00 -0.9917E+00E
 ACTION:REG 18-10-16 09:42 OP:ngse STATUS:               ID:20161017063845     I
 IDC: ellipse    2.3    1.0   7 MB sd+-                  Event ID      205     3
 * 3 km  E Deren Dundgobi                            ***                       3
 STAT SP IPHASW D HRMM SECON CODA AMPLIT PERI AZIMU VELO AIN AR TRES W  DIS CAZ7
 DR03     P    a  0638 47.10                             139   -0.0610 9.47 173 
 DR03     S    a  0638 49.00                             139    0.1110 9.47 173 
 DR07     P    a  0638 47.50                             129   -0.1010 13.2  71 
 DR07     S    a  0638 49.60                             129   -0.0410 13.2  71 
 DR05     P    a  0638 47.80                             125   -0.1810 16.0 295 
 DR05     S    a  0638 50.30                             125    0.0110 16.0 295 
 DR04     P    a  0638 49.40                             113    0.0310 25.7  86 
 DR04     S    a  0638 53.10                             113    0.4010 25.7  86 
 DR06     P    a  0638 49.70                             112    0.0310 27.6 104 
 DR06     S    a  0638 52.90                             112   -0.3210 27.6 104 
 DR10     S    a  0638 56.70                             105    0.0310 40.4 258 
 DR02     P    a  0638 52.70                             103   -0.0210 47.1 275 
 DR02     S    a  0638 58.40      1.0     0.2            103   -0.1110 47.1 275 
 DR01     P    a  0638 55.70                             100    0.0710 65.2 280 
 DR01     S    a  0639 03.70                             100    0.1710 65.2 280 
                                                                                
 2016 1017 1151 59.2 R  46.290 106.125 15.0  mon  4 0.4                        1
 GAP=182        0.71       4.0     3.1  5.7  0.6231E+01 -0.7734E+01 -0.1055E+02E
 ACTION:REG 18-10-16 09:42 OP:ngse STATUS:               ID:20161017115200     I
 IDC: ellipse   11.2    4.7  21 MB sd+-                  Event ID      208     3
 * 25 km NW Delgertsogt Dundgobi                     ***                       3
 STAT SP IPHASW D HRMM SECON CODA AMPLIT PERI AZIMU VELO AIN AR TRES W  DIS CAZ7
 DR02     P    a  1152 01.90                             159   -0.2310 6.25 174 
 DR02     S    a  1152 03.90                             159   -0.3410 6.25 174 
 DR01     P    a  1152 03.30                             135    0.2310 16.7 273 
 DR01     S    a  1152 05.80                             135   -0.0710 16.7 273 
 DR10     P    a  1152 03.80                             129    0.2910 20.3 156 
 DR10     S    a  1152 06.70                             129    0.0710 20.3 156 
 DR05     P    a  1152 07.30                             116    1.97 2 33.3  96 
 DR05     S    a  1152 09.70                             116   -0.0710 33.3  96 
                                                                                
 2016 1017 1535 40.1 R  46.197 106.227  7.3  mon  4 0.1                        1
 GAP=134        0.33       1.4     1.2  2.5  0.6306E+00 -0.1061E+01 -0.1792E+01E
 ACTION:REG 18-10-16 09:42 OP:ngse STATUS:               ID:20161017153540     I
 IDC: ellipse    2.4    1.6  16 MB sd+-                  Event ID      212     3
 * 13 km NW Delgertsogt Dundgobi                     ***                       3
 STAT SP IPHASW D HRMM SECON CODA AMPLIT PERI AZIMU VELO AIN AR TRES W  DIS CAZ7
 DR10     P    a  1535 42.00                             137   -0.0910 8.19 178 
 DR10     S    a  1535 43.60                             137    0.0810 8.19 178 
 DR02     P    a  1535 42.00                             137   -0.1010 8.27 300 
 DR02     S    a  1535 43.50                             137   -0.0410 8.27 300 
 DR05     P    a  1535 44.70                             108    0.0410 26.3  74 
 DR05     S    a  1535 48.00                             108    0.0210 26.3  74 
 DR01     P    a  1535 44.70                             108   -0.0610 27.0 295 
 DR01     S    a  1535 48.30                             108    0.1510 27.0 295 
                                                                                
 2016 1017 1607 14.1 R  46.188 106.223  8.7  mon  4 0.1                        1
 GAP=126        0.43       2.0     1.8  3.5  0.1525E+01 -0.3027E+01 -0.3860E+01E
 ACTION:REG 18-10-16 09:42 OP:ngse STATUS:               ID:20161017160714     I
 IDC: ellipse    3.3    2.3  12 MB sd+-                  Event ID      215     3
 * 12 km NW Delgertsogt Dundgobi                     ***                       3
 STAT SP IPHASW D HRMM SECON CODA AMPLIT PERI AZIMU VELO AIN AR TRES W  DIS CAZ7
 DR10     P    a  1607 15.90                             145   -0.2410 7.26 176 
 DR10     S    a  1607 17.80                             145    0.1710 7.26 176 
 DR02     P    a  1607 16.20                             140   -0.0710 8.56 307 
 DR02     S    a  1607 17.80                             140   -0.0610 8.56 307 
 DR05     P    a  1607 18.90                             111    0.1110 26.9  73 
 DR05     S    a  1607 22.20                             111   -0.0210 26.9  73 
 DR01     S    a  1607 22.40                             111    0.1110 27.1 297 
                                                                                
 2016 1017 2220 42.9 R  46.291 106.127 10.0  mon  5 0.1                        1
 GAP=183        0.45       2.6     1.9  3.2  0.2696E+01 -0.3534E+01 -0.3914E+01E
 ACTION:REG 18-10-16 09:42 OP:ngse STATUS:               ID:20161017222042     I
 IDC: ellipse    5.8    2.1  17 MB sd+-                  Event ID      220     3
 * 26 km NW Delgertsogt Dundgobi                     ***                       3
 STAT SP IPHASW D HRMM SECON CODA AMPLIT PERI AZIMU VELO AIN AR TRES W  DIS CAZ7
 DR02     P    a  2220 45.00                             151    0.0010 6.31 174 
 DR02     S    a  2220 46.60                             151    0.0410 6.31 174 
 DR01     P    a  2220 46.10                             124   -0.0710 16.7 273 
 DR01     S    a  2220 48.70                             124    0.1110 16.7 273 
 DR10     P    a  2220 46.50                             119   -0.1710 20.3 157 
 DR10     S    a  2220 49.40                             119   -0.0510 20.3 157 
 DR05     S    a  2220 52.60                             109   -0.2210 33.3  96 
 DR03     P    a  2220 51.70                             102    0.0510 52.6 112 
 DR03     S    a  2220 58.40                             102    0.3210 52.6 112 
                                                                                
 2016 1018 0110 46.0 R  46.193 106.222  7.1  mon  6 0.1-0.0Lmon                1
 GAP=129        0.35       0.8     1.0  1.8  0.2366E+00 -0.6485E+00  0.3075E-02E
 ACTION:REG 18-10-16 09:42 OP:ngse STATUS:               ID:20161018011046     I
 IDC: ellipse    2.6    1.9  27 MB sd+-                  Event ID      221     3
 * 14 km NW Delgertsogt Dundgobi                     ***                       3
 STAT SP IPHASW D HRMM SECON CODA AMPLIT PERI AZIMU VELO AIN AR TRES W  DIS CAZ7
 DR10     P    a  0110 47.80                             138   -0.0710 7.78 175 
 DR10     S    a  0110 49.30                             138    0.0410 7.78 175 
 DR02     P    a  0110 47.80                             137   -0.1210 8.15 304 
 DR02     S    a  0110 49.40                             137    0.0710 8.15 304 
 DR05     P    a  0110 50.50                             108   -0.0910 26.8  74 
 DR05     S    a  0110 53.80                             108   -0.1610 26.8  74 
 DR01     P    a  0110 50.60                             108    0.0210 26.8 296 
 DR01     S    a  0110 54.00      4.6     0.2            108    0.0610 26.8 296 
 DR03     P    a  0110 53.20                             101    0.1510 42.4 102 
 DR03     S    a  0110 58.40     0.90     0.2            101    0.1910 42.4 102 
 MDGM     P    a  0110 54.70                              99   -0.0510 52.9 171 
 MDGM     S    a  0111 01.10                              99   -0.0510 52.9 171 
                                                                                
 2016 1018 0432 55.9 R  46.289 106.123  8.5  mon  9 0.3 0.8Lmon                1
 GAP=181        0.76       2.3     2.2  3.8  0.5556E+00 -0.4475E+01 -0.2009E+01E
 ACTION:REG 18-10-16 09:42 OP:ngse STATUS:               ID:20161018043256     I
 IDC: ellipse    2.9    2.0 174 MB sd+-                  Event ID      222     3
 * 25 km NW Delgertsogt Dundgobi                     ***                       3
 STAT SP IPHASW D HRMM SECON CODA AMPLIT PERI AZIMU VELO AIN AR TRES W  DIS CAZ7
 DR02     P    a  0432 57.80                             149   -0.0210 6.12 172 
 DR02     S    a  0432 59.40      59.     0.2            149    0.1810 6.12 172 
 DR01     P    a  0432 58.90                             121   -0.1510 16.5 274 
 DR01     S    a  0433 01.50      43.     0.2            121    0.1510 16.5 274 
 DR10     P    a  0432 59.40                             116   -0.1910 20.2 156 
 DR10     S    a  0433 02.30                             116    0.0210 20.2 156 
 DR05     P    a  0433 01.20                             107   -0.4310 33.5  95 
 DR05     S    a  0433 05.20      19.     0.2            107   -0.61 9 33.5  95 
 DR03     P    a  0433 04.50                             101   -0.1810 52.7 111 
 DR03     S    a  0433 10.90      2.1     0.1            101   -0.1910 52.7 111 
 DR07     P    a  0433 05.90                              99   -0.0510 60.6  95 
 DR07     S    a  0433 13.30      16.     0.3             99    0.0210 60.6  95 
 MDGM     P    a  0433 07.00                              99    0.3510 64.9 166 
 MDGM     S    a  0433 14.30                              99   -0.1910 64.9 166 
 DR04     P    a  0433 08.30                              98    0.1910 73.9  96 
 DR04     S    a  0433 17.60                              98    0.59 9 73.9  96 
 DR06     P    a  0433 08.60                              97    0.0710 76.5 102 
 DR06     S    a  0433 18.20                              97    0.4610 76.5 102 
                                                                                
