 2014  3 4 0616 57.7 R  45.986  97.074  4.1  mon 27 2.1 0.6Lmon                1
 GAP=120        4.73       8.3    13.3 13.4  0.1855E+02 -0.6543E+02 -0.4681E+02E
 ACTION:REG 17-04-05 21:52 OP:ngse STATUS:               ID:20140304061658     I
 IDC: ellipse    2.0    1.5  76 MB sd+-                  Event ID   459698     3
 * 31 km NW Biger GobiAltai                          ***                       3
 STAT SP IPHASW D HRMM SECON CODA AMPLIT PERI AZIMU VELO AIN AR TRES W  DIS CAZ7
 HD48     P    a  0617 07.70                              46   -0.3010 48.2  59 
 HD48     S    a  0617 13.90      10.     0.2             46   -1.63 9 48.2  59 
 HD50     P    a  0617 10.40                              46   -0.7310 67.3  15 
 HD50     S    a  0617 19.30      4.4     0.2             46   -1.63 9 67.3  15 
 HD51     P    a  0617 14.60                              46   -0.3610 90.5   6 
 HD51     S    a  0617 26.30     0.60     0.2             46   -1.2610 90.5   6 
 HD70     P    a  0617 14.90                              46   -1.5910 99.7 131 
 HD70     S    a  0617 27.80     0.70     0.2             46   -2.41 9 99.7 131 
 HD66     P    a  0617 19.90                              46    0.0310  121  40 
 HD66     S    a  0617 34.20      1.4     0.3             46   -1.86 9  121  40 
 HD29     P    a  0617 21.50                              45   -1.74 9  142  16 
 HD29     S    a  0617 40.10      1.2     0.2             45   -1.79 9  142  16 
 HD71     P    a  0617 23.10                              45   -0.6610  145 251 
 HD71     S    a  0617 38.90     0.70     0.2             45   -3.89 7  145 251 
 HD30     P    a  0617 24.70                              45   -0.6410  155  18 
 HD30     S    a  0617 43.50     0.50     0.2             45   -2.01 9  155  18 
 HD67     P    a  0617 25.50                              45   -0.3310  158  74 
 HD67     S    a  0617 44.20     0.80     0.2             45   -2.17 9  158  74 
 HD28     P    a  0617 26.20                              45   -0.4710  163  25 
 HD28     S    a  0617 45.60     0.40     0.2             45   -2.22 9  163  25 
 HD31     P    a  0617 27.30                              45   -0.5110  170  17 
 HD31     S    a  0617 47.90     0.20     0.2             45   -1.90 9  170  17 
 HD32     P    a  0617 29.70                              43   -0.3710  185  20 
 HD32     S    a  0617 52.10     0.30     0.1             43   -1.61 9  185  20 
 HD33     P    a  0617 31.10                              41   -0.2310  193  22 
 HD33     S    a  0617 54.40     0.50     0.2             41   -1.4910  193  22 
 HD34     P    a  0617 34.80                              41    0.0110  216  26 
 HD34     S    a  0618 00.40     0.40     0.2             41   -1.4710  216  26 
 HD36     P    a  0617 38.30                              41    0.5910  236  26 
 HD36     S    a  0618 06.50     0.20     0.2             41   -0.4210  236  26 
 HD47     S    a  0618 06.70     0.40     0.2             41   -0.6410  238  85 
 HD45     P    a  0617 40.30                              41    1.2710  245  39 
 HD45     S    a  0618 09.80      2.1     0.3             41    0.5910  245  39 
 HD46     S    a  0618 09.80     0.60     0.2             41   -0.0510  248  67 
 HD59     P    a  0617 40.30                              41    0.2610  252 358 
 HD59     S    a  0618 10.60     0.10     0.3             41   -0.3510  252 358 
 HD60     P    a  0617 43.30                              34    0.6310  273   9 
 HD60     S    a  0618 17.20     0.30     0.3             34    1.6910  273   9 
 HD61     P    a  0617 46.70                              34    1.83 9  291  18 
 HD61     S    a  0618 22.60     0.50     0.3             34    3.29 8  291  18 
 HD40     P    a  0617 47.50                              34    2.14 9  294  32 
 HD40     S    a  0618 23.20     0.60     0.2             34    3.04 8  294  32 
 HD41     P    a  0617 49.70                              34    2.80 9  307  34 
 HD41     S    a  0618 27.40      1.4     0.2             34    4.58 6  307  34 
 HD65     P    a  0617 50.80                              34    3.32 8  311  50 
 HD65     S    a  0618 28.30     0.70     0.2             34    4.48 6  311  50 
 HD42     P    a  0617 52.00                              34    3.29 8  322  33 
 HD42     S    a  0618 31.00      1.0     0.3             34    5.04 5  322  33 
 HD62     P    a  0617 52.30                              34    3.57 8  322  40 
 HD62     S    a  0618 30.50     0.20     0.2             34    4.51 6  322  40 
 HD43     P    a  0617 53.40                              34    3.49 8  331  31 
 HD43     S    a  0618 33.30     0.30     0.3             34    5.27 5  331  31 
                                                                                
 2013  1 5 1039 17.3 R  46.320  99.846  8.6  mon 29 0.7 0.8Lmon                1
 GAP=167        1.52       2.9     2.3  4.0  0.3283E+01 -0.1839E+01 -0.4509E+01E
 ACTION:REG 17-04-05 21:52 OP:ngse STATUS:               ID:20130105103918     I
 IDC: ellipse    1.6    0.8  21 MB sd+-                  Event ID   446662     3
 * 18 km NE Bumbugur Baynhongor                      ***                       3
 STAT SP IPHASW D HRMM SECON CODA AMPLIT PERI AZIMU VELO AIN AR TRES W  DIS CAZ7
 HD06     P    a  1039 30.40                              46   -0.1210 70.2  98 
 HD06     S    a  1039 39.00      6.4     0.3             46   -1.16 8 70.2  98 
 HD10     P    a  1039 31.70                              46    0.1610 76.2  82 
 HD10     S    a  1039 40.90                              46   -1.02 8 76.2  82 
 HD25     P    a  1039 32.40                              46   -0.2610 83.1 336 
 HD25     S    a  1039 43.30                              46   -0.55 9 83.1 336 
 HD11     P    a  1039 33.50                              46    0.1710 87.1  69 
 HD11     S    a  1039 43.90                              46   -1.12 8 87.1  69 
 HD07     P    a  1039 33.60                              46   -0.2310 90.6 117 
 HD07     S    a  1039 44.40      1.2     0.3             46   -1.48 6 90.6 117 
 HD12     P    a  1039 34.70                              46    0.2610 93.7  63 
 HD12     S    a  1039 46.00                              46   -0.94 8 93.7  63 
 HD08     P    a  1039 34.50                              46   -0.1610 95.8 134 
 HD08     S    a  1039 46.50      3.4     0.3             46   -0.82 9 95.8 134 
 HD14     P    a  1039 35.20                              46    0.3410 96.2  50 
 HD14     S    a  1039 46.90                              46   -0.77 9 96.2  50 
 HD13     P    a  1039 35.10                              46    0.0810 97.1  56 
 HD13     S    a  1039 47.30                              46   -0.64 9 97.1  56 
 HD24     P    a  1039 37.20                              46   -0.0110  111   9 
 HD24     S    a  1039 50.20                              46   -1.54 6  111   9 
 HD15     P    a  1039 38.90                              46    0.3910  119  45 
 HD15     S    a  1039 53.10                              46   -0.88 9  119  45 
 HD05     P    a  1039 41.50                              45    0.1810  137  99 
 HD05     S    a  1039 58.50      1.4     0.2             45   -0.3410  137  99 
 HD27     P    a  1039 44.00                              45   -0.56 9  157 316 
 HD27     S    a  1040 03.70                              45   -0.74 9  157 316 
 HD18     P    a  1039 45.90                              45    0.66 9  162  42 
 HD18     S    a  1040 05.20                              45   -0.4210  162  42 
 HD22     P    a  1039 47.50                              45    0.67 9  172  57 
 HD22     S    a  1040 08.60                              45    0.2310  172  57 
 HD04     P    a  1039 48.00                              45    0.87 9  173  88 
 HD04     S    a  1040 08.60      1.8     0.2             45   -0.3010  173  88 
 HD19     P    a  1039 47.80                              45    0.58 9  174  40 
 HD19     S    a  1040 09.00                              45   -0.0410  174  40 
 HD28     P    a  1039 47.80                              43   -0.5110  180 308 
 HD28     S    a  1040 10.00                              43   -0.94 8  180 308 
 HD34     P    a  1039 50.60                              41    0.2310  194 324 
 HD34     S    a  1040 14.60      1.3     0.3             41    0.1010  194 324 
 HD30     P    a  1039 50.20                              41   -0.4610  196 305 
 HD30     S    a  1040 15.50                              41    0.51 9  196 305 
 HD33     P    a  1039 51.40                              41    0.4010  198 316 
 HD33     S    a  1040 15.70                              41    0.1210  198 316 
 HD29     P    a  1039 50.50                              41   -0.3110  198 301 
 HD29     S    a  1040 12.90                              41   -2.37 0  198 301 
 HD20     P    a  1039 51.20                              41    0.2310  199  37 
 HD20     S    a  1040 16.50                              41    0.96 8  199  37 
 HD32     P    a  1039 51.50                              41    0.1010  201 313 
 HD32     S    a  1040 17.00     0.90     0.3             41    0.72 9  201 313 
 HD35     P    a  1039 52.00                              41    0.1210  204 327 
 HD35     S    a  1040 17.60     0.80     0.3             41    0.4810  204 327 
 HD31     P    a  1039 52.50                              41    0.66 9  204 309 
 HD31     S    a  1040 17.40                              41    0.3610  204 309 
 HD02     P    a  1039 53.40                              41    1.41 6  206  71 
 HD02     S    a  1040 19.00      2.8     0.2             41    1.70 4  206  71 
 HD03     P    a  1039 53.50                              41    1.06 8  209  83 
 HD03     S    a  1040 18.90     0.50     0.3             41    0.83 9  209  83 
 HD01     P    a  1039 58.40                              41    1.50 6  239  74 
 HD01     S    a  1040 27.30     0.80     0.3             41    1.51 6  239  74 
                                                                                
 2012  624 0452 50.4 R  46.331  98.730  9.1  mon 30 0.9 1.6Lmon                1
 GAP=232        1.92       6.6     6.5 12.1  0.3599E+02 -0.6035E+02 -0.5895E+02E
 ACTION:REG 17-04-05 21:52 OP:ngse STATUS:               ID:20120624045250     I
 IDC: ellipse    2.3    0.9  24 MB sd+-                  Event ID   447756     3
 * 11 km  N Buutsagaan Baynhongor                    ***                       3
 STAT SP IPHASW D HRMM SECON CODA AMPLIT PERI AZIMU VELO AIN AR TRES W  DIS CAZ7
 HD67     P    a  0452 55.20                              91   -0.98 9 24.8  85 
 HD67     S    a  0452 58.40      0.5E+03 0.2             91   -2.01 5 24.8  85 
 HD66     P    a  0453 04.00                              90   -0.0310 72.8 318 
 HD66     S    a  0453 13.50      0.1E+03 0.3             90   -0.4910 72.8 318 
 HD27     P    a  0453 10.60                              90    0.0210  113 347 
 HD27     S    a  0453 23.00      28.     0.3             90   -2.31 4  113 347 
 HD28     P    a  0453 12.60                              78    0.2810  123 332 
 HD28     S    a  0453 26.30      27.     0.2             78   -2.03 5  123 332 
 HD30     P    a  0453 13.60                              76   -0.2710  133 325 
 HD30     S    a  0453 29.80      24.     0.2             76   -1.21 8  133 325 
 HD31     P    a  0453 15.60                              76   -0.2410  146 329 
 HD31     S    a  0453 33.00      18.     0.2             76   -1.41 8  146 329 
 HD32     P    a  0453 16.30                              76   -0.0810  149 335 
 HD32     S    a  0453 34.00      14.     0.2             76   -1.35 8  149 335 
 HD33     P    a  0453 17.60                              76    0.99 9  150 339 
 HD33     S    a  0453 35.40      38.     0.2             76   -0.3410  150 339 
 HD45     P    a  0453 17.00                              76    0.0910  153  12 
 HD45     S    a  0453 35.90      0.1E+03 0.3             76   -0.3710  153  12 
 HD34     P    a  0453 18.20                              76    0.3710  158 349 
 HD34     S    a  0453 36.30      48.     0.2             76   -1.57 7  158 349 
 HD10     P    a  0453 18.00                              76   -0.2910  162  86 
 HD10     S    a  0453 37.30      0.2E+03 0.2             76   -1.35 8  162  86 
 HD14     P    a  0453 19.30                              76   -0.4410  170  68 
 HD14     S    a  0453 38.90      44.     0.2             76   -2.27 4  170  68 
 HD11     P    a  0453 19.20                              76   -0.4210  170  79 
 HD11     S    a  0453 39.20      51.     0.2             76   -1.75 7  170  79 
 HD35     P    a  0453 20.50                              76    0.68 9  171 350 
 HD35     S    a  0453 40.80      25.     0.3             76   -0.5110  171 350 
 HD12     P    a  0453 19.90                              69   -0.4610  174  76 
 HD12     S    a  0453 40.90      0.2E+03 0.3             69   -1.34 8  174  76 
 HD36     P    a  0453 21.00                              69    0.58 9  175 353 
 HD36     S    a  0453 42.20      79.     0.5             69   -0.1310  175 353 
 HD13     P    a  0453 20.00                              69   -0.4310  175  72 
 HD13     S    a  0453 40.20      0.3E+03 0.2             69   -2.15 5  175  72 
 HD44     P    a  0453 21.40                              69    0.69 9  177  17 
 HD44     S    a  0453 42.50      63.     0.3             69   -0.3410  177  17 
 HD37     P    a  0453 23.30                              65    0.95 9  187 358 
 HD37     S    a  0453 45.80      32.     0.2             65    0.1210  187 358 
 HD15     P    a  0453 22.30                              65   -0.2010  189  63 
 HD15     S    a  0453 45.50      0.1E+03 0.2             65   -0.4410  189  63 
 HD39     P    a  0453 24.00                              65    0.89 9  193   7 
 HD39     S    a  0453 47.10      34.     0.2             65    0.1110  193   7 
 HD38     P    a  0453 24.80                              65    1.21 8  196   3 
 HD38     S    a  0453 48.10      30.     0.2             65    0.2910  196   3 
 HD63     P    a  0453 24.60                              65    0.93 9  197  23 
 HD63     S    a  0453 48.20      79.     0.2             65    0.2310  197  23 
 HD16     P    a  0453 24.10                              65    0.1310  199  60 
 HD16     S    a  0453 48.40      0.1E+03 0.3             65   -0.0810  199  60 
 HD40     P    a  0453 27.40                              65    1.46 7  212   9 
 HD40     S    a  0453 52.90      63.     0.3             65    1.01 9  212   9 
 HD17     P    a  0453 26.70                              65    0.5710  213  59 
 HD17     S    a  0453 53.50      79.     0.3             65    1.28 8  213  59 
 HD18     P    a  0453 29.10                              65    0.90 9  228  58 
 HD18     S    a  0453 57.00      0.3E+03 0.3             65    1.20 8  228  58 
 HD19     P    a  0453 30.40                              65    0.76 9  237  55 
 HD19     S    a  0453 58.70      45.     0.2             65    0.4210  237  55 
 HD22     P    a  0453 31.80                              65    0.62 9  248  68 
 HD22     S    a  0454 01.90      33.     0.2             65    0.94 9  248  68 
 HD21     P    a  0453 34.80                              50    0.2910  274  47 
 HD21     S    a  0454 08.60      66.     0.2             50    1.88 5  274  47 
                                                                                
