 2014  324 1017 25.7 R  45.874  98.647 15.0  mon 24 1.7 0.8Lmon                1
 GAP=260        3.58      15.2    16.7 16.2  0.1177E+03 -0.9054E+02 -0.1456E+03E
 ACTION:REG 17-04-05 21:52 OP:ngse STATUS:               ID:20140324101724     I
 IDC: ellipse    2.9    1.8  28 MB sd+-                  Event ID   460139     3
 * 38 km  S Buutsagaan Baynhongor                    ***                       3
 STAT SP IPHASW D HRMM SECON CODA AMPLIT PERI AZIMU VELO AIN AR TRES W  DIS CAZ7
 HD67     P    a  1017 34.90                              79   -2.62 8 61.4  30 
 HD67     S    a  1017 40.90                              79   -5.21 2 61.4  30 
 HD47     P    a  1017 42.50                              77   -4.28 5  120  75 
 HD47     S    a  1017 54.30      1.6     0.2             77   -7.85 0  120  75 
 HD46     P    a  1017 49.00                              77   -2.88 8  152  45 
 HD46     S    a  1018 04.90      4.2     0.3             77   -6.06 0  152  45 
 HD28     P    a  1017 52.10                              70   -2.34 9  168 342 
 HD28     S    a  1018 14.50     0.40     0.2             70   -0.9010  168 342 
 HD30     P    a  1017 55.00                              66   -0.3910  175 336 
 HD30     S    a  1018 16.60     0.30     0.2             66   -0.4410  175 336 
 HD31     P    a  1017 57.40                              66   -0.0810  189 339 
 HD31     S    a  1018 20.70     0.30     0.1             66    0.0610  189 339 
 HD32     P    a  1017 58.20                              66   -0.1510  195 343 
 HD32     S    a  1018 21.40     0.40     0.2             66   -0.7610  195 343 
 HD33     P    a  1018 00.40                              66    1.64 9  197 346 
 HD33     S    a  1018 21.90     0.40     0.2             66   -0.9810  197 346 
 HD45     P    a  1017 59.80                              66    0.1010  204  10 
 HD45     S    a  1018 22.30     0.90     0.2             66   -2.19 9  204  10 
 HD34     P    a  1018 01.60                              66    1.30 9  207 354 
 HD34     S    a  1018 25.00      1.3     0.2             66   -0.5310  207 354 
 HD35     P    a  1018 01.80                              66   -0.3810  220 354 
 HD35     S    a  1018 29.20     0.40     0.2             66    0.4110  220 354 
 HD36     P    a  1018 03.70                              66    0.8810  225 356 
 HD36     S    a  1018 29.90     0.50     0.2             66    0.0110  225 356 
 HD65     P    a  1018 04.40                              50   -0.8810  242  30 
 HD65     S    a  1018 31.20      1.0     0.2             50   -2.95 8  242  30 
 HD63     P    a  1018 04.70                              50   -1.1510  246  19 
 HD63     S    a  1018 34.40     0.20     0.2             50   -0.7210  246  19 
 HD38     P    a  1018 06.10                              50    0.1610  247   4 
 HD38     S    a  1018 35.50     0.30     0.2             50    0.2110  247   4 
 HD40     P    a  1018 09.20                              50    1.26 9  263   9 
 HD40     S    a  1018 40.00     0.40     0.2             50    1.26 9  263   9 
 HD41     P    a  1018 10.10                              50    1.36 9  269  12 
 HD41     S    a  1018 41.60      3.3     0.5             50    1.47 9  269  12 
 HD64     P    a  1018 07.10                              50   -1.81 9  271  27 
 HD64     S    a  1018 40.50     0.80     0.3             50    0.0710  271  27 
 HD42     P    a  1018 12.50                              50    1.85 9  285  12 
 HD42     S    a  1018 45.30     0.80     0.2             50    1.86 9  285  12 
 HD61     S    a  1018 47.20     0.30     0.2             50    2.82 8  290 355 
 HD60     S    a  1018 49.10     0.40     0.3             50    4.28 5  291 346 
 HD59     P    a  1018 16.80                              50    5.03 3  294 335 
 HD59     S    a  1018 50.70     0.20     0.2             50    5.32 2  294 335 
 HD43     P    a  1018 13.60                              50    1.2010  299  10 
 HD43     S    a  1018 49.60     0.90     0.3             50    3.14 7  299  10 
 HD57     S    a  1018 55.10      4.3     0.5             50    4.57 4  319  10 
                                                                                
 2013 1213 0530 19.3 R  46.024  98.932  7.9  mon 25 0.7 1.3Lmon                1
 GAP=182        1.44       3.3     6.2  3.2 -0.8220E+01  0.8564E+01 -0.4556E+01E
 ACTION:REG 17-04-05 21:52 OP:ngse STATUS:               ID:20131213053019     I
 IDC: ellipse    1.8    1.4 118 MB sd+-                  Event ID   457271     3
 * 34 km SE Buutsagaan Baynhongor                    ***                       3
 STAT SP IPHASW D HRMM SECON CODA AMPLIT PERI AZIMU VELO AIN AR TRES W  DIS CAZ7
 HD67     P    a  0530 26.70                              46   -0.61 9 37.4  14 
 HD67     S    a  0530 31.80      21.     0.2             46   -1.36 7 37.4  14 
 HD47     S    a  0530 43.90      3.1     0.2             46   -5.40 0 94.7  81 
 HD70     P    a  0530 37.10                              46   -0.3710 99.5 225 
 HD70     S    a  0530 49.70      1.5     0.2             46   -1.04 8 99.5 225 
 HD46     P    a  0530 39.60                              45   -1.90 3  125  44 
 HD46     S    a  0530 53.90      5.0     0.2             45   -3.81 0  125  44 
 HD27     P    a  0530 45.30                              45   -0.2610  150 344 
 HD27     S    a  0531 03.30      7.0     0.8             45   -1.43 6  150 344 
 HD56     P    a  0530 45.90                              45   -0.4710  155 352 
 HD56     S    a  0531 04.10      1.5     0.3             45   -2.04 2  155 352 
 HD28     P    a  0530 47.50                              45    0.1510  161 333 
 HD28     S    a  0531 06.80      2.0     0.3             45   -1.03 8  161 333 
 HD30     P    a  0530 49.80                              45    0.98 8  170 327 
 HD30     S    a  0531 09.90      5.3     0.3             45   -0.4710  170 327 
 HD31     P    a  0530 51.90                              43    1.11 7  183 330 
 HD31     S    a  0531 13.30      2.4     0.3             43   -0.4810  183 330 
 HD45     P    a  0530 50.40                              43   -0.5510  184   5 
 HD45     S    a  0531 12.90      11.     0.7             43   -1.16 8  184   5 
 HD32     P    a  0530 52.00                              43    0.66 9  187 335 
 HD32     S    a  0531 14.90      5.5     0.4             43    0.1610  187 335 
 HD33     P    a  0530 52.00                              41    0.45 9  188 339 
 HD33     S    a  0531 15.50      3.7     0.3             41    0.4110  188 339 
 HD34     P    a  0530 53.10                              41    0.52 9  195 347 
 HD34     S    a  0531 16.50      2.8     0.2             41   -0.3710  195 347 
 HD35     P    a  0530 54.80                              41    0.3810  207 348 
 HD35     S    a  0531 20.70      3.3     0.3             41    0.65 9  207 348 
 HD36     P    a  0530 55.30                              41    0.4010  211 350 
 HD36     S    a  0531 20.80      2.4     0.3             41   -0.1010  211 350 
 HD65     P    a  0530 55.20                              41   -0.5510  217  27 
 HD65     S    a  0531 20.60      2.0     0.2             41   -1.77 4  217  27 
 HD37     P    a  0530 57.40                              41    0.74 9  223 354 
 HD37     S    a  0531 24.00      2.5     0.3             41    0.0610  223 354 
 HD63     S    a  0531 24.00      1.2     0.2             41   -0.1810  224  16 
 HD39     P    a  0530 57.10                              41    0.0410  225   2 
 HD39     S    a  0531 24.80      1.2     0.3             41    0.1710  225   2 
 HD38     P    a  0530 57.90                              41    0.1910  230 359 
 HD38     S    a  0531 25.80      3.3     0.5             41    0.0510  230 359 
 HD40     P    a  0531 00.10                              41    0.3010  244   4 
 HD40     S    a  0531 29.70      2.6     0.4             41    0.3310  244   4 
 HD41     P    a  0531 00.80                              41    0.2310  249   8 
 HD41     S    a  0531 30.90      4.1     0.5             41    0.2010  249   8 
 HD42     P    a  0531 03.30                              34    0.80 8  265   9 
 HD42     S    a  0531 35.20      4.3     0.3             34    1.16 7  265   9 
 HD43     P    a  0531 05.90                              34    1.59 4  280   7 
 HD43     S    a  0531 39.00      2.9     0.4             34    1.82 3  280   7 
 HD71     P    a  0531 04.90                              34   -0.2610  286 261 
 HD71     S    a  0531 44.50      1.0     0.2             34    5.86 0  286 261 
                                                                                
 2013  117 0901 37.9 R  46.319  99.866  8.8  mon 26 0.7 0.7Lmon                1
 GAP=132        1.56       2.8     5.7  6.7  0.4633E+01 -0.2585E+02 -0.3802E+01E
 ACTION:REG 17-04-05 21:52 OP:ngse STATUS:               ID:20130117090138     I
 IDC: ellipse    1.0    0.6   1 MB sd+-                  Event ID   447028     3
 * 19 km NE Bumbugur Baynhongor                      ***                       3
 STAT SP IPHASW D HRMM SECON CODA AMPLIT PERI AZIMU VELO AIN AR TRES W  DIS CAZ7
 HD47     P    a  0901 44.60                              46    0.2610 28.8 132 
 HD47     S    a  0901 48.60      4.6     0.2             46   -0.4410 28.8 132 
 HD46     P    a  0901 49.30                              46    0.0910 58.6  15 
 HD46     S    a  0901 56.40      9.0     0.3             46   -1.07 8 58.6  15 
 HD67     P    a  0901 48.90                              46   -1.03 8 62.8 273 
 HD67     S    a  0901 56.10      2.7     0.2             46   -2.61 0 62.8 273 
 HD06     P    a  0901 50.70                              46   -0.1210 68.6  98 
 HD06     S    a  0901 59.50                              46   -0.74 9 68.6  98 
 HD10     P    a  0901 51.90                              46    0.0610 74.7  81 
 HD10     S    a  0902 01.50      6.1     0.3             46   -0.5110 74.7  81 
 HD25     P    a  0901 52.80                              46   -0.5410 83.9 335 
 HD11     P    a  0901 53.70                              46    0.0510 85.6  69 
 HD11     S    a  0902 04.10      2.5     0.2             46   -1.05 8 85.6  69 
 HD07     P    a  0901 54.20                              46    0.0610 89.1 117 
 HD07     S    a  0902 04.80                              46   -1.20 7 89.1 117 
 HD12     P    a  0901 55.00                              46    0.2210 92.4  63 
 HD12     S    a  0902 06.20      6.9     0.2             46   -0.89 9 92.4  63 
 HD08     P    a  0901 55.40                              46    0.3910 94.6 135 
 HD08     S    a  0902 05.50                              46   -2.00 3 94.6 135 
 HD14     P    a  0901 55.50                              46    0.2610 95.1  49 
 HD14     S    a  0902 07.20      2.0     0.3             46   -0.69 9 95.1  49 
 HD13     P    a  0901 55.60                              46    0.2310 95.9  56 
 HD15     P    a  0901 59.20                              46    0.3010  118  44 
 HD15     S    a  0902 13.40                              46   -0.83 9  118  44 
 HD16     P    a  0902 01.30                              45    0.3910  131  42 
 HD16     S    a  0902 17.00                              45   -0.70 9  131  42 
 HD05     P    a  0902 01.80                              45    0.1810  135  99 
 HD05     S    a  0902 18.50                              45   -0.4310  135  99 
 HD23     P    a  0902 02.80                              45    0.1010  142  21 
 HD17     P    a  0902 03.80                              45    0.4910  146  42 
 HD18     P    a  0902 06.20                              45    0.56 9  161  42 
 HD22     P    a  0902 07.70                              45    0.51 9  170  57 
 HD04     P    a  0902 07.80                              45    0.3610  172  88 
 HD04     S    a  0902 28.90                              45   -0.1010  172  88 
 HD19     P    a  0902 08.10                              45    0.4710  173  39 
 HD48     P    a  0902 06.70                              43   -1.14 8  174 267 
 HD20     P    a  0902 12.40                              41    1.00 8  198  37 
 HD02     P    a  0902 13.50                              41    1.17 7  205  71 
 HD02     S    a  0902 38.90                              41    1.45 6  205  71 
 HD03     P    a  0902 13.70                              41    0.94 8  207  83 
 HD03     S    a  0902 38.80                              41    0.60 9  207  83 
 HD01     P    a  0902 18.70                              41    1.47 6  238  74 
 HD01     S    a  0902 47.30                              41    1.36 6  238  74 
                                                                                
 2013 11 6 2229  0.4 R  45.706 100.828  4.8  mon 26 1.3 0.9Lmon                1
 GAP=149        2.66       7.1    11.3  7.3  0.4106E+02  0.1983E+01 -0.2017E+02E
 ACTION:REG 17-04-05 21:52 OP:ngse STATUS:               ID:20131106222901     I
 IDC: ellipse    2.9    1.5  57 MB sd+-                  Event ID   455410     3
 * 33 km  S Ulziit Baynhongor                        ***                       3
 STAT SP IPHASW D HRMM SECON CODA AMPLIT PERI AZIMU VELO AIN AR TRES W  DIS CAZ7
 HD47     P    a  2229 13.30                              46   -1.27 9 72.1 313 
 HD47     S    a  2229 21.40     0.90     0.2             46   -3.49 3 72.1 313 
 HD46     P    a  2229 23.50                              45   -1.80 8  138 335 
 HD46     S    a  2229 40.20      1.8     0.2             45   -3.25 4  138 335 
 HD67     P    a  2229 27.10                              45   -0.9010  155 298 
 HD67     S    a  2229 46.10     0.60     0.2             45   -2.02 8  155 298 
 HD68     P    a  2229 33.80                              41    0.0110  193 138 
 HD68     S    a  2229 57.30     0.50     0.2             41   -0.8510  193 138 
 HD65     P    a  2229 38.00                              41   -1.68 8  232 349 
 HD65     S    a  2230 04.90      1.7     0.2             41   -3.43 3  232 349 
 HD56     P    a  2229 41.90                              41   -0.8010  252 319 
 HD56     S    a  2230 12.60     0.20     0.2             41   -0.9510  252 319 
 HD45     S    a  2230 12.00      2.0     0.3             34   -2.01 8  254 330 
 HD48     P    a  2229 43.00                              34   -0.0710  256 284 
 HD48     S    a  2230 14.50     0.50     0.3             34    0.3110  256 284 
 HD27     P    a  2229 43.10                              34   -0.4610  259 315 
 HD27     S    a  2230 14.80     0.60     0.3             34   -0.2410  259 315 
 HD44     S    a  2230 13.40      1.1     0.4             34   -2.07 8  261 336 
 HD63     S    a  2230 13.90      1.3     0.2             34   -2.13 7  264 342 
 HD28     P    a  2229 46.80                              34    0.2510  283 310 
 HD28     S    a  2230 20.90     0.40     0.2             34    0.6810  283 310 
 HD62     S    a  2230 19.60     0.50     0.3             34   -1.20 9  286 345 
 HD39     P    a  2229 48.00                              34    0.1110  294 333 
 HD39     S    a  2230 21.90     0.20     0.2             34   -0.6410  294 333 
 HD33     P    a  2229 50.00                              34    1.22 9  300 315 
 HD33     S    a  2230 26.80     0.30     0.3             34    2.72 6  300 315 
 HD41     P    a  2229 49.80                              34    0.8610  302 339 
 HD41     S    a  2230 24.50      1.6     0.3             34    0.1410  302 339 
 HD32     P    a  2229 50.40                              34    1.26 9  303 313 
 HD32     S    a  2230 28.70     0.40     0.3             34    4.01 1  303 313 
 HD36     P    a  2229 50.00                              34    0.89 9  303 324 
 HD36     S    a  2230 24.90     0.60     0.3             34    0.2610  303 324 
 HD35     P    a  2229 50.40                              34    1.14 9  304 322 
 HD35     S    a  2230 26.10      1.0     0.4             34    1.19 9  304 322 
 HD38     P    a  2229 50.00                              34    0.7810  304 331 
 HD38     S    a  2230 25.10     0.40     0.3             34    0.2710  304 331 
 HD40     P    a  2229 49.90                              34    0.5110  306 336 
 HD40     S    a  2230 25.70     0.80     0.2             34    0.5810  306 336 
 HD31     S    a  2230 28.70     0.40     0.2             34    3.38 3  306 310 
 HD37     P    a  2229 50.40                              34    0.8610  307 328 
 HD37     S    a  2230 26.40     0.50     0.3             34    1.00 9  307 328 
 HD42     P    a  2229 51.40                              34    0.94 9  315 341 
 HD42     S    a  2230 27.70      1.4     0.2             34    0.7210  315 341 
 HD43     S    a  2230 32.40     0.60     0.4             34    1.84 8  332 341 
 HD57     S    a  2230 37.70      2.4     0.2             34    3.44 3  349 343 
                                                                                
